{"type": "FeatureCollection", "crs": {"type": "name", "properties": {"name": "urn:ogc:def:crs:EPSG::32635"}}, "features": [{"type": "Feature", "properties": {"length_m": 0.2, "mode": "farmer", "start": [629504.7, 5220250.75], "custom_start": false, "target_types": "waste", "targets_total": 0, "targets_visited": 0, "outside_share": 0.0, "row_walls": true, "minutes_at_4kmh": 0.0}, "geometry": {"type": "LineString", "coordinates": [[629504.7, 5220250.75], [629504.75, 5220250.65], [629504.7, 5220250.75]]}}]}