{"type": "FeatureCollection", "crs": {"type": "name", "properties": {"name": "urn:ogc:def:crs:EPSG::32635"}}, "features": [{"type": "Feature", "properties": {"length_m": 8822.2, "mode": "inspector", "start": [629504.7, 5220250.75], "custom_start": false, "target_types": "gap,waste", "targets_total": 137, "targets_visited": 69, "outside_share": 0.0145, "row_walls": true, "minutes_at_4kmh": 132.3}, "geometry": {"type": "LineString", "coordinates": [[629504.7, 5220250.75], [629504.75, 5220250.65], [629509.25, 5220237.65], [629511.75, 5220235.15], [629513.75, 5220236.65], [629515.25, 5220236.15], [629530.75, 5220215.15], [629535.25, 5220209.15], [629535.75, 5220208.15], [629525.75, 5220223.65], [629525.25, 5220224.15], [629514.75, 5220236.65], [629513.25, 5220236.65], [629511.75, 5220235.15], [629510.25, 5220232.65], [629511.25, 5220231.65], [629529.75, 5220207.15], [629530.75, 5220205.65], [629530.75, 5220204.65], [629530.25, 5220204.65], [629529.75, 5220204.15], [629529.25, 5220204.65], [629528.75, 5220205.15], [629521.25, 5220215.15], [629521.25, 5220215.65], [629517.75, 5220218.65], [629518.25, 5220218.15], [629523.25, 5220211.65], [629528.75, 5220205.15], [629529.25, 5220204.65], [629529.75, 5220204.15], [629530.25, 5220203.65], [629530.75, 5220204.15], [629533.25, 5220202.15], [629534.25, 5220201.15], [629535.25, 5220199.65], [629535.75, 5220198.15], [629560.75, 5220167.65], [629562.25, 5220166.15], [629578.25, 5220169.65], [629599.25, 5220178.15], [629599.75, 5220178.65], [629596.75, 5220186.15], [629590.25, 5220194.65], [629585.75, 5220200.65], [629584.75, 5220202.15], [629574.25, 5220217.15], [629572.25, 5220219.65], [629571.75, 5220220.65], [629584.75, 5220200.65], [629589.25, 5220196.15], [629589.75, 5220193.65], [629601.25, 5220180.15], [629602.25, 5220179.15], [629617.75, 5220181.65], [629621.75, 5220185.65], [629604.75, 5220208.65], [629602.75, 5220210.65], [629604.25, 5220209.15], [629606.25, 5220206.65], [629607.75, 5220204.65], [629608.75, 5220203.15], [629611.75, 5220198.65], [629613.75, 5220196.15], [629620.25, 5220187.65], [629621.75, 5220185.65], [629620.75, 5220184.65], [629620.25, 5220184.65], [629619.25, 5220185.65], [629617.25, 5220188.15], [629610.75, 5220196.65], [629609.75, 5220198.15], [629607.75, 5220200.65], [629599.25, 5220211.15], [629598.25, 5220212.15], [629599.25, 5220211.15], [629604.25, 5220204.65], [629607.25, 5220200.65], [629607.75, 5220199.15], [629609.75, 5220196.65], [629617.25, 5220187.15], [629618.25, 5220185.65], [629618.75, 5220184.15], [629608.25, 5220181.15], [629605.25, 5220180.15], [629600.25, 5220176.15], [629599.75, 5220175.65], [629625.25, 5220140.65], [629640.25, 5220124.15], [629643.75, 5220116.65], [629647.25, 5220112.15], [629652.25, 5220105.65], [629663.75, 5220091.65], [629664.75, 5220090.65], [629665.75, 5220090.65], [629678.75, 5220092.65], [629679.75, 5220091.65], [629687.75, 5220081.15], [629694.25, 5220072.65], [629695.25, 5220071.15], [629700.25, 5220064.65], [629709.75, 5220052.15], [629732.75, 5220021.65], [629740.75, 5220012.65], [629742.75, 5220010.65], [629769.25, 5220017.65], [629780.75, 5220020.65], [629778.75, 5220018.15], [629779.25, 5220014.65], [629791.75, 5219996.15], [629918.25, 5219839.65], [629920.25, 5219837.15], [629921.75, 5219835.15], [629922.75, 5219833.65], [629925.75, 5219830.15], [629927.75, 5219827.65], [629940.75, 5219811.15], [629944.75, 5219806.15], [629948.25, 5219801.65], [629952.25, 5219796.65], [629967.25, 5219780.15], [629977.75, 5219767.15], [629979.75, 5219764.65], [629983.25, 5219760.15], [629983.75, 5219759.15], [629985.25, 5219757.65], [629987.25, 5219755.15], [629990.75, 5219750.65], [629994.75, 5219745.65], [629995.75, 5219744.15], [629995.75, 5219742.65], [629995.25, 5219742.15], [629973.75, 5219715.15], [630007.75, 5219673.65], [630042.75, 5219639.65], [630067.25, 5219620.15], [630067.75, 5219619.65], [630072.25, 5219615.15], [630200.75, 5219507.65], [630216.75, 5219565.15], [630227.75, 5219576.15], [630242.75, 5219571.15], [630244.75, 5219570.65], [630261.25, 5219601.65], [630291.75, 5219642.65], [630310.75, 5219661.65], [630312.75, 5219652.65], [630327.75, 5219595.15], [630344.75, 5219541.65], [630353.25, 5219469.15], [630352.25, 5219467.15], [630352.25, 5219465.15], [630350.25, 5219463.15], [630338.25, 5219453.15], [630333.25, 5219448.65], [630332.75, 5219448.15], [630329.25, 5219445.65], [630324.75, 5219441.65], [630323.25, 5219440.15], [630316.75, 5219435.65], [630314.75, 5219435.15], [630310.25, 5219430.65], [630308.75, 5219431.15], [630307.75, 5219430.15], [630306.25, 5219428.15], [630304.25, 5219425.15], [630302.75, 5219423.15], [630300.75, 5219420.15], [630299.25, 5219418.15], [630298.25, 5219416.65], [630296.75, 5219414.65], [630294.75, 5219411.65], [630293.25, 5219409.65], [630291.25, 5219406.65], [630289.75, 5219404.65], [630287.75, 5219401.65], [630286.25, 5219399.65], [630284.25, 5219396.65], [630282.75, 5219394.65], [630280.75, 5219391.65], [630279.25, 5219389.65], [630277.25, 5219386.65], [630275.75, 5219384.65], [630273.75, 5219381.65], [630272.25, 5219379.65], [630271.75, 5219379.15], [630256.75, 5219354.65], [630236.25, 5219322.65], [630229.25, 5219311.65], [630229.25, 5219311.15], [630228.25, 5219310.15], [630227.25, 5219308.65], [630226.25, 5219307.15], [630225.25, 5219305.65], [630224.25, 5219304.15], [630218.25, 5219295.15], [630214.25, 5219290.15], [630218.25, 5219286.65], [630221.25, 5219289.65], [630222.25, 5219292.65], [630222.75, 5219293.15], [630232.25, 5219308.15], [630235.25, 5219312.65], [630245.25, 5219328.15], [630247.75, 5219331.15], [630248.25, 5219331.65], [630247.75, 5219331.15], [630244.75, 5219326.65], [630239.25, 5219318.15], [630229.25, 5219302.65], [630221.25, 5219290.15], [630221.25, 5219289.65], [630220.75, 5219289.15], [630218.25, 5219286.65], [630213.75, 5219290.65], [630220.75, 5219298.65], [630221.25, 5219299.15], [630233.75, 5219319.65], [630234.25, 5219320.65], [630234.75, 5219321.15], [630236.75, 5219324.15], [630246.25, 5219339.15], [630249.25, 5219343.65], [630257.75, 5219356.15], [630258.75, 5219357.15], [630259.25, 5219359.15], [630261.25, 5219362.65], [630264.25, 5219367.15], [630272.25, 5219379.65], [630286.25, 5219400.65], [630287.75, 5219402.65], [630289.75, 5219405.65], [630291.25, 5219407.65], [630293.25, 5219410.65], [630294.75, 5219412.65], [630296.75, 5219415.65], [630298.25, 5219417.65], [630300.25, 5219420.65], [630301.75, 5219422.65], [630302.75, 5219424.15], [630307.75, 5219430.15], [630307.25, 5219431.65], [630294.25, 5219444.15], [630270.25, 5219460.65], [630226.75, 5219485.65], [630067.75, 5219619.15], [630067.75, 5219619.65], [630067.25, 5219620.15], [630032.75, 5219648.65], [630011.25, 5219671.65], [629976.75, 5219711.15], [629973.75, 5219717.15], [629995.75, 5219743.15], [629997.75, 5219745.65], [629999.25, 5219747.65], [630000.75, 5219750.15], [630020.25, 5219775.65], [630021.25, 5219773.65], [630022.25, 5219768.65], [630022.25, 5219767.65], [630021.25, 5219778.15], [630020.75, 5219778.65], [630020.75, 5219779.65], [630021.25, 5219780.15], [630022.25, 5219780.15], [630022.75, 5219779.65], [630024.75, 5219771.15], [630024.75, 5219770.15], [630024.25, 5219773.65], [630023.25, 5219784.15], [630024.25, 5219785.15], [630024.75, 5219784.65], [630027.25, 5219774.15], [630027.25, 5219773.15], [630026.75, 5219776.65], [630024.25, 5219788.65], [630032.25, 5219806.65], [630029.75, 5219816.65], [629920.25, 5219954.15], [629799.75, 5220109.65], [629788.25, 5220120.65], [629754.25, 5220111.15], [629754.25, 5220110.15], [629754.75, 5220109.65], [629754.25, 5220110.15], [629754.75, 5220111.65], [629787.25, 5220122.15], [629768.25, 5220141.65], [629763.25, 5220137.15], [629759.75, 5220138.15], [629749.25, 5220153.65], [629745.75, 5220158.15], [629744.25, 5220160.15], [629744.25, 5220160.65], [629742.25, 5220162.65], [629737.25, 5220169.15], [629730.25, 5220178.15], [629725.25, 5220184.65], [629721.75, 5220189.15], [629714.25, 5220197.65], [629713.75, 5220198.15], [629711.75, 5220202.15], [629714.25, 5220204.65], [629708.75, 5220210.65], [629702.25, 5220210.65], [629700.25, 5220212.65], [629695.25, 5220219.15], [629690.25, 5220225.65], [629689.75, 5220226.65], [629694.25, 5220219.15], [629699.25, 5220212.65], [629700.75, 5220210.65], [629699.75, 5220209.65], [629694.75, 5220208.15], [629690.75, 5220207.15], [629688.75, 5220207.65], [629689.75, 5220206.65], [629670.25, 5220198.15], [629669.75, 5220197.65], [629670.75, 5220194.65], [629674.25, 5220189.65], [629675.75, 5220187.65], [629675.75, 5220187.15], [629677.25, 5220185.65], [629679.25, 5220183.15], [629682.75, 5220178.65], [629697.75, 5220159.15], [629707.75, 5220148.15], [629709.25, 5220146.65], [629716.25, 5220135.15], [629731.25, 5220115.65], [629735.75, 5220109.65], [629735.75, 5220109.15], [629735.25, 5220108.65], [629728.75, 5220107.15], [629726.75, 5220108.65], [629729.25, 5220107.15], [629730.75, 5220108.15], [629729.75, 5220110.15], [629729.25, 5220110.65], [629725.75, 5220115.15], [629705.75, 5220141.15], [629702.25, 5220145.65], [629697.25, 5220152.15], [629692.75, 5220158.15], [629692.75, 5220158.65], [629690.75, 5220160.65], [629685.75, 5220167.15], [629680.75, 5220173.15], [629680.25, 5220173.65], [629680.75, 5220173.15], [629687.75, 5220164.15], [629692.75, 5220157.65], [629699.75, 5220148.65], [629709.75, 5220135.65], [629717.75, 5220125.15], [629730.75, 5220108.65], [629731.75, 5220107.65], [629733.25, 5220108.15], [629732.25, 5220111.15], [629731.75, 5220111.65], [629726.75, 5220118.15], [629723.25, 5220122.65], [629708.25, 5220142.15], [629706.25, 5220144.65], [629698.25, 5220155.15], [629693.25, 5220161.65], [629689.75, 5220166.15], [629681.75, 5220175.65], [629681.25, 5220176.15], [629663.75, 5220200.15], [629661.75, 5220203.15], [629660.25, 5220205.15], [629659.25, 5220206.65], [629650.75, 5220218.15], [629648.75, 5220220.65], [629642.25, 5220229.15], [629632.25, 5220242.15], [629628.75, 5220246.65], [629627.75, 5220248.15], [629625.75, 5220250.65], [629608.25, 5220273.15], [629606.75, 5220275.15], [629606.75, 5220275.65], [629604.75, 5220277.65], [629601.75, 5220281.15], [629592.25, 5220278.65], [629589.25, 5220277.65], [629563.75, 5220270.15], [629560.75, 5220269.65], [629557.75, 5220268.65], [629505.75, 5220250.15], [629503.25, 5220255.65], [629499.25, 5220325.15], [629487.75, 5220346.15], [629475.75, 5220383.65], [629457.75, 5220465.65], [629454.25, 5220489.65], [629453.25, 5220503.15], [629460.75, 5220505.65], [629466.25, 5220506.65], [629467.75, 5220507.15], [629473.25, 5220508.65], [629475.75, 5220509.15], [629476.25, 5220509.15], [629476.75, 5220509.65], [629485.25, 5220511.65], [629487.75, 5220512.15], [629484.25, 5220511.65], [629460.25, 5220505.65], [629459.25, 5220505.65], [629458.75, 5220505.15], [629455.25, 5220504.65], [629452.75, 5220503.65], [629452.25, 5220510.15], [629451.75, 5220521.65], [629454.75, 5220521.65], [629455.25, 5220522.15], [629479.25, 5220528.15], [629479.75, 5220528.65], [629481.25, 5220528.65], [629453.25, 5220521.65], [629451.25, 5220521.65], [629451.25, 5220526.15], [629454.75, 5220526.15], [629455.25, 5220526.65], [629477.75, 5220532.15], [629478.75, 5220532.15], [629479.25, 5220532.65], [629481.25, 5220533.15], [629481.75, 5220533.65], [629481.25, 5220533.15], [629453.25, 5220526.15], [629450.75, 5220526.15], [629450.75, 5220530.65], [629454.75, 5220530.65], [629455.25, 5220531.15], [629458.75, 5220531.65], [629460.25, 5220532.15], [629478.25, 5220536.65], [629479.25, 5220536.65], [629475.75, 5220536.15], [629466.25, 5220534.65], [629464.75, 5220534.15], [629454.25, 5220531.65], [629453.25, 5220531.15], [629450.25, 5220531.15], [629449.25, 5220536.15], [629450.75, 5220536.65], [629478.25, 5220543.65], [629486.75, 5220546.15], [629487.25, 5220546.65], [629486.75, 5220546.15], [629453.75, 5220537.65], [629453.25, 5220537.15], [629449.75, 5220536.65], [629449.25, 5220536.15], [629449.75, 5220490.65], [629436.75, 5220513.15], [629421.75, 5220527.15], [629196.25, 5220693.15], [629192.75, 5220698.15], [629192.75, 5220703.65], [629200.75, 5220710.15], [629201.75, 5220711.15], [629197.25, 5220724.65], [629196.75, 5220725.15], [629191.75, 5220737.15], [629189.75, 5220742.15], [629188.25, 5220745.65], [629185.75, 5220751.65], [629183.75, 5220756.65], [629182.25, 5220760.15], [629178.25, 5220770.15], [629176.75, 5220773.65], [629174.25, 5220779.65], [629170.25, 5220789.65], [629168.75, 5220793.15], [629166.75, 5220798.15], [629165.25, 5220801.65], [629163.25, 5220806.65], [629161.75, 5220810.15], [629159.75, 5220815.15], [629158.25, 5220818.65], [629156.25, 5220823.65], [629154.75, 5220827.15], [629152.25, 5220833.15], [629150.25, 5220838.15], [629148.75, 5220841.65], [629144.25, 5220851.65], [629143.75, 5220852.15], [629144.25, 5220851.65], [629147.75, 5220843.15], [629149.25, 5220839.65], [629154.25, 5220827.65], [629156.25, 5220822.65], [629157.75, 5220819.15], [629160.25, 5220813.15], [629164.25, 5220803.15], [629165.75, 5220799.65], [629167.75, 5220794.65], [629170.25, 5220788.65], [629174.25, 5220778.65], [629175.75, 5220775.15], [629177.75, 5220770.15], [629180.25, 5220764.15], [629181.75, 5220760.65], [629184.25, 5220754.65], [629186.25, 5220749.65], [629188.75, 5220743.65], [629190.75, 5220738.65], [629193.25, 5220732.65], [629195.25, 5220727.65], [629196.75, 5220724.15], [629202.25, 5220711.65], [629202.75, 5220711.15], [629205.75, 5220712.65], [629206.25, 5220713.15], [629209.75, 5220718.15], [629170.75, 5220815.15], [629169.25, 5220818.65], [629166.75, 5220824.65], [629164.75, 5220829.65], [629165.75, 5220831.15], [629164.75, 5220837.15], [629164.25, 5220837.65], [629163.75, 5220839.15], [629162.75, 5220841.15], [629161.25, 5220844.65], [629160.25, 5220847.65], [629160.25, 5220848.15], [629159.75, 5220848.65], [629158.75, 5220850.65], [629153.75, 5220862.65], [629152.25, 5220866.15], [629149.75, 5220870.65], [629149.25, 5220872.65], [629148.75, 5220873.15], [629145.75, 5220882.15], [629145.25, 5220882.65], [629143.75, 5220885.65], [629143.75, 5220886.65], [629146.75, 5220889.65], [629155.75, 5220895.15], [629156.75, 5220893.15], [629158.25, 5220889.65], [629165.75, 5220871.65], [629167.25, 5220868.15], [629168.25, 5220865.15], [629168.25, 5220864.65], [629167.75, 5220868.15], [629164.75, 5220875.65], [629161.75, 5220882.65], [629159.25, 5220888.65], [629157.75, 5220892.15], [629155.25, 5220895.65], [629147.75, 5220889.65], [629151.25, 5220879.65], [629153.25, 5220875.65], [629156.25, 5220868.65], [629156.75, 5220867.15], [629158.25, 5220864.15], [629160.25, 5220859.15], [629161.75, 5220855.65], [629163.75, 5220850.65], [629166.25, 5220844.65], [629168.25, 5220841.15], [629168.75, 5220840.65], [629169.25, 5220837.15], [629169.75, 5220835.65], [629171.25, 5220832.15], [629171.75, 5220830.65], [629173.25, 5220827.65], [629175.25, 5220822.65], [629177.75, 5220816.65], [629179.25, 5220813.15], [629184.25, 5220801.15], [629186.25, 5220796.15], [629187.75, 5220792.65], [629194.75, 5220775.65], [629197.25, 5220769.65], [629205.25, 5220749.65], [629207.75, 5220743.65], [629211.75, 5220733.65], [629213.25, 5220730.15], [629215.25, 5220725.15], [629216.25, 5220722.15], [629217.25, 5220720.15], [629217.25, 5220719.15], [629216.75, 5220718.65], [629213.75, 5220717.65], [629205.75, 5220712.65], [629202.75, 5220711.15], [629200.75, 5220710.15], [629200.25, 5220710.15], [629199.75, 5220710.65], [629191.75, 5220730.65], [629189.25, 5220736.65], [629187.25, 5220741.65], [629185.75, 5220745.15], [629183.75, 5220750.15], [629176.25, 5220768.15], [629174.25, 5220773.15], [629171.75, 5220779.15], [629169.75, 5220784.15], [629167.25, 5220790.15], [629165.25, 5220795.15], [629162.75, 5220801.15], [629160.75, 5220806.15], [629158.25, 5220812.15], [629156.25, 5220817.15], [629151.25, 5220829.15], [629149.25, 5220833.15], [629148.75, 5220833.65], [629149.25, 5220833.15], [629151.25, 5220828.15], [629153.75, 5220822.15], [629160.75, 5220804.65], [629162.25, 5220801.15], [629164.25, 5220796.15], [629165.75, 5220792.65], [629167.75, 5220787.65], [629169.25, 5220784.15], [629171.25, 5220779.15], [629172.75, 5220775.65], [629174.75, 5220770.65], [629176.25, 5220767.15], [629178.75, 5220761.15], [629180.25, 5220757.65], [629182.25, 5220752.65], [629184.75, 5220746.65], [629186.75, 5220741.65], [629189.25, 5220735.65], [629191.25, 5220730.65], [629193.75, 5220724.65], [629195.75, 5220719.65], [629197.25, 5220716.15], [629198.75, 5220711.65], [629199.25, 5220710.65], [629198.25, 5220709.65], [629195.25, 5220710.15], [629194.25, 5220711.65], [629193.25, 5220713.65], [629190.75, 5220719.65], [629188.75, 5220724.65], [629187.25, 5220728.15], [629182.25, 5220740.15], [629180.25, 5220745.15], [629178.75, 5220748.65], [629176.75, 5220753.65], [629175.25, 5220757.15], [629172.75, 5220763.15], [629170.75, 5220768.15], [629169.25, 5220771.65], [629167.25, 5220776.65], [629165.75, 5220780.15], [629163.25, 5220786.15], [629161.25, 5220791.15], [629159.75, 5220794.65], [629157.75, 5220799.65], [629156.25, 5220803.15], [629153.75, 5220809.15], [629152.25, 5220812.65], [629148.25, 5220822.65], [629146.75, 5220825.15], [629146.25, 5220825.65], [629145.75, 5220826.15], [629141.25, 5220823.15], [629140.25, 5220822.15], [629143.25, 5220813.15], [629143.75, 5220812.65], [629144.75, 5220809.65], [629144.75, 5220809.15], [629144.25, 5220812.65], [629143.75, 5220813.15], [629142.75, 5220815.15], [629140.25, 5220822.15], [629141.25, 5220823.15], [629145.75, 5220826.15], [629146.25, 5220825.65], [629146.75, 5220825.15], [629147.25, 5220823.65], [629148.25, 5220821.65], [629150.25, 5220816.65], [629155.25, 5220804.65], [629157.25, 5220799.65], [629158.75, 5220796.15], [629163.75, 5220784.15], [629165.75, 5220779.15], [629167.25, 5220775.65], [629172.25, 5220763.65], [629173.75, 5220760.15], [629175.75, 5220755.15], [629177.25, 5220751.65], [629179.25, 5220746.65], [629180.75, 5220743.15], [629182.75, 5220738.15], [629184.25, 5220734.65], [629186.25, 5220729.65], [629188.75, 5220723.65], [629190.75, 5220718.65], [629192.25, 5220715.15], [629194.75, 5220710.15], [629185.75, 5220705.65], [629184.75, 5220707.15], [629182.25, 5220713.15], [629180.25, 5220718.15], [629178.75, 5220721.65], [629176.25, 5220727.65], [629174.25, 5220732.65], [629172.75, 5220736.15], [629170.25, 5220742.15], [629168.25, 5220747.15], [629166.75, 5220750.65], [629164.25, 5220756.65], [629158.25, 5220771.65], [629156.75, 5220775.15], [629154.75, 5220780.15], [629152.25, 5220786.15], [629150.25, 5220791.15], [629148.75, 5220794.65], [629141.75, 5220811.15], [629139.25, 5220817.15], [629137.75, 5220820.15], [629137.25, 5220820.65], [629132.75, 5220820.65], [629131.75, 5220819.65], [629128.75, 5220818.15], [629128.25, 5220817.65], [629130.75, 5220810.15], [629131.75, 5220808.15], [629133.25, 5220804.65], [629135.25, 5220799.65], [629137.75, 5220793.65], [629139.75, 5220788.65], [629139.75, 5220787.65], [629139.25, 5220791.15], [629134.25, 5220803.15], [629132.25, 5220808.15], [629126.25, 5220822.15], [629121.25, 5220834.15], [629119.75, 5220837.65], [629112.25, 5220855.65], [629109.75, 5220860.65], [629109.25, 5220861.15], [629107.75, 5220860.65], [629108.25, 5220857.15], [629106.75, 5220857.15], [629110.75, 5220845.15], [629111.25, 5220844.65], [629113.25, 5220839.65], [629114.75, 5220836.15], [629119.75, 5220824.15], [629122.75, 5220817.15], [629125.75, 5220809.15], [629126.75, 5220807.15], [629128.75, 5220803.65], [629129.25, 5220803.15], [629128.75, 5220803.65], [629127.75, 5220805.65], [629125.25, 5220811.65], [629124.25, 5220815.15], [629122.25, 5220819.15], [629117.25, 5220831.15], [629115.75, 5220834.65], [629110.75, 5220846.65], [629109.25, 5220850.15], [629106.25, 5220856.15], [629104.75, 5220855.65], [629102.25, 5220853.15], [629105.75, 5220842.65], [629104.75, 5220840.65], [629105.75, 5220837.15], [629116.75, 5220810.65], [629107.25, 5220799.15], [629109.75, 5220794.65], [629110.25, 5220793.65], [629110.75, 5220793.15], [629111.75, 5220791.65], [629113.25, 5220789.65], [629116.25, 5220785.15], [629117.75, 5220783.15], [629120.75, 5220778.65], [629126.75, 5220771.65], [629127.25, 5220771.15], [629126.75, 5220771.65], [629125.75, 5220773.15], [629124.25, 5220775.15], [629121.25, 5220779.65], [629119.75, 5220781.65], [629117.75, 5220784.65], [629116.25, 5220786.65], [629113.25, 5220791.15], [629112.75, 5220792.15], [629111.75, 5220793.15], [629109.75, 5220796.15], [629108.25, 5220798.15], [629107.25, 5220799.65], [629117.25, 5220809.65], [629117.75, 5220809.15], [629140.25, 5220748.65], [629162.25, 5220693.65], [629145.25, 5220683.15], [629142.75, 5220681.65], [629133.75, 5220678.65], [629133.25, 5220679.15], [629130.25, 5220683.65], [629120.75, 5220698.65], [629116.75, 5220704.65], [629093.25, 5220740.65], [629086.25, 5220751.65], [629078.25, 5220763.65], [629070.25, 5220774.15], [629078.75, 5220780.65], [629092.25, 5220787.65], [629094.75, 5220784.15], [629100.25, 5220770.65], [629100.75, 5220770.15], [629098.75, 5220771.15], [629094.75, 5220784.65], [629094.75, 5220785.15], [629092.25, 5220787.65], [629074.25, 5220778.15], [629070.25, 5220774.15], [629074.75, 5220766.65], [629081.75, 5220756.15], [629092.25, 5220740.15], [629094.25, 5220737.15], [629096.25, 5220733.65], [629103.25, 5220723.15], [629113.75, 5220707.15], [629114.75, 5220705.65], [629120.25, 5220697.15], [629133.25, 5220679.15], [629134.25, 5220678.15], [629150.75, 5220685.15], [629176.25, 5220698.15], [629187.75, 5220701.65], [629190.75, 5220698.15], [629210.25, 5220607.65], [629211.25, 5220606.65], [629214.25, 5220594.65], [629216.25, 5220586.15], [629220.75, 5220563.15], [629221.25, 5220559.65], [629239.25, 5220482.65], [629238.25, 5220478.15], [629237.75, 5220477.65], [629234.25, 5220478.15], [629233.75, 5220478.65], [629231.25, 5220480.15], [629220.25, 5220486.15], [629216.25, 5220488.15], [629215.75, 5220488.15], [629217.75, 5220487.65], [629221.25, 5220486.15], [629223.75, 5220484.65], [629229.25, 5220481.65], [629235.75, 5220478.15], [629237.25, 5220477.65], [629237.75, 5220477.65], [629238.25, 5220478.15], [629239.25, 5220483.15], [629235.25, 5220493.65], [629234.75, 5220494.15], [629231.25, 5220496.15], [629225.75, 5220499.15], [629219.25, 5220502.65], [629208.25, 5220508.65], [629187.75, 5220519.65], [629181.25, 5220523.15], [629175.75, 5220526.15], [629170.75, 5220529.15], [629170.25, 5220529.65], [629168.25, 5220530.15], [629163.75, 5220532.65], [629158.25, 5220535.65], [629151.25, 5220539.65], [629150.75, 5220540.15], [629151.75, 5220541.15], [629156.25, 5220539.65], [629174.25, 5220531.15], [629181.25, 5220529.15], [629179.25, 5220529.65], [629172.25, 5220530.65], [629152.25, 5220541.15], [629151.75, 5220541.15], [629151.25, 5220539.65], [629153.75, 5220538.15], [629158.25, 5220535.65], [629165.75, 5220531.65], [629172.25, 5220528.15], [629178.75, 5220524.65], [629186.25, 5220520.65], [629192.75, 5220517.15], [629201.75, 5220512.15], [629207.25, 5220509.15], [629211.75, 5220506.65], [629218.25, 5220503.15], [629229.25, 5220497.15], [629234.25, 5220494.65], [629235.25, 5220495.15], [629227.25, 5220542.15], [629228.25, 5220542.65], [629272.25, 5220517.65], [629397.75, 5220421.65], [629478.25, 5220368.65], [629500.25, 5220316.65], [629504.75, 5220250.65], [629504.7, 5220250.75]]}}]}