{"type": "FeatureCollection", "crs": {"type": "name", "properties": {"name": "urn:ogc:def:crs:EPSG::32635"}}, "features": [{"type": "Feature", "geometry": {"type": "Point", "coordinates": [629086.08, 5220837.12]}, "properties": {"type": "gap", "gap_m": 16.0, "vineyard_id": "V01", "row_id": "V01-R08", "reachable": true, "id": "T0004", "x": 629086.08, "y": 5220837.12, "order": 8, "visited": true}}, {"type": "Feature", "geometry": {"type": "Point", "coordinates": [629079.62, 5220820.42]}, "properties": {"type": "gap", "gap_m": 3.4, "vineyard_id": "V01", "row_id": "V01-R11", "reachable": true, "id": "T0008", "x": 629079.62, "y": 5220820.42, "order": 9, "visited": true}}, {"type": "Feature", "geometry": {"type": "Point", "coordinates": [629230.73, 5220786.66]}, "properties": {"type": "gap", "gap_m": 57.7, "vineyard_id": "V02", "row_id": "V02-R055", "reachable": true, "id": "T0137", "x": 629230.73, "y": 5220786.66, "order": 6, "visited": true}}, {"type": "Feature", "geometry": {"type": "Point", "coordinates": [629192.7, 5220831.69]}, "properties": {"type": "gap", "gap_m": 7.3, "vineyard_id": "V02", "row_id": "V02-R069", "reachable": true, "id": "T0187", "x": 629192.7, "y": 5220831.69, "order": 5, "visited": true}}, {"type": "Feature", "geometry": {"type": "Point", "coordinates": [629135.01, 5220743.39]}, "properties": {"type": "gap", "gap_m": 60.9, "vineyard_id": "V04", "row_id": "V04-R03", "reachable": true, "id": "T0368", "x": 629135.01, "y": 5220743.39, "order": 7, "visited": true}}, {"type": "Feature", "geometry": {"type": "Point", "coordinates": [629085.24, 5220727.23]}, "properties": {"type": "gap", "gap_m": 5.0, "vineyard_id": "V04", "row_id": "V04-R42", "reachable": true, "id": "T0419", "x": 629085.24, "y": 5220727.23, "order": 10, "visited": true}}, {"type": "Feature", "geometry": {"type": "Point", "coordinates": [629163.64, 5220578.45]}, "properties": {"type": "gap", "gap_m": 5.5, "vineyard_id": "V08", "row_id": "V08-R083", "reachable": true, "id": "T0566", "x": 629163.64, "y": 5220578.45, "order": 11, "visited": true}}, {"type": "Feature", "geometry": {"type": "Point", "coordinates": [629211.66, 5220487.16]}, "properties": {"type": "gap", "gap_m": 24.4, "vineyard_id": "V08", "row_id": "V08-R114", "reachable": true, "id": "T0627", "x": 629211.66, "y": 5220487.16, "order": 14, "visited": true}}, {"type": "Feature", "geometry": {"type": "Point", "coordinates": [629236.6, 5220560.2]}, "properties": {"type": "gap", "gap_m": 5.3, "vineyard_id": "V10", "row_id": "V10-R11", "reachable": true, "id": "T0649", "x": 629236.6, "y": 5220560.2, "order": 12, "visited": true}}, {"type": "Feature", "geometry": {"type": "Point", "coordinates": [629228.38, 5220551.65]}, "properties": {"type": "gap", "gap_m": 16.6, "vineyard_id": "V10", "row_id": "V10-R15", "reachable": true, "id": "T0650", "x": 629228.38, "y": 5220551.65, "order": 13, "visited": true}}, {"type": "Feature", "geometry": {"type": "Point", "coordinates": [629436.51, 5220567.18]}, "properties": {"type": "gap", "gap_m": 5.6, "vineyard_id": "V11", "row_id": "V11-R055", "reachable": true, "id": "T0773", "x": 629436.51, "y": 5220567.18, "order": 4, "visited": true}}, {"type": "Feature", "geometry": {"type": "Point", "coordinates": [629479.68, 5220534.06]}, "properties": {"type": "gap", "gap_m": 32.8, "vineyard_id": "V11", "row_id": "V11-R082", "reachable": true, "id": "T0820", "x": 629479.68, "y": 5220534.06, "order": 3, "visited": true}}, {"type": "Feature", "geometry": {"type": "Point", "coordinates": [629420.53, 5220497.01]}, "properties": {"type": "gap", "gap_m": 32.8, "vineyard_id": "V14", "row_id": "V14-R12", "reachable": true, "id": "T0893", "x": 629420.53, "y": 5220497.01, "order": 2, "visited": true}}, {"type": "Feature", "geometry": {"type": "Point", "coordinates": [629419.23, 5220493.76]}, "properties": {"type": "gap", "gap_m": 34.5, "vineyard_id": "V14", "row_id": "V14-R13", "reachable": true, "id": "T0895", "x": 629419.23, "y": 5220493.76, "order": 1, "visited": true}}, {"type": "Feature", "geometry": {"type": "Point", "coordinates": [629270.85, 5220438.14]}, "properties": {"type": "gap", "gap_m": 4.3, "vineyard_id": "V15", "row_id": "V15-R06", "reachable": true, "id": "T0902", "x": 629270.85, "y": 5220438.14, "order": 15, "visited": true}}, {"type": "Feature", "geometry": {"type": "Point", "coordinates": [629274.28, 5220417.56]}, "properties": {"type": "gap", "gap_m": 4.5, "vineyard_id": "V15", "row_id": "V15-R13", "reachable": true, "id": "T0904", "x": 629274.28, "y": 5220417.56, "order": 16, "visited": true}}, {"type": "Feature", "geometry": {"type": "Point", "coordinates": [629538.12, 5220280.92]}, "properties": {"type": "gap", "gap_m": 47.1, "vineyard_id": "V21", "row_id": "V21-R10", "reachable": true, "id": "T0932", "x": 629538.12, "y": 5220280.92, "order": 48, "visited": true}}, {"type": "Feature", "geometry": {"type": "Point", "coordinates": [629602.69, 5220227.32]}, "properties": {"type": "gap", "gap_m": 3.3, "vineyard_id": "V24", "row_id": "V24-R41", "reachable": true, "id": "T1024", "x": 629602.69, "y": 5220227.32, "order": 47, "visited": true}}, {"type": "Feature", "geometry": {"type": "Point", "coordinates": [629568.67, 5220218.87]}, "properties": {"type": "gap", "gap_m": 50.9, "vineyard_id": "V24", "row_id": "V24-R57", "reachable": true, "id": "T1041", "x": 629568.67, "y": 5220218.87, "order": 46, "visited": true}}, {"type": "Feature", "geometry": {"type": "Point", "coordinates": [629679.45, 5220140.94]}, "properties": {"type": "gap", "gap_m": 5.3, "vineyard_id": "V29", "row_id": "V29-R29", "reachable": true, "id": "T1159", "x": 629679.45, "y": 5220140.94, "order": 43, "visited": true}}, {"type": "Feature", "geometry": {"type": "Point", "coordinates": [629642.54, 5220130.1]}, "properties": {"type": "gap", "gap_m": 50.7, "vineyard_id": "V29", "row_id": "V29-R51", "reachable": true, "id": "T1180", "x": 629642.54, "y": 5220130.1, "order": 45, "visited": true}}, {"type": "Feature", "geometry": {"type": "Point", "coordinates": [629838.81, 5219948.29]}, "properties": {"type": "gap", "gap_m": 6.9, "vineyard_id": "V32", "row_id": "V32-R149", "reachable": true, "id": "T1442", "x": 629838.81, "y": 5219948.29, "order": 42, "visited": true}}, {"type": "Feature", "geometry": {"type": "Point", "coordinates": [629639.73, 5220072.65]}, "properties": {"type": "gap", "gap_m": 33.5, "vineyard_id": "V32", "row_id": "V32-R209", "reachable": true, "id": "T1538", "x": 629639.73, "y": 5220072.65, "order": 44, "visited": true}}, {"type": "Feature", "geometry": {"type": "Point", "coordinates": [629899.12, 5219859.9]}, "properties": {"type": "gap", "gap_m": 26.1, "vineyard_id": "V39", "row_id": "V39-R04", "reachable": true, "id": "T1604", "x": 629899.12, "y": 5219859.9, "order": 40, "visited": true}}, {"type": "Feature", "geometry": {"type": "Point", "coordinates": [629877.41, 5219837.3]}, "properties": {"type": "gap", "gap_m": 3.5, "vineyard_id": "V39", "row_id": "V39-R67", "reachable": true, "id": "T1709", "x": 629877.41, "y": 5219837.3, "order": 41, "visited": true}}, {"type": "Feature", "geometry": {"type": "Point", "coordinates": [630102.25, 5219822.83]}, "properties": {"type": "gap", "gap_m": 3.9, "vineyard_id": "V42", "row_id": "V42-R42", "reachable": true, "id": "T1761", "x": 630102.25, "y": 5219822.83, "order": 38, "visited": true}}, {"type": "Feature", "geometry": {"type": "Point", "coordinates": [629988.95, 5219760.13]}, "properties": {"type": "gap", "gap_m": 26.4, "vineyard_id": "V42", "row_id": "V42-R92", "reachable": true, "id": "T1822", "x": 629988.95, "y": 5219760.13, "order": 39, "visited": true}}, {"type": "Feature", "geometry": {"type": "Point", "coordinates": [630245.75, 5219795.85]}, "properties": {"type": "gap", "gap_m": 42.3, "vineyard_id": "V45", "row_id": "V45-R03", "reachable": true, "id": "T1853", "x": 630245.75, "y": 5219795.85, "order": 37, "visited": true}}, {"type": "Feature", "geometry": {"type": "Point", "coordinates": [630224.73, 5219723.52]}, "properties": {"type": "gap", "gap_m": 3.1, "vineyard_id": "V45", "row_id": "V45-R28", "reachable": true, "id": "T1875", "x": 630224.73, "y": 5219723.52, "order": null, "visited": false}}, {"type": "Feature", "geometry": {"type": "Point", "coordinates": [629802.93, 5219712.9]}, "properties": {"type": "gap", "gap_m": 14.5, "vineyard_id": "V46", "row_id": "V46-R14", "reachable": true, "id": "T1904", "x": 629802.93, "y": 5219712.9, "order": 17, "visited": true}}, {"type": "Feature", "geometry": {"type": "Point", "coordinates": [630100.6, 5219676.83]}, "properties": {"type": "gap", "gap_m": 22.1, "vineyard_id": "V53", "row_id": "V53-R09", "reachable": true, "id": "T1964", "x": 630100.6, "y": 5219676.83, "order": null, "visited": false}}, {"type": "Feature", "geometry": {"type": "Point", "coordinates": [630077.25, 5219670.15]}, "properties": {"type": "gap", "gap_m": 4.8, "vineyard_id": "V53", "row_id": "V53-R12", "reachable": true, "id": "T1967", "x": 630077.25, "y": 5219670.15, "order": null, "visited": false}}, {"type": "Feature", "geometry": {"type": "Point", "coordinates": [630609.7, 5219665.56]}, "properties": {"type": "gap", "gap_m": 8.4, "vineyard_id": "V55", "row_id": "V55-R12", "reachable": true, "id": "T2045", "x": 630609.7, "y": 5219665.56, "order": 36, "visited": true}}, {"type": "Feature", "geometry": {"type": "Point", "coordinates": [630605.97, 5219655.21]}, "properties": {"type": "gap", "gap_m": 3.7, "vineyard_id": "V55", "row_id": "V55-R16", "reachable": true, "id": "T2047", "x": 630605.97, "y": 5219655.21, "order": null, "visited": false}}, {"type": "Feature", "geometry": {"type": "Point", "coordinates": [630162.57, 5219611.69]}, "properties": {"type": "gap", "gap_m": 4.2, "vineyard_id": "V57", "row_id": "V57-R48", "reachable": true, "id": "T2123", "x": 630162.57, "y": 5219611.69, "order": null, "visited": false}}, {"type": "Feature", "geometry": {"type": "Point", "coordinates": [630197.25, 5219545.99]}, "properties": {"type": "gap", "gap_m": 26.0, "vineyard_id": "V57", "row_id": "V57-R57", "reachable": true, "id": "T2143", "x": 630197.25, "y": 5219545.99, "order": 18, "visited": true}}, {"type": "Feature", "geometry": {"type": "Point", "coordinates": [630532.34, 5219527.72]}, "properties": {"type": "gap", "gap_m": 7.2, "vineyard_id": "V60", "row_id": "V60-R17", "reachable": true, "id": "T2260", "x": 630532.34, "y": 5219527.72, "order": 35, "visited": true}}, {"type": "Feature", "geometry": {"type": "Point", "coordinates": [630514.09, 5219548.85]}, "properties": {"type": "gap", "gap_m": 18.1, "vineyard_id": "V60", "row_id": "V60-R31", "reachable": true, "id": "T2270", "x": 630514.09, "y": 5219548.85, "order": 34, "visited": true}}, {"type": "Feature", "geometry": {"type": "Point", "coordinates": [630311.92, 5219497.19]}, "properties": {"type": "gap", "gap_m": 16.6, "vineyard_id": "V62", "row_id": "V62-R58", "reachable": true, "id": "T2335", "x": 630311.92, "y": 5219497.19, "order": 29, "visited": true}}, {"type": "Feature", "geometry": {"type": "Point", "coordinates": [630298.71, 5219464.59]}, "properties": {"type": "gap", "gap_m": 33.7, "vineyard_id": "V62", "row_id": "V62-R73", "reachable": true, "id": "T2348", "x": 630298.71, "y": 5219464.59, "order": 28, "visited": true}}, {"type": "Feature", "geometry": {"type": "Point", "coordinates": [630142.28, 5219495.1]}, "properties": {"type": "gap", "gap_m": 11.7, "vineyard_id": "V63", "row_id": "V63-R151", "reachable": true, "id": "T2608", "x": 630142.28, "y": 5219495.1, "order": 19, "visited": true}}, {"type": "Feature", "geometry": {"type": "Point", "coordinates": [630360.94, 5219327.03]}, "properties": {"type": "gap", "gap_m": 36.0, "vineyard_id": "V63", "row_id": "V63-R327", "reachable": true, "id": "T2863", "x": 630360.94, "y": 5219327.03, "order": 27, "visited": true}}, {"type": "Feature", "geometry": {"type": "Point", "coordinates": [630400.1, 5219461.44]}, "properties": {"type": "gap", "gap_m": 23.5, "vineyard_id": "V65", "row_id": "V65-R18", "reachable": true, "id": "T2916", "x": 630400.1, "y": 5219461.44, "order": 31, "visited": true}}, {"type": "Feature", "geometry": {"type": "Point", "coordinates": [630378.66, 5219516.52]}, "properties": {"type": "gap", "gap_m": 4.5, "vineyard_id": "V65", "row_id": "V65-R31", "reachable": true, "id": "T2943", "x": 630378.66, "y": 5219516.52, "order": 30, "visited": true}}, {"type": "Feature", "geometry": {"type": "Point", "coordinates": [630451.08, 5219507.7]}, "properties": {"type": "gap", "gap_m": 4.5, "vineyard_id": "V66", "row_id": "V66-R063", "reachable": true, "id": "T3134", "x": 630451.08, "y": 5219507.7, "order": 32, "visited": true}}, {"type": "Feature", "geometry": {"type": "Point", "coordinates": [630474.67, 5219554.63]}, "properties": {"type": "gap", "gap_m": 43.9, "vineyard_id": "V66", "row_id": "V66-R084", "reachable": true, "id": "T3184", "x": 630474.67, "y": 5219554.63, "order": 33, "visited": true}}, {"type": "Feature", "geometry": {"type": "Point", "coordinates": [630031.48, 5219419.48]}, "properties": {"type": "gap", "gap_m": 4.9, "vineyard_id": "V67", "row_id": "V67-R06", "reachable": true, "id": "T3230", "x": 630031.48, "y": 5219419.48, "order": null, "visited": false}}, {"type": "Feature", "geometry": {"type": "Point", "coordinates": [630100.43, 5219365.36]}, "properties": {"type": "gap", "gap_m": 11.3, "vineyard_id": "V67", "row_id": "V67-R33", "reachable": true, "id": "T3257", "x": 630100.43, "y": 5219365.36, "order": 20, "visited": true}}, {"type": "Feature", "geometry": {"type": "Point", "coordinates": [630174.36, 5219381.42]}, "properties": {"type": "gap", "gap_m": 3.0, "vineyard_id": "V68", "row_id": "V68-R104", "reachable": true, "id": "T3392", "x": 630174.36, "y": 5219381.42, "order": 22, "visited": true}}, {"type": "Feature", "geometry": {"type": "Point", "coordinates": [630220.21, 5219299.02]}, "properties": {"type": "gap", "gap_m": 71.4, "vineyard_id": "V68", "row_id": "V68-R150", "reachable": true, "id": "T3502", "x": 630220.21, "y": 5219299.02, "order": 23, "visited": true}}, {"type": "Feature", "geometry": {"type": "Point", "coordinates": [630103.26, 5219362.06]}, "properties": {"type": "gap", "gap_m": 13.7, "vineyard_id": "V69", "row_id": "V69-R01", "reachable": true, "id": "T3538", "x": 630103.26, "y": 5219362.06, "order": 21, "visited": true}}, {"type": "Feature", "geometry": {"type": "Point", "coordinates": [630133.53, 5219340.94]}, "properties": {"type": "gap", "gap_m": 4.3, "vineyard_id": "V69", "row_id": "V69-R14", "reachable": true, "id": "T3555", "x": 630133.53, "y": 5219340.94, "order": 24, "visited": true}}, {"type": "Feature", "geometry": {"type": "Point", "coordinates": [630206.21, 5219257.4]}, "properties": {"type": "gap", "gap_m": 3.6, "vineyard_id": "V70", "row_id": "V70-R11", "reachable": true, "id": "T3571", "x": 630206.21, "y": 5219257.4, "order": 26, "visited": true}}, {"type": "Feature", "geometry": {"type": "Point", "coordinates": [630178.0, 5219265.34]}, "properties": {"type": "gap", "gap_m": 12.9, "vineyard_id": "V70", "row_id": "V70-R15", "reachable": true, "id": "T3576", "x": 630178.0, "y": 5219265.34, "order": 25, "visited": true}}]}