{"type":"FeatureCollection","features":[{"type":"Feature","properties":{"waste_id":"W001","vineyard_id":"","tile":"siret3_r012_c005.tif","cx":629275.16,"cy":5220591.29},"geometry":{"type":"Polygon","coordinates":[[[629275.78,5220590.45],[629275.78,5220592.12],[629274.55,5220592.12],[629274.55,5220590.45],[629275.78,5220590.45]]]}},{"type":"Feature","properties":{"waste_id":"W002","vineyard_id":"","tile":"siret3_r015_c010.tif","cx":629533.62,"cy":5220443.4},"geometry":{"type":"Polygon","coordinates":[[[629534.2,5220442.83],[629534.2,5220443.98],[629533.05,5220443.98],[629533.05,5220442.83],[629534.2,5220442.83]]]}},{"type":"Feature","properties":{"waste_id":"W003","vineyard_id":"V12","tile":"siret3_r017_c011.tif","cx":629588.85,"cy":5220304.12},"geometry":{"type":"Polygon","coordinates":[[[629589.15,5220303.85],[629589.15,5220304.4],[629588.55,5220304.4],[629588.55,5220303.85],[629589.15,5220303.85]]]}},{"type":"Feature","properties":{"waste_id":"W004","vineyard_id":"","tile":"siret3_r020_c015.tif","cx":629786.58,"cy":5220162.2},"geometry":{"type":"Polygon","coordinates":[[[629787.55,5220161.2],[629787.55,5220163.2],[629785.6,5220163.2],[629785.6,5220161.2],[629787.55,5220161.2]]]}},{"type":"Feature","properties":{"waste_id":"W005","vineyard_id":"","tile":"siret3_r021_c016.tif","cx":629849.69,"cy":5220135.33},"geometry":{"type":"Polygon","coordinates":[[[629850.65,5220134.25],[629850.65,5220136.4],[629848.73,5220136.4],[629848.73,5220134.25],[629850.65,5220134.25]]]}},{"type":"Feature","properties":{"waste_id":"W006","vineyard_id":"V16","tile":"siret3_r022_c016.tif","cx":629837.83,"cy":5220046.28},"geometry":{"type":"Polygon","coordinates":[[[629838.85,5220045.47],[629838.85,5220047.08],[629836.8,5220047.08],[629836.8,5220045.47],[629838.85,5220045.47]]]}},{"type":"Feature","properties":{"waste_id":"W007","vineyard_id":"","tile":"siret3_r022_c017.tif","cx":629893.4,"cy":5220048.69},"geometry":{"type":"Polygon","coordinates":[[[629893.65,5220048.42],[629893.65,5220048.95],[629893.15,5220048.95],[629893.15,5220048.42],[629893.65,5220048.42]]]}},{"type":"Feature","properties":{"waste_id":"W008","vineyard_id":"","tile":"siret3_r022_c017.tif","cx":629876.47,"cy":5220047.1},"geometry":{"type":"Polygon","coordinates":[[[629876.97,5220046.62],[629876.97,5220047.58],[629875.97,5220047.58],[629875.97,5220046.62],[629876.97,5220046.62]]]}},{"type":"Feature","properties":{"waste_id":"W009","vineyard_id":"","tile":"siret3_r027_c025.tif","cx":630307.54,"cy":5219817.59},"geometry":{"type":"Polygon","coordinates":[[[630308.1,5219816.92],[630308.1,5219818.25],[630306.97,5219818.25],[630306.97,5219816.92],[630308.1,5219816.92]]]}},{"type":"Feature","properties":{"waste_id":"W010","vineyard_id":"","tile":"siret3_r027_c025.tif","cx":630309.15,"cy":5219831.04},"geometry":{"type":"Polygon","coordinates":[[[630309.68,5219830.35],[630309.68,5219831.72],[630308.62,5219831.72],[630308.62,5219830.35],[630309.68,5219830.35]]]}},{"type":"Feature","properties":{"waste_id":"W011","vineyard_id":"","tile":"siret3_r030_c027.tif","cx":630400.72,"cy":5219640.15},"geometry":{"type":"Polygon","coordinates":[[[630401.0,5219640.0],[630401.0,5219640.3],[630400.45,5219640.3],[630400.45,5219640.0],[630401.0,5219640.0]]]}}],"crs":{"type":"name","properties":{"name":"urn:ogc:def:crs:EPSG::32635"}}}