{"type": "FeatureCollection", "crs": {"type": "name", "properties": {"name": "urn:ogc:def:crs:EPSG::32635"}}, "features": [{"type": "Feature", "properties": {"length_m": 7288.5, "mode": "inspector", "start": [629504.7, 5220250.75], "custom_start": false, "target_types": "gap,waste", "targets_total": 76, "targets_visited": 46, "outside_share": 0.0148, "row_walls": true, "minutes_at_4kmh": 109.3}, "geometry": {"type": "LineString", "coordinates": [[629504.7, 5220250.75], [629504.75, 5220250.65], [629499.25, 5220325.15], [629487.75, 5220346.15], [629475.75, 5220383.65], [629457.75, 5220465.65], [629454.25, 5220489.65], [629453.25, 5220503.15], [629460.75, 5220505.65], [629466.25, 5220506.65], [629467.75, 5220507.15], [629473.25, 5220508.65], [629485.25, 5220511.65], [629487.75, 5220512.15], [629484.25, 5220511.65], [629460.25, 5220505.65], [629459.25, 5220505.65], [629458.75, 5220505.15], [629455.25, 5220504.65], [629452.75, 5220503.65], [629452.25, 5220510.15], [629451.75, 5220521.65], [629454.75, 5220521.65], [629455.25, 5220522.15], [629473.75, 5220526.65], [629479.25, 5220528.15], [629481.25, 5220528.65], [629479.75, 5220528.65], [629479.25, 5220528.15], [629453.25, 5220521.65], [629451.25, 5220521.65], [629451.25, 5220526.15], [629454.75, 5220526.15], [629455.25, 5220526.65], [629475.75, 5220531.65], [629479.75, 5220532.65], [629481.25, 5220533.15], [629481.75, 5220533.65], [629481.25, 5220533.15], [629479.25, 5220532.65], [629478.75, 5220532.15], [629475.25, 5220531.65], [629453.25, 5220526.15], [629450.75, 5220525.65], [629449.75, 5220490.65], [629436.75, 5220513.15], [629421.75, 5220527.15], [629196.25, 5220693.15], [629192.75, 5220698.15], [629192.75, 5220703.65], [629200.25, 5220708.65], [629210.75, 5220713.65], [629235.75, 5220729.65], [629236.75, 5220730.65], [629236.25, 5220735.65], [629235.75, 5220736.15], [629234.25, 5220740.65], [629236.75, 5220732.15], [629236.75, 5220730.65], [629236.25, 5220730.15], [629235.75, 5220730.15], [629235.25, 5220730.65], [629233.25, 5220735.65], [629231.25, 5220740.65], [629231.25, 5220741.65], [629231.75, 5220738.15], [629232.25, 5220736.65], [629233.75, 5220733.15], [629234.75, 5220730.15], [629234.75, 5220729.15], [629234.25, 5220728.65], [629230.25, 5220726.15], [629223.75, 5220722.65], [629220.75, 5220721.15], [629216.75, 5220718.65], [629213.75, 5220717.65], [629210.25, 5220718.65], [629209.75, 5220719.15], [629205.75, 5220729.15], [629179.75, 5220793.15], [629173.75, 5220808.15], [629169.25, 5220818.65], [629166.75, 5220824.65], [629164.75, 5220829.65], [629165.75, 5220831.15], [629164.75, 5220837.15], [629164.25, 5220837.65], [629163.75, 5220839.15], [629162.75, 5220841.15], [629161.25, 5220844.65], [629158.75, 5220850.65], [629156.25, 5220856.65], [629153.75, 5220862.65], [629152.25, 5220866.15], [629149.75, 5220870.65], [629151.25, 5220867.65], [629152.75, 5220864.15], [629155.75, 5220856.65], [629159.75, 5220848.65], [629160.25, 5220848.15], [629160.75, 5220844.65], [629163.25, 5220838.65], [629165.25, 5220833.65], [629165.75, 5220831.15], [629165.25, 5220830.65], [629164.75, 5220829.15], [629180.25, 5220790.65], [629180.75, 5220789.15], [629181.75, 5220787.15], [629183.75, 5220782.15], [629186.25, 5220776.15], [629190.25, 5220766.15], [629192.75, 5220760.15], [629194.75, 5220755.15], [629197.25, 5220749.15], [629205.25, 5220729.15], [629206.75, 5220725.65], [629208.75, 5220720.65], [629209.75, 5220717.65], [629206.25, 5220713.15], [629205.75, 5220712.65], [629200.75, 5220710.15], [629164.25, 5220694.65], [629147.25, 5220732.15], [629121.25, 5220800.65], [629118.75, 5220806.65], [629117.25, 5220809.65], [629107.25, 5220799.15], [629111.75, 5220793.15], [629112.75, 5220792.15], [629120.75, 5220778.65], [629126.75, 5220771.65], [629127.25, 5220771.15], [629126.75, 5220771.65], [629125.75, 5220773.15], [629124.25, 5220775.15], [629121.25, 5220779.65], [629119.75, 5220781.65], [629117.75, 5220784.65], [629116.25, 5220786.65], [629115.25, 5220788.15], [629110.75, 5220793.15], [629110.25, 5220793.65], [629107.25, 5220799.65], [629117.25, 5220809.65], [629117.75, 5220809.15], [629140.25, 5220748.65], [629162.25, 5220693.65], [629145.25, 5220683.15], [629142.75, 5220681.65], [629133.75, 5220678.65], [629133.25, 5220679.15], [629130.25, 5220683.65], [629120.75, 5220698.65], [629116.75, 5220704.65], [629093.25, 5220740.65], [629086.25, 5220751.65], [629078.25, 5220763.65], [629070.25, 5220774.15], [629078.75, 5220780.65], [629092.25, 5220787.65], [629094.75, 5220784.15], [629098.25, 5220772.65], [629098.75, 5220771.15], [629100.75, 5220770.15], [629100.25, 5220770.65], [629096.25, 5220780.65], [629094.75, 5220784.15], [629094.75, 5220785.15], [629092.25, 5220787.65], [629074.25, 5220778.15], [629070.25, 5220774.15], [629074.75, 5220766.65], [629081.75, 5220756.15], [629092.25, 5220740.15], [629094.25, 5220737.15], [629096.25, 5220733.65], [629103.25, 5220723.15], [629113.75, 5220707.15], [629114.75, 5220705.65], [629120.25, 5220697.15], [629133.25, 5220679.15], [629134.25, 5220678.15], [629150.75, 5220685.15], [629176.25, 5220698.15], [629187.75, 5220701.65], [629190.75, 5220698.15], [629210.25, 5220607.65], [629211.25, 5220606.65], [629214.25, 5220594.65], [629216.25, 5220586.15], [629220.75, 5220563.15], [629221.25, 5220559.65], [629235.25, 5220495.15], [629233.75, 5220494.65], [629231.25, 5220496.15], [629225.75, 5220499.15], [629219.25, 5220502.65], [629208.25, 5220508.65], [629187.75, 5220519.65], [629181.25, 5220523.15], [629175.75, 5220526.15], [629170.75, 5220529.15], [629170.25, 5220529.65], [629170.75, 5220529.15], [629172.25, 5220528.15], [629178.75, 5220524.65], [629186.25, 5220520.65], [629192.75, 5220517.15], [629201.75, 5220512.15], [629207.25, 5220509.15], [629211.75, 5220506.65], [629218.25, 5220503.15], [629223.75, 5220500.15], [629229.25, 5220497.15], [629234.75, 5220494.15], [629235.75, 5220493.15], [629239.25, 5220482.65], [629238.25, 5220478.15], [629237.75, 5220477.65], [629234.25, 5220478.15], [629233.75, 5220478.65], [629231.25, 5220480.15], [629220.25, 5220486.15], [629216.25, 5220488.15], [629215.75, 5220488.15], [629217.75, 5220487.65], [629221.25, 5220486.15], [629223.75, 5220484.65], [629229.25, 5220481.65], [629235.75, 5220478.15], [629237.25, 5220477.65], [629237.75, 5220477.65], [629238.25, 5220478.15], [629239.25, 5220483.15], [629227.25, 5220542.15], [629228.25, 5220542.65], [629272.25, 5220517.65], [629397.75, 5220421.65], [629478.25, 5220368.65], [629500.25, 5220316.65], [629504.75, 5220251.15], [629508.25, 5220249.65], [629551.75, 5220265.15], [629587.75, 5220276.65], [629592.25, 5220278.65], [629602.25, 5220281.15], [629606.25, 5220275.65], [629606.75, 5220275.15], [629617.25, 5220260.15], [629623.75, 5220251.65], [629625.75, 5220249.15], [629635.75, 5220236.15], [629639.25, 5220231.65], [629654.25, 5220212.15], [629658.75, 5220206.15], [629660.75, 5220203.65], [629667.75, 5220194.65], [629678.75, 5220179.65], [629680.25, 5220177.65], [629681.25, 5220176.15], [629681.75, 5220175.65], [629683.75, 5220173.15], [629688.75, 5220166.65], [629695.25, 5220158.15], [629700.25, 5220151.65], [629703.75, 5220147.15], [629709.75, 5220139.65], [629712.25, 5220136.15], [629718.75, 5220127.65], [629723.75, 5220121.15], [629730.25, 5220112.65], [629733.25, 5220108.65], [629732.25, 5220107.65], [629731.25, 5220108.15], [629730.75, 5220108.65], [629720.75, 5220121.65], [629714.25, 5220130.15], [629709.25, 5220136.65], [629702.25, 5220145.65], [629697.25, 5220152.15], [629690.75, 5220160.65], [629685.75, 5220167.15], [629680.75, 5220173.15], [629680.25, 5220173.65], [629680.75, 5220173.15], [629687.75, 5220164.15], [629692.75, 5220157.65], [629699.75, 5220148.65], [629709.75, 5220135.65], [629717.75, 5220125.15], [629730.75, 5220108.65], [629731.75, 5220107.65], [629735.25, 5220108.65], [629735.75, 5220109.15], [629734.25, 5220114.15], [629732.75, 5220115.65], [629729.25, 5220120.15], [629713.25, 5220141.15], [629710.25, 5220145.15], [629709.25, 5220146.65], [629706.75, 5220149.15], [629700.25, 5220157.65], [629695.25, 5220164.15], [629677.25, 5220185.65], [629675.75, 5220187.15], [629675.25, 5220189.15], [629669.75, 5220197.65], [629670.75, 5220198.65], [629679.75, 5220201.65], [629688.25, 5220204.15], [629698.25, 5220207.65], [629698.75, 5220208.15], [629700.75, 5220210.65], [629690.25, 5220225.65], [629689.75, 5220226.65], [629694.25, 5220219.15], [629701.25, 5220211.65], [629702.25, 5220210.65], [629709.75, 5220210.15], [629714.25, 5220204.65], [629711.75, 5220202.15], [629717.25, 5220193.65], [629717.75, 5220193.15], [629721.25, 5220188.65], [629736.25, 5220169.15], [629743.25, 5220161.65], [629744.25, 5220160.65], [629744.75, 5220158.65], [629752.75, 5220147.65], [629755.75, 5220143.65], [629756.75, 5220142.15], [629759.75, 5220138.15], [629763.25, 5220137.15], [629768.75, 5220141.15], [629805.75, 5220102.15], [629864.25, 5220026.15], [630031.75, 5219810.65], [630031.75, 5219800.15], [630023.25, 5219784.15], [630024.25, 5219772.15], [630024.75, 5219771.65], [630024.75, 5219770.15], [630024.25, 5219773.65], [630022.75, 5219779.65], [630022.25, 5219780.15], [630021.25, 5219780.15], [630020.75, 5219779.65], [630022.25, 5219768.15], [630022.25, 5219767.65], [630021.75, 5219774.15], [630020.25, 5219775.65], [630018.75, 5219773.15], [629995.25, 5219742.15], [629973.75, 5219715.15], [630007.75, 5219673.65], [630042.75, 5219639.65], [630067.25, 5219620.15], [630067.75, 5219619.65], [630072.25, 5219615.15], [630218.75, 5219492.65], [630258.25, 5219467.15], [630289.25, 5219449.65], [630308.25, 5219430.65], [630307.75, 5219430.15], [630306.25, 5219428.15], [630304.25, 5219425.15], [630302.75, 5219423.15], [630300.75, 5219420.15], [630299.25, 5219418.15], [630298.25, 5219416.65], [630296.75, 5219414.65], [630294.75, 5219411.65], [630293.25, 5219409.65], [630291.25, 5219406.65], [630289.75, 5219404.65], [630287.75, 5219401.65], [630286.25, 5219399.65], [630284.25, 5219396.65], [630282.75, 5219394.65], [630280.75, 5219391.65], [630279.25, 5219389.65], [630277.25, 5219386.65], [630275.75, 5219384.65], [630273.75, 5219381.65], [630272.25, 5219379.65], [630271.75, 5219379.15], [630256.75, 5219354.65], [630236.25, 5219322.65], [630229.25, 5219311.65], [630229.25, 5219311.15], [630228.25, 5219310.15], [630218.25, 5219295.15], [630214.25, 5219290.15], [630218.25, 5219286.65], [630221.25, 5219289.65], [630222.25, 5219292.65], [630222.75, 5219293.15], [630232.25, 5219308.15], [630235.25, 5219312.65], [630245.25, 5219328.15], [630247.75, 5219331.15], [630248.25, 5219331.65], [630247.75, 5219331.15], [630244.75, 5219326.65], [630239.25, 5219318.15], [630229.25, 5219302.65], [630221.25, 5219290.15], [630221.25, 5219289.65], [630220.75, 5219289.15], [630218.25, 5219286.65], [630220.75, 5219284.65], [630232.75, 5219304.15], [630232.75, 5219304.65], [630233.25, 5219305.15], [630237.25, 5219311.15], [630242.75, 5219319.65], [630249.75, 5219330.65], [630252.75, 5219335.15], [630263.25, 5219351.65], [630270.25, 5219361.65], [630271.75, 5219363.15], [630272.25, 5219363.15], [630272.75, 5219362.65], [630274.25, 5219358.15], [630271.75, 5219355.15], [630265.25, 5219343.65], [630263.25, 5219340.65], [630255.25, 5219328.15], [630254.75, 5219326.65], [630255.25, 5219328.65], [630264.75, 5219344.15], [630269.75, 5219352.15], [630271.75, 5219355.15], [630271.75, 5219355.65], [630274.25, 5219358.15], [630271.75, 5219360.15], [630270.25, 5219356.65], [630258.25, 5219337.65], [630255.25, 5219333.15], [630238.75, 5219308.65], [630238.25, 5219308.15], [630223.25, 5219284.15], [630221.25, 5219282.15], [630220.75, 5219282.15], [630212.75, 5219288.65], [630207.25, 5219283.65], [630204.75, 5219284.15], [630201.25, 5219287.65], [630210.25, 5219303.15], [630224.75, 5219324.65], [630225.75, 5219325.65], [630226.25, 5219327.65], [630240.25, 5219350.65], [630242.25, 5219353.65], [630257.25, 5219375.15], [630258.25, 5219375.15], [630258.75, 5219374.65], [630256.75, 5219368.65], [630256.25, 5219368.15], [630253.25, 5219363.65], [630241.25, 5219344.65], [630238.25, 5219340.15], [630231.25, 5219329.15], [630230.25, 5219327.65], [630229.25, 5219326.15], [630229.25, 5219325.65], [630229.75, 5219327.65], [630246.25, 5219354.65], [630247.25, 5219356.15], [630248.25, 5219357.65], [630276.25, 5219399.65], [630277.25, 5219401.15], [630278.75, 5219403.15], [630280.75, 5219406.15], [630282.25, 5219408.15], [630284.25, 5219411.15], [630285.75, 5219413.15], [630287.75, 5219416.15], [630289.25, 5219418.15], [630291.25, 5219421.15], [630292.75, 5219423.15], [630293.75, 5219424.65], [630296.75, 5219428.15], [630297.75, 5219429.15], [630298.25, 5219430.15], [630301.75, 5219435.15], [630302.75, 5219436.15], [630294.25, 5219444.15], [630270.25, 5219460.65], [630226.75, 5219485.65], [630067.75, 5219619.15], [630067.75, 5219619.65], [630067.25, 5219620.15], [630032.75, 5219648.65], [630011.25, 5219671.65], [629976.75, 5219711.15], [629973.75, 5219717.15], [629995.75, 5219743.15], [629995.25, 5219746.15], [629994.25, 5219747.15], [629991.25, 5219751.15], [629990.75, 5219758.15], [629988.75, 5219760.15], [629991.25, 5219754.15], [629991.25, 5219753.15], [629990.75, 5219752.65], [629990.25, 5219752.65], [629983.75, 5219759.15], [629982.25, 5219762.65], [629979.75, 5219765.65], [629974.75, 5219772.15], [629972.25, 5219775.15], [629970.25, 5219777.65], [629966.75, 5219782.15], [629964.75, 5219784.65], [629964.25, 5219786.15], [629966.25, 5219792.15], [629963.75, 5219795.65], [629955.25, 5219804.65], [629953.75, 5219806.15], [629952.25, 5219806.15], [629921.25, 5219837.65], [629915.75, 5219851.15], [629909.25, 5219859.15], [629907.25, 5219861.65], [629903.75, 5219866.15], [629901.75, 5219868.65], [629775.75, 5220014.15], [629774.25, 5220014.15], [629770.25, 5220016.65], [629742.75, 5220010.65], [629740.75, 5220012.65], [629732.75, 5220023.15], [629715.75, 5220045.65], [629706.25, 5220058.15], [629699.75, 5220066.65], [629691.75, 5220077.15], [629679.75, 5220091.65], [629678.75, 5220092.65], [629665.75, 5220090.65], [629664.25, 5220091.15], [629663.75, 5220091.65], [629656.75, 5220100.65], [629640.25, 5220123.65], [629640.25, 5220124.15], [629639.25, 5220125.15], [629637.25, 5220127.65], [629633.75, 5220132.15], [629628.75, 5220138.65], [629620.25, 5220148.15], [629619.25, 5220149.65], [629609.75, 5220162.15], [629600.75, 5220174.15], [629599.75, 5220175.65], [629600.75, 5220176.65], [629621.75, 5220185.15], [629620.75, 5220188.65], [629619.75, 5220189.65], [629614.75, 5220196.15], [629604.25, 5220209.15], [629602.75, 5220210.65], [629604.25, 5220209.15], [629606.25, 5220206.65], [629607.75, 5220204.65], [629611.75, 5220198.65], [629613.75, 5220196.15], [629620.25, 5220187.65], [629621.75, 5220185.65], [629620.75, 5220184.65], [629620.25, 5220184.65], [629619.25, 5220185.65], [629617.25, 5220188.15], [629610.75, 5220196.65], [629609.75, 5220198.15], [629607.75, 5220200.65], [629599.25, 5220211.15], [629598.25, 5220212.15], [629599.25, 5220211.15], [629604.25, 5220204.65], [629607.25, 5220200.65], [629607.75, 5220199.15], [629609.75, 5220196.65], [629617.25, 5220187.15], [629618.25, 5220185.65], [629618.75, 5220184.15], [629608.25, 5220181.15], [629602.25, 5220179.15], [629596.25, 5220185.65], [629588.75, 5220196.65], [629585.75, 5220200.65], [629584.75, 5220202.15], [629580.25, 5220209.65], [629578.25, 5220212.15], [629576.25, 5220214.65], [629574.25, 5220217.15], [629572.25, 5220219.65], [629571.75, 5220220.65], [629584.75, 5220200.65], [629589.25, 5220196.15], [629589.75, 5220193.65], [629591.25, 5220190.15], [629598.75, 5220180.15], [629599.75, 5220178.65], [629598.75, 5220177.65], [629575.25, 5220170.65], [629562.25, 5220166.15], [629560.75, 5220167.65], [629549.25, 5220181.65], [629534.25, 5220201.15], [629530.75, 5220204.65], [629530.25, 5220204.65], [629529.75, 5220204.15], [629529.25, 5220204.65], [629528.75, 5220205.15], [629518.25, 5220218.15], [629517.75, 5220218.65], [629518.25, 5220218.15], [629523.25, 5220211.65], [629528.75, 5220205.15], [629529.25, 5220204.65], [629529.75, 5220204.15], [629530.25, 5220204.65], [629530.75, 5220204.65], [629530.25, 5220208.65], [629529.25, 5220209.65], [629527.25, 5220212.15], [629526.25, 5220213.65], [629523.75, 5220217.15], [629511.25, 5220231.65], [629510.25, 5220232.65], [629509.75, 5220236.65], [629506.75, 5220245.15], [629504.75, 5220250.65], [629504.7, 5220250.75]]}}]}