{"type": "FeatureCollection", "crs": {"type": "name", "properties": {"name": "urn:ogc:def:crs:EPSG::32635"}}, "features": [{"type": "Feature", "properties": {"length_m": 5655.5, "mode": "inspector", "start": [629504.7, 5220250.75], "custom_start": false, "target_types": "gap,waste", "targets_total": 21, "targets_visited": 6, "outside_share": 0.0128, "row_walls": true, "minutes_at_4kmh": 84.8}, "geometry": {"type": "LineString", "coordinates": [[629504.7, 5220250.75], [629504.75, 5220250.65], [629511.75, 5220230.65], [629512.75, 5220229.65], [629524.25, 5220214.15], [629526.25, 5220211.65], [629529.75, 5220207.15], [629530.75, 5220205.65], [629536.25, 5220198.65], [629559.75, 5220168.65], [629562.25, 5220166.15], [629599.25, 5220178.15], [629599.75, 5220178.65], [629596.75, 5220186.15], [629590.25, 5220194.65], [629585.75, 5220200.65], [629584.75, 5220202.15], [629580.25, 5220209.65], [629578.25, 5220212.15], [629576.25, 5220214.65], [629574.25, 5220217.15], [629572.25, 5220219.65], [629571.75, 5220220.65], [629584.75, 5220200.65], [629589.25, 5220196.15], [629589.75, 5220193.65], [629591.25, 5220190.15], [629598.75, 5220180.15], [629599.75, 5220178.65], [629598.75, 5220177.65], [629575.25, 5220170.65], [629562.25, 5220166.15], [629560.75, 5220167.65], [629549.25, 5220181.65], [629515.25, 5220228.15], [629515.25, 5220231.15], [629507.75, 5220241.15], [629504.25, 5220254.65], [629499.25, 5220325.15], [629487.75, 5220346.15], [629477.25, 5220369.65], [629369.25, 5220441.15], [629320.25, 5220479.65], [629250.75, 5220530.65], [629227.75, 5220542.65], [629227.25, 5220541.15], [629235.25, 5220495.15], [629233.75, 5220494.65], [629231.25, 5220496.15], [629225.75, 5220499.15], [629219.25, 5220502.65], [629208.25, 5220508.65], [629187.75, 5220519.65], [629181.25, 5220523.15], [629175.75, 5220526.15], [629169.25, 5220529.65], [629158.25, 5220535.65], [629153.75, 5220537.65], [629153.25, 5220536.15], [629155.75, 5220534.65], [629159.25, 5220532.65], [629165.75, 5220529.15], [629171.25, 5220526.15], [629185.25, 5220515.15], [629186.25, 5220514.15], [629185.25, 5220515.15], [629179.75, 5220518.15], [629167.25, 5220528.15], [629153.25, 5220536.15], [629152.75, 5220536.65], [629153.75, 5220537.65], [629158.25, 5220535.65], [629165.75, 5220531.65], [629178.75, 5220524.65], [629186.25, 5220520.65], [629192.75, 5220517.15], [629201.75, 5220512.15], [629207.25, 5220509.15], [629211.75, 5220506.65], [629218.25, 5220503.15], [629229.25, 5220497.15], [629234.25, 5220494.65], [629235.25, 5220495.15], [629220.75, 5220564.15], [629220.25, 5220564.65], [629215.25, 5220567.65], [629214.75, 5220568.15], [629215.25, 5220567.65], [629217.75, 5220566.15], [629218.75, 5220565.65], [629219.75, 5220566.65], [629216.75, 5220586.15], [629216.25, 5220587.65], [629208.25, 5220617.65], [629197.75, 5220666.15], [629192.25, 5220703.15], [629196.75, 5220706.65], [629237.75, 5220730.65], [629239.25, 5220732.15], [629238.25, 5220738.15], [629237.75, 5220738.65], [629236.25, 5220742.15], [629232.25, 5220752.15], [629230.75, 5220755.65], [629228.25, 5220761.65], [629224.25, 5220771.65], [629221.75, 5220777.65], [629217.75, 5220787.65], [629215.25, 5220793.65], [629211.25, 5220803.65], [629209.75, 5220807.15], [629209.25, 5220808.65], [629207.75, 5220812.15], [629207.25, 5220813.65], [629206.25, 5220815.65], [629203.75, 5220821.65], [629201.75, 5220826.65], [629199.25, 5220832.65], [629197.25, 5220837.65], [629195.75, 5220840.15], [629195.25, 5220840.65], [629195.75, 5220840.15], [629196.25, 5220838.65], [629197.75, 5220835.15], [629198.75, 5220833.15], [629200.75, 5220828.15], [629203.25, 5220822.15], [629224.75, 5220769.15], [629226.25, 5220765.65], [629229.75, 5220756.65], [629232.25, 5220750.65], [629238.25, 5220735.65], [629239.25, 5220732.65], [629239.25, 5220732.15], [629238.25, 5220731.15], [629230.25, 5220726.15], [629223.75, 5220722.65], [629220.75, 5220721.15], [629216.75, 5220718.65], [629213.75, 5220717.65], [629205.75, 5220712.65], [629200.75, 5220710.15], [629193.75, 5220704.15], [629192.25, 5220697.65], [629202.25, 5220688.15], [629425.75, 5220523.65], [629440.25, 5220508.15], [629451.75, 5220478.15], [629465.75, 5220419.15], [629488.75, 5220339.65], [629495.75, 5220328.65], [629500.25, 5220316.15], [629504.25, 5220240.65], [629504.75, 5220240.15], [629506.75, 5220237.65], [629523.25, 5220215.65], [629529.75, 5220207.15], [629530.75, 5220205.65], [629534.25, 5220201.15], [629535.25, 5220199.65], [629535.75, 5220198.15], [629560.75, 5220167.65], [629562.25, 5220166.15], [629584.75, 5220171.15], [629585.25, 5220170.65], [629585.75, 5220170.15], [629586.25, 5220169.65], [629586.75, 5220169.15], [629593.25, 5220160.65], [629601.25, 5220150.15], [629607.25, 5220142.65], [629608.25, 5220141.15], [629610.25, 5220138.65], [629634.25, 5220107.15], [629648.25, 5220089.65], [629648.75, 5220089.15], [629649.25, 5220088.65], [629649.75, 5220088.15], [629650.25, 5220087.65], [629650.75, 5220087.15], [629662.25, 5220088.15], [629662.75, 5220087.65], [629687.75, 5220055.15], [629694.75, 5220046.65], [629697.25, 5220044.15], [629701.25, 5220043.15], [629726.25, 5220018.15], [629727.75, 5220018.65], [629728.75, 5220017.65], [629735.75, 5220010.15], [629736.25, 5220009.65], [629764.75, 5220014.65], [629771.25, 5220016.65], [629774.25, 5220012.65], [629774.75, 5220011.15], [629918.25, 5219839.65], [629920.25, 5219837.15], [629921.75, 5219835.15], [629922.75, 5219833.65], [629925.75, 5219830.15], [629927.75, 5219827.65], [629940.75, 5219811.15], [629944.75, 5219806.15], [629948.25, 5219801.65], [629952.25, 5219796.65], [629967.25, 5219780.15], [629977.75, 5219767.15], [629979.75, 5219764.65], [629983.25, 5219760.15], [629987.25, 5219755.15], [629990.75, 5219750.65], [629994.75, 5219745.65], [629995.75, 5219744.15], [629995.75, 5219742.65], [629995.25, 5219742.15], [629973.75, 5219715.15], [630007.75, 5219673.65], [630042.75, 5219639.65], [630067.25, 5219620.15], [630067.75, 5219619.65], [630072.25, 5219615.15], [630218.75, 5219492.65], [630258.25, 5219467.15], [630289.25, 5219449.65], [630308.25, 5219430.65], [630307.75, 5219430.15], [630306.25, 5219428.15], [630304.25, 5219425.15], [630302.75, 5219423.15], [630300.75, 5219420.15], [630299.25, 5219418.15], [630298.25, 5219416.65], [630296.75, 5219414.65], [630294.75, 5219411.65], [630293.25, 5219409.65], [630291.25, 5219406.65], [630289.75, 5219404.65], [630287.75, 5219401.65], [630286.25, 5219399.65], [630284.25, 5219396.65], [630282.75, 5219394.65], [630280.75, 5219391.65], [630279.25, 5219389.65], [630277.25, 5219386.65], [630275.75, 5219384.65], [630273.75, 5219381.65], [630272.25, 5219379.65], [630271.75, 5219379.15], [630256.75, 5219354.65], [630229.25, 5219311.65], [630228.25, 5219310.15], [630227.25, 5219308.65], [630226.25, 5219307.15], [630225.25, 5219305.65], [630224.25, 5219304.15], [630218.25, 5219295.15], [630213.75, 5219289.15], [630220.75, 5219282.15], [630221.25, 5219282.15], [630222.25, 5219283.15], [630226.25, 5219289.15], [630234.25, 5219301.65], [630243.75, 5219316.65], [630247.75, 5219322.65], [630253.25, 5219331.15], [630263.75, 5219347.65], [630272.25, 5219360.15], [630279.25, 5219353.15], [630271.25, 5219344.65], [630270.25, 5219341.15], [630269.25, 5219340.15], [630266.25, 5219335.65], [630261.75, 5219329.65], [630260.75, 5219328.15], [630247.25, 5219305.15], [630244.25, 5219300.65], [630236.25, 5219288.15], [630231.25, 5219280.15], [630229.25, 5219277.15], [630230.25, 5219276.15], [630252.75, 5219255.65], [630252.25, 5219255.15], [630251.25, 5219253.65], [630251.25, 5219252.65], [630251.75, 5219252.15], [630254.25, 5219249.65], [630255.75, 5219251.15], [630262.75, 5219261.65], [630264.25, 5219263.65], [630269.25, 5219271.15], [630270.75, 5219273.15], [630271.75, 5219274.65], [630271.75, 5219275.15], [630272.25, 5219275.65], [630272.75, 5219276.15], [630272.75, 5219277.65], [630273.75, 5219278.65], [630277.75, 5219284.65], [630280.75, 5219288.15], [630281.25, 5219288.65], [630280.75, 5219288.15], [630276.75, 5219282.15], [630272.75, 5219277.15], [630272.75, 5219275.65], [630271.25, 5219274.15], [630262.75, 5219260.65], [630261.25, 5219258.65], [630258.25, 5219254.15], [630255.75, 5219251.15], [630255.25, 5219250.65], [630254.25, 5219249.65], [630253.25, 5219250.65], [630251.25, 5219252.65], [630251.25, 5219254.15], [630252.75, 5219255.65], [630229.25, 5219277.15], [630238.25, 5219292.65], [630250.25, 5219311.65], [630253.25, 5219316.15], [630265.75, 5219335.65], [630271.25, 5219344.15], [630271.75, 5219345.15], [630272.25, 5219345.65], [630278.25, 5219354.15], [630271.75, 5219360.15], [630270.25, 5219356.65], [630258.25, 5219337.65], [630255.25, 5219333.15], [630242.25, 5219312.65], [630234.25, 5219300.15], [630222.25, 5219283.15], [630221.25, 5219282.15], [630220.75, 5219282.15], [630220.25, 5219282.65], [630213.75, 5219290.65], [630220.75, 5219298.65], [630221.25, 5219299.15], [630248.75, 5219343.15], [630249.25, 5219343.65], [630259.75, 5219360.15], [630267.75, 5219372.65], [630271.25, 5219378.15], [630272.25, 5219379.65], [630286.25, 5219400.65], [630287.75, 5219402.65], [630289.75, 5219405.65], [630291.25, 5219407.65], [630293.25, 5219410.65], [630294.75, 5219412.65], [630296.75, 5219415.65], [630298.25, 5219417.65], [630300.25, 5219420.65], [630301.75, 5219422.65], [630302.75, 5219424.15], [630307.75, 5219430.15], [630307.25, 5219431.65], [630294.25, 5219444.15], [630270.25, 5219460.65], [630226.75, 5219485.65], [630067.75, 5219619.15], [630067.75, 5219619.65], [630067.25, 5219620.15], [630032.75, 5219648.65], [630011.25, 5219671.65], [629976.75, 5219711.15], [629973.75, 5219717.15], [629995.75, 5219743.15], [629995.25, 5219746.15], [629994.25, 5219747.15], [629991.25, 5219751.15], [629990.75, 5219759.65], [629978.25, 5219772.15], [629973.25, 5219778.65], [629972.25, 5219780.15], [629970.25, 5219782.65], [629967.75, 5219785.65], [629965.75, 5219788.65], [629962.75, 5219792.15], [629960.75, 5219794.65], [629959.75, 5219796.15], [629949.75, 5219808.65], [629948.75, 5219810.15], [629942.25, 5219818.15], [629941.25, 5219819.65], [629939.25, 5219822.15], [629937.75, 5219824.15], [629936.75, 5219825.65], [629933.75, 5219829.15], [629931.25, 5219832.15], [629929.25, 5219834.65], [629923.25, 5219841.65], [629919.25, 5219846.65], [629915.75, 5219851.15], [629909.25, 5219859.15], [629907.25, 5219861.65], [629903.75, 5219866.15], [629901.75, 5219868.65], [629781.75, 5220004.65], [629771.25, 5220016.65], [629736.75, 5220009.15], [629736.25, 5220009.65], [629735.75, 5220010.15], [629734.75, 5220011.15], [629727.75, 5220018.65], [629726.25, 5220018.15], [629698.75, 5220044.15], [629697.25, 5220044.15], [629694.75, 5220046.65], [629688.25, 5220055.15], [629678.25, 5220068.15], [629671.75, 5220076.65], [629666.75, 5220083.15], [629662.75, 5220087.65], [629662.25, 5220088.15], [629650.75, 5220087.15], [629650.25, 5220087.65], [629649.75, 5220088.15], [629649.25, 5220088.65], [629648.75, 5220089.15], [629648.25, 5220089.65], [629637.25, 5220104.15], [629630.75, 5220112.65], [629622.75, 5220123.15], [629616.25, 5220131.65], [629608.25, 5220142.15], [629604.75, 5220146.65], [629595.25, 5220159.15], [629586.75, 5220169.15], [629586.25, 5220169.65], [629585.75, 5220170.15], [629585.25, 5220170.65], [629584.75, 5220171.15], [629561.75, 5220166.65], [629560.75, 5220167.65], [629549.25, 5220181.65], [629515.25, 5220228.15], [629515.25, 5220231.15], [629507.75, 5220241.15], [629504.75, 5220250.65], [629504.7, 5220250.75]]}}]}