{"type": "FeatureCollection", "crs": {"type": "name", "properties": {"name": "urn:ogc:def:crs:EPSG::32635"}}, "features": [{"type": "Feature", "properties": {"length_m": 14351.6, "mode": "inspector", "start": [629504.7, 5220250.75], "custom_start": false, "target_types": "gap,waste", "targets_total": 387, "targets_visited": 256, "outside_share": 0.0166, "row_walls": true, "minutes_at_4kmh": 215.3}, "geometry": {"type": "LineString", "coordinates": [[629504.7, 5220250.75], [629504.75, 5220250.65], [629509.25, 5220237.65], [629511.75, 5220235.15], [629513.75, 5220236.65], [629515.25, 5220236.15], [629530.75, 5220215.15], [629535.25, 5220209.15], [629535.75, 5220208.15], [629529.75, 5220217.65], [629524.25, 5220223.15], [629523.75, 5220225.15], [629514.75, 5220236.65], [629513.75, 5220236.65], [629512.75, 5220235.65], [629516.75, 5220230.15], [629517.75, 5220229.15], [629518.75, 5220226.15], [629518.25, 5220223.65], [629530.75, 5220205.65], [629530.75, 5220204.65], [629530.25, 5220204.65], [629529.75, 5220204.15], [629529.25, 5220204.65], [629528.75, 5220205.15], [629518.25, 5220218.15], [629517.75, 5220218.65], [629521.25, 5220215.65], [629521.75, 5220213.65], [629523.25, 5220211.65], [629523.75, 5220210.65], [629524.75, 5220209.65], [629528.75, 5220205.15], [629529.25, 5220204.65], [629529.75, 5220204.15], [629530.25, 5220204.65], [629530.75, 5220204.65], [629530.25, 5220208.15], [629518.25, 5220222.15], [629517.25, 5220223.15], [629512.75, 5220230.15], [629510.25, 5220232.65], [629509.75, 5220236.65], [629506.75, 5220245.15], [629506.75, 5220247.65], [629514.75, 5220251.15], [629515.75, 5220249.15], [629519.25, 5220246.15], [629531.25, 5220229.65], [629533.25, 5220227.65], [629540.25, 5220216.65], [629541.25, 5220215.65], [629547.75, 5220208.15], [629548.25, 5220207.65], [629553.75, 5220200.15], [629554.75, 5220199.15], [629560.75, 5220189.65], [629561.25, 5220189.15], [629571.75, 5220175.15], [629572.75, 5220173.65], [629574.25, 5220171.65], [629574.75, 5220170.15], [629574.25, 5220169.65], [629571.25, 5220169.15], [629568.75, 5220168.15], [629566.25, 5220166.65], [629562.75, 5220166.15], [629560.25, 5220165.15], [629565.25, 5220164.65], [629566.25, 5220163.65], [629581.25, 5220143.65], [629584.75, 5220138.65], [629586.75, 5220136.15], [629588.25, 5220134.15], [629588.75, 5220133.15], [629590.25, 5220131.65], [629604.25, 5220113.65], [629608.25, 5220108.65], [629616.25, 5220098.15], [629621.25, 5220091.65], [629628.75, 5220081.65], [629629.25, 5220080.15], [629628.75, 5220079.65], [629628.25, 5220079.15], [629629.75, 5220077.65], [629626.25, 5220079.65], [629625.75, 5220078.15], [629626.25, 5220077.65], [629626.75, 5220077.15], [629626.25, 5220077.65], [629625.75, 5220078.15], [629625.75, 5220079.15], [629628.75, 5220079.65], [629631.25, 5220079.65], [629631.75, 5220079.15], [629632.25, 5220078.65], [629632.75, 5220078.15], [629633.25, 5220077.65], [629632.75, 5220078.15], [629632.25, 5220078.65], [629631.75, 5220079.15], [629631.75, 5220080.65], [629636.75, 5220081.65], [629638.25, 5220080.15], [629637.25, 5220081.15], [629637.75, 5220082.15], [629640.75, 5220081.65], [629640.25, 5220082.15], [629641.25, 5220083.15], [629644.25, 5220083.65], [629644.75, 5220083.15], [629646.25, 5220085.65], [629645.25, 5220089.15], [629644.75, 5220089.65], [629623.25, 5220118.15], [629618.75, 5220124.15], [629618.75, 5220124.65], [629619.25, 5220122.65], [629622.75, 5220117.65], [629624.75, 5220115.15], [629632.75, 5220104.65], [629646.25, 5220087.65], [629647.25, 5220086.65], [629648.75, 5220086.15], [629652.25, 5220085.65], [629655.25, 5220086.65], [629662.75, 5220089.65], [629665.25, 5220084.15], [629665.75, 5220083.65], [629667.75, 5220081.15], [629692.75, 5220048.65], [629692.75, 5220048.15], [629694.25, 5220047.65], [629694.75, 5220046.65], [629697.25, 5220044.15], [629701.25, 5220043.15], [629726.25, 5220018.15], [629727.75, 5220018.65], [629728.75, 5220017.65], [629735.75, 5220010.15], [629736.25, 5220009.65], [629743.25, 5220010.65], [629743.75, 5220012.15], [629732.25, 5220027.15], [629730.75, 5220028.65], [629732.25, 5220027.15], [629735.75, 5220022.65], [629743.25, 5220012.65], [629743.75, 5220011.15], [629736.75, 5220009.15], [629736.25, 5220009.65], [629735.75, 5220010.15], [629734.75, 5220011.15], [629731.25, 5220015.65], [629705.75, 5220048.65], [629699.25, 5220055.15], [629695.75, 5220062.65], [629672.75, 5220090.15], [629672.25, 5220090.65], [629670.75, 5220091.15], [629665.75, 5220090.65], [629664.25, 5220091.15], [629663.75, 5220091.65], [629656.75, 5220100.65], [629640.25, 5220123.65], [629640.25, 5220124.15], [629639.25, 5220125.15], [629637.25, 5220127.65], [629633.75, 5220132.15], [629628.75, 5220138.65], [629620.25, 5220148.15], [629619.25, 5220149.65], [629609.75, 5220162.15], [629600.25, 5220173.65], [629598.25, 5220175.65], [629591.25, 5220175.15], [629588.75, 5220174.15], [629585.75, 5220173.15], [629582.75, 5220172.65], [629581.75, 5220172.65], [629580.75, 5220173.65], [629575.75, 5220180.15], [629567.75, 5220190.65], [629558.25, 5220203.15], [629550.75, 5220211.65], [629540.75, 5220226.65], [629534.75, 5220234.65], [629531.75, 5220238.65], [629530.75, 5220240.15], [629537.25, 5220231.15], [629538.75, 5220229.65], [629548.75, 5220214.15], [629549.25, 5220213.65], [629554.75, 5220207.65], [629572.25, 5220183.65], [629580.25, 5220173.15], [629580.25, 5220171.65], [629578.25, 5220169.65], [629586.25, 5220174.15], [629560.75, 5220209.15], [629555.75, 5220214.15], [629556.25, 5220213.65], [629556.75, 5220213.15], [629557.25, 5220212.65], [629565.25, 5220202.15], [629585.75, 5220176.15], [629587.25, 5220174.65], [629590.75, 5220175.15], [629591.75, 5220176.15], [629589.75, 5220178.65], [629584.75, 5220186.15], [629574.75, 5220198.65], [629574.25, 5220199.15], [629574.75, 5220198.65], [629575.75, 5220197.15], [629583.75, 5220186.65], [629591.25, 5220177.65], [629592.75, 5220176.15], [629593.75, 5220176.15], [629596.75, 5220176.65], [629599.25, 5220177.65], [629599.75, 5220179.15], [629590.25, 5220194.65], [629585.75, 5220200.65], [629584.75, 5220202.15], [629580.25, 5220209.65], [629578.25, 5220212.15], [629576.25, 5220214.65], [629574.25, 5220217.15], [629572.25, 5220219.65], [629571.75, 5220220.65], [629583.75, 5220202.15], [629584.25, 5220201.65], [629589.25, 5220195.65], [629589.75, 5220194.15], [629589.25, 5220192.65], [629589.75, 5220192.15], [629602.25, 5220179.15], [629609.75, 5220181.15], [629612.75, 5220182.15], [629615.25, 5220183.15], [629618.75, 5220183.65], [629618.75, 5220185.15], [629612.75, 5220194.15], [629610.75, 5220196.65], [629609.75, 5220198.15], [629607.75, 5220200.65], [629599.25, 5220211.15], [629598.25, 5220212.15], [629599.25, 5220211.15], [629604.25, 5220204.65], [629607.25, 5220200.65], [629607.75, 5220199.15], [629609.75, 5220196.65], [629619.25, 5220185.65], [629620.25, 5220184.65], [629620.75, 5220184.65], [629621.75, 5220185.65], [629604.75, 5220208.65], [629602.75, 5220210.65], [629604.25, 5220209.15], [629606.25, 5220206.65], [629607.75, 5220204.65], [629608.75, 5220203.15], [629611.75, 5220198.65], [629613.75, 5220196.15], [629621.75, 5220187.15], [629623.25, 5220185.65], [629623.75, 5220185.65], [629626.75, 5220186.65], [629629.75, 5220187.15], [629632.25, 5220188.15], [629635.75, 5220189.15], [629637.75, 5220190.15], [629643.75, 5220192.15], [629641.75, 5220188.65], [629643.25, 5220185.15], [629646.75, 5220180.65], [629664.75, 5220157.15], [629665.75, 5220155.65], [629677.25, 5220142.15], [629678.75, 5220140.65], [629679.25, 5220138.65], [629685.75, 5220129.65], [629690.75, 5220123.15], [629694.25, 5220118.65], [629699.25, 5220112.15], [629708.25, 5220101.65], [629709.75, 5220100.15], [629710.25, 5220100.15], [629710.75, 5220100.65], [629712.75, 5220103.65], [629711.75, 5220104.65], [629712.75, 5220103.65], [629710.75, 5220100.65], [629709.75, 5220099.65], [629717.25, 5220088.65], [629719.25, 5220086.15], [629724.25, 5220079.65], [629730.75, 5220071.15], [629750.75, 5220045.15], [629751.75, 5220043.65], [629760.75, 5220031.65], [629767.75, 5220021.65], [629769.25, 5220019.65], [629769.75, 5220018.15], [629769.25, 5220017.65], [629771.75, 5220016.15], [629772.75, 5220014.65], [629774.25, 5220012.65], [629774.75, 5220011.15], [629918.25, 5219839.65], [629920.25, 5219837.15], [629921.75, 5219835.15], [629922.75, 5219833.65], [629925.75, 5219830.15], [629927.75, 5219827.65], [629961.25, 5219792.15], [629963.75, 5219789.15], [629967.75, 5219784.15], [629978.25, 5219772.15], [629980.25, 5219770.15], [629995.25, 5219755.65], [629999.75, 5219754.15], [630001.25, 5219752.65], [630001.75, 5219752.65], [630006.25, 5219757.15], [630020.25, 5219775.65], [630021.25, 5219773.65], [630022.25, 5219768.65], [630022.25, 5219767.65], [630021.25, 5219778.15], [630020.75, 5219778.65], [630020.75, 5219779.65], [630021.25, 5219780.15], [630022.25, 5219780.15], [630022.75, 5219779.65], [630024.75, 5219771.15], [630024.75, 5219770.15], [630024.25, 5219773.65], [630023.25, 5219784.15], [630024.25, 5219785.15], [630024.75, 5219784.65], [630026.75, 5219778.65], [630027.25, 5219778.15], [630027.25, 5219773.15], [630026.75, 5219776.65], [630024.75, 5219784.65], [630024.25, 5219785.15], [630023.25, 5219784.15], [630020.75, 5219779.65], [630006.75, 5219755.15], [630010.25, 5219748.65], [630010.25, 5219748.15], [630009.75, 5219750.15], [630005.75, 5219754.15], [630004.75, 5219754.15], [629995.25, 5219742.15], [629973.75, 5219715.15], [630007.75, 5219673.65], [630042.75, 5219639.65], [630067.25, 5219620.15], [630067.75, 5219619.65], [630072.25, 5219615.15], [630218.75, 5219492.65], [630258.25, 5219467.15], [630289.25, 5219449.65], [630308.25, 5219430.65], [630307.75, 5219430.15], [630306.25, 5219428.15], [630304.25, 5219425.15], [630302.75, 5219423.15], [630300.75, 5219420.15], [630299.25, 5219418.15], [630298.25, 5219416.65], [630296.75, 5219414.65], [630294.75, 5219411.65], [630293.25, 5219409.65], [630291.25, 5219406.65], [630289.75, 5219404.65], [630287.75, 5219401.65], [630286.25, 5219399.65], [630284.25, 5219396.65], [630282.75, 5219394.65], [630280.75, 5219391.65], [630279.25, 5219389.65], [630277.25, 5219386.65], [630275.75, 5219384.65], [630273.75, 5219381.65], [630272.25, 5219379.65], [630271.75, 5219379.15], [630256.75, 5219354.65], [630234.75, 5219321.15], [630234.25, 5219320.65], [630232.75, 5219317.15], [630229.75, 5219312.65], [630224.25, 5219304.15], [630218.25, 5219295.15], [630214.25, 5219290.15], [630220.75, 5219284.65], [630232.75, 5219304.15], [630232.75, 5219304.65], [630233.25, 5219305.15], [630237.25, 5219311.15], [630243.75, 5219320.15], [630244.25, 5219320.65], [630248.25, 5219328.15], [630249.25, 5219329.65], [630253.75, 5219335.65], [630254.25, 5219336.15], [630254.75, 5219338.15], [630257.25, 5219341.15], [630257.75, 5219341.65], [630258.25, 5219343.65], [630259.75, 5219346.15], [630270.25, 5219361.65], [630271.75, 5219363.15], [630272.25, 5219363.15], [630272.75, 5219362.65], [630279.25, 5219353.15], [630271.25, 5219344.65], [630270.25, 5219341.15], [630269.25, 5219340.15], [630266.25, 5219335.65], [630261.75, 5219329.65], [630260.75, 5219328.15], [630247.25, 5219305.15], [630244.25, 5219300.65], [630236.25, 5219288.15], [630231.25, 5219280.15], [630229.25, 5219277.15], [630230.25, 5219276.15], [630252.75, 5219255.65], [630252.25, 5219255.15], [630251.25, 5219253.65], [630251.25, 5219252.65], [630251.75, 5219252.15], [630254.25, 5219249.65], [630261.25, 5219244.65], [630261.75, 5219245.15], [630263.25, 5219246.65], [630272.75, 5219238.65], [630272.25, 5219236.65], [630270.25, 5219234.65], [630267.75, 5219234.65], [630266.75, 5219233.65], [630265.25, 5219233.15], [630264.25, 5219232.15], [630262.75, 5219231.65], [630261.75, 5219230.65], [630260.25, 5219230.15], [630259.25, 5219228.65], [630257.75, 5219226.65], [630256.25, 5219226.65], [630255.75, 5219226.15], [630255.25, 5219225.65], [630254.75, 5219225.65], [630247.25, 5219229.15], [630232.75, 5219227.15], [630231.75, 5219226.15], [630228.25, 5219227.15], [630227.25, 5219228.15], [630224.75, 5219230.15], [630211.25, 5219240.65], [630208.75, 5219242.65], [630195.25, 5219253.15], [630192.75, 5219255.15], [630190.75, 5219256.65], [630189.75, 5219257.15], [630188.25, 5219258.65], [630179.25, 5219265.65], [630166.75, 5219275.65], [630165.25, 5219276.65], [630164.25, 5219277.65], [630161.25, 5219280.15], [630158.75, 5219276.65], [630158.75, 5219276.15], [630159.25, 5219275.65], [630171.75, 5219265.65], [630176.25, 5219262.15], [630178.75, 5219260.15], [630183.25, 5219256.65], [630184.75, 5219255.65], [630175.75, 5219262.15], [630172.75, 5219265.15], [630171.75, 5219265.65], [630151.75, 5219280.65], [630150.75, 5219280.65], [630150.25, 5219280.15], [630150.75, 5219278.15], [630152.25, 5219276.65], [630153.75, 5219275.65], [630154.25, 5219275.15], [630154.25, 5219273.15], [630156.75, 5219270.65], [630164.25, 5219264.65], [630167.25, 5219262.15], [630169.25, 5219260.65], [630169.75, 5219260.65], [630170.75, 5219259.65], [630173.25, 5219257.65], [630177.75, 5219254.15], [630180.25, 5219252.15], [630184.75, 5219248.65], [630187.25, 5219246.65], [630196.25, 5219239.65], [630198.75, 5219237.65], [630203.25, 5219234.15], [630205.75, 5219232.15], [630210.25, 5219228.65], [630212.75, 5219226.65], [630215.75, 5219224.15], [630176.75, 5219253.65], [630174.25, 5219255.65], [630170.25, 5219258.65], [630169.75, 5219260.65], [630168.25, 5219261.15], [630166.25, 5219262.65], [630154.75, 5219271.15], [630151.75, 5219270.15], [630151.25, 5219269.65], [630150.75, 5219269.15], [630152.75, 5219267.15], [630157.75, 5219263.15], [630160.75, 5219260.65], [630173.75, 5219249.15], [630174.75, 5219248.15], [630182.25, 5219243.65], [630187.25, 5219239.65], [630197.25, 5219230.65], [630213.75, 5219218.65], [630220.25, 5219211.65], [630216.25, 5219209.15], [630213.75, 5219210.15], [630212.75, 5219209.15], [630202.75, 5219215.65], [630201.75, 5219216.65], [630198.75, 5219219.15], [630196.25, 5219221.15], [630193.25, 5219223.65], [630185.25, 5219231.15], [630183.75, 5219232.65], [630186.25, 5219230.15], [630188.75, 5219228.15], [630192.75, 5219224.65], [630195.25, 5219222.65], [630199.75, 5219219.15], [630202.25, 5219217.15], [630204.75, 5219215.15], [630207.25, 5219213.15], [630209.75, 5219211.15], [630212.25, 5219209.15], [630212.75, 5219209.15], [630213.75, 5219210.15], [630217.25, 5219209.15], [630218.25, 5219210.15], [630216.25, 5219212.15], [630213.75, 5219214.15], [630209.25, 5219217.65], [630199.25, 5219225.65], [630197.75, 5219226.65], [630187.75, 5219234.65], [630179.75, 5219242.15], [630174.75, 5219245.15], [630154.25, 5219263.15], [630150.25, 5219267.65], [630150.75, 5219269.15], [630151.25, 5219269.65], [630154.25, 5219275.15], [630153.75, 5219275.65], [630152.25, 5219276.65], [630150.25, 5219279.65], [630150.25, 5219280.15], [630150.75, 5219280.65], [630153.25, 5219280.15], [630156.75, 5219277.65], [630168.25, 5219289.15], [630170.25, 5219288.15], [630171.25, 5219287.15], [630176.25, 5219283.15], [630180.75, 5219279.65], [630183.25, 5219277.65], [630192.25, 5219269.65], [630192.75, 5219269.15], [630198.25, 5219266.15], [630198.75, 5219265.65], [630203.75, 5219261.65], [630212.75, 5219254.65], [630215.25, 5219252.65], [630219.75, 5219249.15], [630224.75, 5219245.15], [630237.75, 5219235.15], [630244.25, 5219230.65], [630254.75, 5219225.65], [630255.25, 5219225.65], [630255.75, 5219226.15], [630256.25, 5219226.65], [630257.75, 5219226.65], [630258.75, 5219227.65], [630261.25, 5219227.65], [630262.25, 5219228.65], [630263.75, 5219229.15], [630264.75, 5219230.15], [630266.75, 5219230.15], [630272.75, 5219237.15], [630272.25, 5219239.65], [630263.25, 5219246.65], [630261.25, 5219244.65], [630260.25, 5219245.65], [630257.75, 5219246.15], [630257.25, 5219246.65], [630251.25, 5219252.65], [630251.25, 5219254.15], [630252.75, 5219255.65], [630229.25, 5219277.15], [630238.25, 5219292.65], [630250.25, 5219311.65], [630253.25, 5219316.15], [630265.75, 5219335.65], [630271.25, 5219344.15], [630271.75, 5219345.15], [630272.25, 5219345.65], [630278.25, 5219354.15], [630271.75, 5219360.15], [630270.25, 5219356.65], [630258.25, 5219337.65], [630255.25, 5219333.15], [630242.25, 5219312.65], [630234.25, 5219300.15], [630222.25, 5219283.15], [630221.25, 5219282.15], [630220.75, 5219282.15], [630220.25, 5219282.65], [630213.75, 5219290.65], [630220.75, 5219298.65], [630221.25, 5219299.15], [630227.75, 5219309.65], [630229.25, 5219311.15], [630229.75, 5219313.15], [630241.75, 5219332.15], [630245.75, 5219338.15], [630256.25, 5219354.65], [630264.25, 5219367.15], [630272.25, 5219379.65], [630286.25, 5219400.65], [630287.75, 5219402.65], [630289.75, 5219405.65], [630291.25, 5219407.65], [630293.25, 5219410.65], [630294.75, 5219412.65], [630296.75, 5219415.65], [630298.25, 5219417.65], [630300.25, 5219420.65], [630301.75, 5219422.65], [630302.75, 5219424.15], [630307.75, 5219430.15], [630307.25, 5219431.65], [630294.25, 5219444.15], [630270.25, 5219460.65], [630226.75, 5219485.65], [630067.75, 5219619.15], [630067.75, 5219619.65], [630067.25, 5219620.15], [630032.75, 5219648.65], [630011.25, 5219671.65], [629971.75, 5219714.65], [629902.75, 5219659.65], [629969.75, 5219602.15], [629978.25, 5219595.65], [629978.75, 5219595.65], [629980.75, 5219597.65], [629989.75, 5219608.15], [629992.25, 5219611.15], [630001.25, 5219621.65], [630003.75, 5219624.65], [630006.75, 5219628.15], [630006.75, 5219628.65], [630006.25, 5219626.65], [629997.25, 5219616.15], [629980.75, 5219597.65], [629978.75, 5219595.65], [629978.25, 5219595.65], [629975.75, 5219598.15], [629976.75, 5219601.15], [629977.75, 5219602.15], [629992.25, 5219619.15], [629995.25, 5219622.65], [629996.25, 5219624.15], [629989.75, 5219615.15], [629988.75, 5219614.15], [629976.75, 5219601.15], [629974.75, 5219599.15], [629972.25, 5219599.65], [629898.75, 5219660.15], [629893.25, 5219662.65], [629891.25, 5219664.15], [629890.75, 5219664.15], [629890.25, 5219663.65], [629889.75, 5219663.15], [629889.25, 5219662.65], [629888.75, 5219662.15], [629888.25, 5219661.65], [629887.25, 5219660.65], [629874.75, 5219647.65], [629868.75, 5219641.65], [629875.75, 5219648.65], [629888.25, 5219661.65], [629888.75, 5219662.15], [629889.25, 5219662.65], [629889.75, 5219663.15], [629890.25, 5219663.65], [629890.75, 5219664.15], [629904.25, 5219661.15], [629975.25, 5219720.15], [629995.75, 5219743.15], [629995.25, 5219746.15], [629994.25, 5219747.15], [629991.25, 5219751.15], [629990.75, 5219758.15], [629988.75, 5219760.15], [629978.25, 5219772.15], [629973.25, 5219778.65], [629972.25, 5219780.15], [629970.25, 5219782.65], [629960.25, 5219793.15], [629942.25, 5219818.15], [629941.25, 5219819.65], [629939.25, 5219822.15], [629937.75, 5219824.15], [629936.75, 5219825.65], [629933.75, 5219829.15], [629931.25, 5219832.15], [629929.25, 5219834.65], [629923.25, 5219841.65], [629919.25, 5219846.65], [629915.75, 5219851.15], [629909.25, 5219859.15], [629907.25, 5219861.65], [629903.75, 5219866.15], [629901.75, 5219868.65], [629793.25, 5219998.65], [629787.25, 5220006.65], [629786.25, 5220008.15], [629778.75, 5220018.15], [629779.25, 5220018.65], [629780.75, 5220018.65], [629781.25, 5220018.15], [629787.25, 5220011.15], [629788.25, 5220010.15], [629787.25, 5220011.15], [629785.75, 5220013.15], [629784.75, 5220014.65], [629781.75, 5220018.65], [629780.75, 5220020.65], [629778.25, 5220020.65], [629778.75, 5220021.15], [629777.75, 5220024.15], [629777.25, 5220024.65], [629776.25, 5220026.15], [629771.75, 5220032.15], [629770.75, 5220033.65], [629761.75, 5220044.65], [629760.75, 5220047.15], [629759.75, 5220047.15], [629756.25, 5220052.65], [629749.75, 5220061.15], [629744.75, 5220067.65], [629731.75, 5220084.65], [629726.75, 5220091.15], [629715.75, 5220104.65], [629713.75, 5220106.65], [629713.25, 5220108.65], [629709.75, 5220113.65], [629707.75, 5220116.15], [629706.75, 5220117.65], [629701.75, 5220124.15], [629693.75, 5220134.65], [629687.25, 5220143.15], [629673.25, 5220161.15], [629668.25, 5220167.65], [629661.25, 5220176.65], [629650.75, 5220189.15], [629648.25, 5220191.65], [629646.25, 5220192.65], [629648.75, 5220193.65], [629648.25, 5220193.65], [629647.75, 5220194.15], [629644.25, 5220198.65], [629642.75, 5220200.65], [629640.75, 5220203.65], [629638.75, 5220206.15], [629628.75, 5220219.15], [629622.25, 5220227.65], [629617.25, 5220234.15], [629614.25, 5220238.15], [629613.75, 5220239.15], [629612.25, 5220240.65], [629607.75, 5220246.65], [629606.75, 5220248.15], [629605.75, 5220249.15], [629605.75, 5220249.65], [629604.75, 5220250.65], [629602.75, 5220253.15], [629586.25, 5220275.15], [629586.25, 5220276.65], [629592.25, 5220278.65], [629594.25, 5220280.15], [629597.25, 5220280.65], [629638.75, 5220290.15], [629639.25, 5220290.15], [629639.75, 5220289.65], [629641.75, 5220287.15], [629651.75, 5220274.15], [629662.25, 5220260.65], [629668.75, 5220252.15], [629672.25, 5220247.65], [629677.25, 5220241.15], [629680.75, 5220236.65], [629688.75, 5220227.65], [629689.75, 5220226.65], [629694.25, 5220219.15], [629699.25, 5220212.65], [629700.75, 5220210.65], [629700.25, 5220209.65], [629694.75, 5220208.15], [629691.75, 5220208.65], [629692.25, 5220208.15], [629691.75, 5220207.15], [629690.75, 5220207.15], [629688.75, 5220207.65], [629692.25, 5220207.15], [629697.25, 5220206.15], [629699.25, 5220203.65], [629704.25, 5220197.15], [629710.75, 5220188.65], [629715.75, 5220182.15], [629720.75, 5220175.65], [629730.75, 5220162.65], [629735.75, 5220156.15], [629736.25, 5220155.15], [629731.75, 5220162.65], [629726.75, 5220169.15], [629720.25, 5220177.65], [629710.25, 5220190.65], [629706.75, 5220195.15], [629698.75, 5220205.65], [629698.25, 5220206.65], [629699.25, 5220207.65], [629709.75, 5220210.15], [629736.75, 5220180.15], [629742.25, 5220173.65], [629748.25, 5220166.15], [629749.25, 5220164.65], [629750.25, 5220162.15], [629752.25, 5220160.65], [629753.25, 5220159.65], [629787.25, 5220121.65], [629754.25, 5220111.15], [629754.25, 5220110.15], [629754.75, 5220109.65], [629754.25, 5220110.15], [629747.75, 5220118.65], [629747.75, 5220119.15], [629746.25, 5220120.65], [629741.25, 5220127.15], [629709.75, 5220168.15], [629708.25, 5220170.15], [629707.25, 5220171.65], [629702.25, 5220178.15], [629689.25, 5220195.15], [629685.25, 5220200.15], [629683.75, 5220202.15], [629686.25, 5220205.15], [629682.25, 5220204.65], [629680.25, 5220203.65], [629677.25, 5220202.65], [629674.75, 5220203.15], [629675.25, 5220202.65], [629674.25, 5220201.65], [629672.25, 5220201.15], [629669.75, 5220197.65], [629670.75, 5220194.65], [629674.25, 5220189.65], [629675.75, 5220187.65], [629675.75, 5220187.15], [629677.25, 5220185.65], [629679.25, 5220183.15], [629682.75, 5220178.65], [629697.75, 5220159.15], [629707.75, 5220148.15], [629709.25, 5220146.65], [629716.25, 5220135.15], [629731.25, 5220115.65], [629732.75, 5220113.65], [629733.25, 5220112.65], [629738.25, 5220109.15], [629738.75, 5220109.65], [629739.25, 5220110.15], [629738.25, 5220111.65], [629737.75, 5220112.15], [629737.25, 5220112.65], [629737.75, 5220112.15], [629738.25, 5220111.65], [629739.25, 5220110.15], [629738.25, 5220109.15], [629731.25, 5220108.15], [629730.75, 5220108.65], [629729.75, 5220110.15], [629729.25, 5220110.65], [629725.75, 5220115.15], [629705.75, 5220141.15], [629702.25, 5220145.65], [629697.25, 5220152.15], [629692.75, 5220158.15], [629692.75, 5220158.65], [629690.75, 5220160.65], [629685.75, 5220167.15], [629680.75, 5220173.15], [629680.25, 5220173.65], [629680.75, 5220173.15], [629687.75, 5220164.15], [629692.75, 5220157.65], [629699.75, 5220148.65], [629709.75, 5220135.65], [629717.75, 5220125.15], [629727.25, 5220112.65], [629730.25, 5220108.65], [629730.25, 5220107.15], [629727.75, 5220107.65], [629726.75, 5220108.65], [629729.25, 5220107.15], [629733.25, 5220108.15], [629732.25, 5220111.15], [629731.75, 5220111.65], [629726.75, 5220118.15], [629723.25, 5220122.65], [629708.25, 5220142.15], [629706.25, 5220144.65], [629698.25, 5220155.15], [629693.25, 5220161.65], [629689.75, 5220166.15], [629681.75, 5220175.65], [629681.25, 5220176.15], [629663.75, 5220200.15], [629661.75, 5220203.15], [629660.25, 5220205.15], [629659.25, 5220206.65], [629650.75, 5220218.15], [629648.75, 5220220.65], [629642.25, 5220229.15], [629632.25, 5220242.15], [629628.75, 5220246.65], [629627.75, 5220248.15], [629625.75, 5220250.65], [629608.25, 5220273.15], [629606.75, 5220275.15], [629606.75, 5220275.65], [629604.75, 5220277.65], [629601.75, 5220281.15], [629586.25, 5220277.15], [629582.75, 5220275.15], [629583.25, 5220274.65], [629580.25, 5220275.15], [629577.25, 5220274.65], [629574.75, 5220273.15], [629572.25, 5220272.65], [629569.75, 5220271.15], [629560.75, 5220269.65], [629557.75, 5220268.65], [629505.75, 5220250.15], [629503.25, 5220255.65], [629499.25, 5220325.15], [629487.75, 5220346.15], [629477.25, 5220369.65], [629369.25, 5220441.15], [629320.25, 5220479.65], [629250.75, 5220530.65], [629227.75, 5220542.65], [629227.25, 5220541.15], [629235.25, 5220495.15], [629233.75, 5220494.65], [629231.25, 5220496.15], [629225.75, 5220499.15], [629219.25, 5220502.65], [629208.25, 5220508.65], [629187.75, 5220519.65], [629181.25, 5220523.15], [629175.75, 5220526.15], [629169.25, 5220529.65], [629158.25, 5220535.65], [629151.25, 5220539.65], [629150.75, 5220540.15], [629151.75, 5220541.15], [629156.25, 5220539.65], [629169.75, 5220535.15], [629170.25, 5220534.65], [629176.75, 5220531.15], [629180.75, 5220529.15], [629181.25, 5220529.15], [629179.25, 5220529.65], [629172.25, 5220530.65], [629152.25, 5220541.15], [629151.75, 5220541.15], [629151.25, 5220539.65], [629153.75, 5220538.15], [629158.25, 5220535.65], [629165.75, 5220531.65], [629169.75, 5220529.65], [629170.25, 5220529.65], [629170.75, 5220529.15], [629172.25, 5220528.15], [629178.75, 5220524.65], [629186.25, 5220520.65], [629192.75, 5220517.15], [629201.75, 5220512.15], [629207.25, 5220509.15], [629211.75, 5220506.65], [629218.25, 5220503.15], [629223.75, 5220500.15], [629229.25, 5220497.15], [629234.75, 5220494.15], [629235.75, 5220493.15], [629239.25, 5220482.65], [629238.25, 5220478.15], [629237.75, 5220477.65], [629234.25, 5220478.15], [629233.75, 5220478.65], [629231.25, 5220480.15], [629220.25, 5220486.15], [629214.75, 5220489.65], [629214.25, 5220490.15], [629215.75, 5220488.15], [629217.75, 5220487.65], [629221.25, 5220486.15], [629223.75, 5220484.65], [629229.25, 5220481.65], [629235.75, 5220478.15], [629237.25, 5220477.65], [629237.75, 5220477.65], [629238.25, 5220478.15], [629239.25, 5220483.15], [629223.75, 5220557.15], [629221.75, 5220565.15], [629221.25, 5220568.15], [629221.25, 5220568.65], [629221.75, 5220569.15], [629234.25, 5220562.65], [629236.75, 5220561.15], [629237.25, 5220560.65], [629236.75, 5220561.15], [629234.25, 5220562.65], [629224.75, 5220567.65], [629221.75, 5220569.15], [629214.25, 5220573.15], [629204.75, 5220578.15], [629195.25, 5220583.15], [629187.75, 5220587.15], [629181.25, 5220590.65], [629175.75, 5220593.65], [629169.25, 5220597.15], [629167.25, 5220598.15], [629166.75, 5220598.15], [629168.75, 5220597.65], [629172.25, 5220595.65], [629191.75, 5220585.15], [629197.25, 5220582.15], [629204.75, 5220578.15], [629214.25, 5220573.15], [629217.25, 5220571.65], [629217.75, 5220571.65], [629218.25, 5220572.15], [629215.25, 5220592.15], [629214.75, 5220593.65], [629198.75, 5220660.15], [629192.25, 5220703.15], [629196.75, 5220706.65], [629216.75, 5220718.65], [629217.25, 5220719.15], [629216.25, 5220724.65], [629215.75, 5220725.15], [629214.25, 5220728.65], [629208.25, 5220743.65], [629206.75, 5220747.15], [629202.75, 5220757.15], [629199.75, 5220763.15], [629199.25, 5220763.65], [629198.75, 5220767.15], [629198.25, 5220768.65], [629196.75, 5220772.15], [629195.75, 5220775.15], [629195.75, 5220775.65], [629195.25, 5220776.15], [629194.75, 5220777.65], [629193.25, 5220780.65], [629191.75, 5220784.15], [629189.25, 5220790.15], [629187.75, 5220793.65], [629182.75, 5220805.65], [629181.25, 5220809.15], [629178.75, 5220815.65], [629178.25, 5220817.15], [629177.25, 5220819.15], [629175.75, 5220822.65], [629173.75, 5220827.65], [629170.75, 5220834.65], [629169.75, 5220837.65], [629168.75, 5220839.65], [629168.75, 5220840.65], [629168.25, 5220841.15], [629167.75, 5220842.65], [629166.25, 5220845.65], [629161.25, 5220857.65], [629159.75, 5220862.15], [629159.25, 5220862.65], [629157.75, 5220866.15], [629157.25, 5220867.65], [629155.75, 5220870.65], [629155.75, 5220871.65], [629155.25, 5220872.15], [629154.25, 5220874.15], [629152.75, 5220877.65], [629152.25, 5220879.15], [629150.75, 5220882.15], [629147.75, 5220889.15], [629147.75, 5220890.15], [629148.75, 5220891.15], [629153.75, 5220893.65], [629155.75, 5220889.65], [629157.25, 5220886.15], [629159.75, 5220880.65], [629160.25, 5220880.15], [629159.75, 5220880.65], [629159.25, 5220882.15], [629157.75, 5220885.15], [629155.25, 5220891.15], [629154.25, 5220894.15], [629154.25, 5220894.65], [629155.75, 5220895.15], [629156.75, 5220893.15], [629158.25, 5220889.65], [629160.75, 5220883.65], [629163.25, 5220877.65], [629168.25, 5220865.65], [629168.25, 5220864.65], [629167.75, 5220868.15], [629166.25, 5220872.65], [629166.25, 5220873.15], [629165.75, 5220873.65], [629164.75, 5220875.65], [629161.75, 5220882.65], [629160.25, 5220886.65], [629160.25, 5220887.15], [629159.75, 5220887.65], [629159.25, 5220889.15], [629156.75, 5220894.15], [629156.25, 5220896.65], [629157.75, 5220896.65], [629158.75, 5220895.15], [629159.25, 5220893.65], [629160.75, 5220890.65], [629163.25, 5220884.65], [629173.75, 5220860.15], [629175.75, 5220855.15], [629177.25, 5220851.65], [629179.25, 5220846.65], [629180.75, 5220843.15], [629183.75, 5220835.65], [629184.25, 5220834.15], [629185.25, 5220832.15], [629187.25, 5220827.15], [629188.75, 5220823.65], [629190.75, 5220818.65], [629192.25, 5220815.15], [629194.75, 5220810.65], [629195.25, 5220810.15], [629195.75, 5220806.65], [629201.75, 5220791.65], [629203.25, 5220788.15], [629205.25, 5220783.15], [629206.75, 5220779.65], [629209.25, 5220773.65], [629211.25, 5220768.65], [629214.25, 5220761.65], [629215.75, 5220759.15], [629216.25, 5220758.65], [629216.75, 5220755.15], [629222.75, 5220741.15], [629226.25, 5220732.15], [629228.25, 5220728.15], [629228.75, 5220727.65], [629230.25, 5220728.15], [629232.75, 5220727.65], [629234.25, 5220728.65], [629234.75, 5220729.15], [629234.25, 5220734.15], [629232.25, 5220736.15], [629231.75, 5220739.65], [629231.25, 5220741.15], [629231.25, 5220741.65], [629230.75, 5220742.15], [629230.25, 5220743.65], [629229.25, 5220745.65], [629227.75, 5220749.15], [629225.75, 5220754.15], [629219.25, 5220770.65], [629219.25, 5220771.15], [629218.75, 5220771.65], [629216.75, 5220776.65], [629215.25, 5220780.15], [629211.25, 5220790.15], [629209.75, 5220793.65], [629207.25, 5220800.15], [629206.75, 5220801.65], [629205.75, 5220803.65], [629203.25, 5220809.65], [629199.25, 5220819.65], [629196.75, 5220826.15], [629196.25, 5220827.65], [629193.75, 5220831.65], [629193.25, 5220832.15], [629192.75, 5220835.65], [629192.25, 5220837.15], [629190.75, 5220840.65], [629189.75, 5220842.65], [629188.25, 5220846.15], [629185.75, 5220852.15], [629184.25, 5220855.65], [629181.75, 5220861.65], [629178.75, 5220868.65], [629173.75, 5220880.65], [629172.25, 5220884.15], [629169.75, 5220890.15], [629168.25, 5220893.65], [629165.75, 5220899.65], [629163.75, 5220905.15], [629165.25, 5220905.65], [629166.25, 5220904.15], [629171.25, 5220892.15], [629172.75, 5220888.65], [629177.75, 5220876.65], [629179.25, 5220873.15], [629181.75, 5220867.15], [629184.75, 5220860.15], [629187.25, 5220854.15], [629188.75, 5220850.65], [629190.25, 5220848.15], [629190.75, 5220847.65], [629192.75, 5220840.65], [629192.75, 5220840.15], [629193.25, 5220839.65], [629193.75, 5220838.15], [629195.25, 5220835.15], [629197.75, 5220829.15], [629205.75, 5220809.15], [629207.25, 5220805.65], [629211.25, 5220795.65], [629212.75, 5220792.15], [629217.75, 5220779.65], [629219.25, 5220776.15], [629223.25, 5220766.15], [629224.75, 5220762.65], [629228.25, 5220753.65], [629230.25, 5220748.65], [629231.75, 5220745.15], [629233.75, 5220740.15], [629237.75, 5220731.65], [629238.25, 5220731.15], [629256.25, 5220741.65], [629258.75, 5220744.15], [629253.75, 5220749.15], [629253.75, 5220756.15], [629254.25, 5220756.65], [629253.25, 5220762.15], [629252.75, 5220762.65], [629250.75, 5220767.65], [629246.25, 5220778.15], [629244.25, 5220783.15], [629242.75, 5220786.65], [629236.75, 5220801.65], [629234.25, 5220807.65], [629232.25, 5220812.65], [629230.75, 5220816.15], [629228.75, 5220821.15], [629227.25, 5220824.65], [629225.25, 5220829.65], [629222.75, 5220835.65], [629220.75, 5220840.65], [629218.25, 5220846.65], [629216.75, 5220850.15], [629214.75, 5220854.15], [629214.25, 5220854.65], [629213.75, 5220855.15], [629213.25, 5220855.65], [629211.25, 5220857.65], [629210.25, 5220859.65], [629208.75, 5220863.15], [629206.75, 5220868.15], [629205.25, 5220871.65], [629203.25, 5220876.65], [629201.75, 5220880.15], [629199.75, 5220885.15], [629198.25, 5220888.65], [629195.75, 5220894.65], [629191.25, 5220903.65], [629190.75, 5220904.15], [629191.25, 5220903.65], [629196.25, 5220891.65], [629199.25, 5220884.65], [629211.75, 5220856.65], [629213.25, 5220855.65], [629213.75, 5220855.15], [629214.25, 5220854.65], [629214.75, 5220854.15], [629216.25, 5220850.65], [629218.25, 5220845.65], [629219.75, 5220842.15], [629221.75, 5220837.15], [629224.25, 5220831.15], [629226.25, 5220826.15], [629228.75, 5220820.15], [629234.75, 5220805.15], [629236.25, 5220801.65], [629240.25, 5220791.65], [629241.75, 5220788.15], [629243.75, 5220783.15], [629246.25, 5220777.15], [629249.25, 5220770.15], [629251.25, 5220765.15], [629252.75, 5220762.65], [629253.25, 5220761.65], [629254.25, 5220756.65], [629253.75, 5220755.15], [629253.75, 5220749.15], [629254.25, 5220748.65], [629256.75, 5220742.65], [629245.25, 5220735.15], [629238.25, 5220731.15], [629230.25, 5220726.15], [629223.75, 5220722.65], [629222.75, 5220722.65], [629222.25, 5220723.15], [629220.75, 5220726.65], [629218.25, 5220732.65], [629216.25, 5220737.65], [629213.75, 5220743.65], [629211.75, 5220748.65], [629210.25, 5220752.65], [629210.25, 5220753.15], [629214.25, 5220740.65], [629214.75, 5220740.15], [629218.75, 5220730.15], [629221.25, 5220724.15], [629219.75, 5220722.65], [629219.25, 5220720.65], [629218.75, 5220720.15], [629216.75, 5220718.65], [629216.25, 5220718.65], [629215.25, 5220719.65], [629213.75, 5220723.15], [629211.75, 5220728.15], [629210.25, 5220731.65], [629206.25, 5220741.65], [629203.75, 5220747.65], [629201.75, 5220752.65], [629198.25, 5220760.65], [629197.75, 5220761.15], [629196.75, 5220764.15], [629193.25, 5220774.15], [629193.25, 5220774.65], [629192.75, 5220775.15], [629192.25, 5220776.65], [629190.75, 5220779.65], [629188.75, 5220784.65], [629187.25, 5220788.15], [629184.75, 5220794.15], [629183.25, 5220798.65], [629182.75, 5220799.15], [629181.25, 5220802.65], [629178.75, 5220808.65], [629176.75, 5220813.65], [629176.75, 5220814.15], [629176.25, 5220814.65], [629174.75, 5220818.15], [629172.75, 5220823.15], [629171.25, 5220826.65], [629169.25, 5220831.65], [629166.75, 5220837.65], [629164.75, 5220842.65], [629162.25, 5220848.65], [629160.25, 5220853.65], [629158.75, 5220857.15], [629156.75, 5220862.15], [629153.75, 5220869.15], [629153.25, 5220870.65], [629151.75, 5220873.65], [629150.25, 5220877.15], [629149.75, 5220878.65], [629148.25, 5220881.65], [629146.75, 5220885.15], [629146.25, 5220886.65], [629145.75, 5220887.15], [629144.25, 5220887.15], [629143.75, 5220886.65], [629144.25, 5220883.15], [629146.25, 5220881.15], [629147.25, 5220876.15], [629147.75, 5220875.65], [629149.25, 5220872.15], [629149.75, 5220870.65], [629151.25, 5220867.65], [629152.75, 5220864.15], [629153.25, 5220861.65], [629153.75, 5220861.15], [629154.25, 5220859.65], [629159.75, 5220848.65], [629160.25, 5220848.15], [629160.75, 5220844.65], [629163.25, 5220838.65], [629165.25, 5220833.65], [629165.75, 5220831.15], [629165.25, 5220830.65], [629162.25, 5220829.15], [629162.75, 5220828.15], [629163.25, 5220827.65], [629162.75, 5220828.15], [629162.75, 5220829.65], [629164.25, 5220829.65], [629164.75, 5220828.15], [629166.25, 5220825.15], [629168.75, 5220819.15], [629170.25, 5220815.65], [629176.25, 5220800.65], [629177.75, 5220797.15], [629183.75, 5220782.15], [629186.25, 5220776.15], [629190.25, 5220766.15], [629192.75, 5220760.15], [629194.75, 5220755.15], [629197.25, 5220749.15], [629197.75, 5220747.15], [629198.25, 5220746.65], [629204.25, 5220731.65], [629206.75, 5220725.65], [629208.75, 5220720.65], [629209.75, 5220717.65], [629206.25, 5220713.15], [629205.75, 5220712.65], [629204.75, 5220712.65], [629204.25, 5220713.15], [629198.25, 5220728.15], [629195.75, 5220734.15], [629193.75, 5220737.65], [629193.25, 5220738.15], [629193.75, 5220737.65], [629194.75, 5220735.65], [629197.25, 5220729.65], [629201.25, 5220719.65], [629203.75, 5220713.15], [629203.75, 5220712.15], [629202.75, 5220711.15], [629202.25, 5220711.65], [629201.75, 5220713.15], [629200.75, 5220715.15], [629198.25, 5220721.15], [629178.25, 5220770.15], [629176.75, 5220773.65], [629174.25, 5220779.65], [629170.25, 5220789.65], [629168.75, 5220793.15], [629166.75, 5220798.15], [629165.25, 5220801.65], [629163.25, 5220806.65], [629161.75, 5220810.15], [629159.75, 5220815.15], [629158.25, 5220818.65], [629156.25, 5220823.65], [629154.75, 5220827.15], [629152.25, 5220833.15], [629150.25, 5220838.15], [629148.75, 5220841.65], [629144.25, 5220851.65], [629143.75, 5220852.15], [629144.25, 5220851.65], [629147.75, 5220843.15], [629149.25, 5220839.65], [629154.25, 5220827.65], [629156.25, 5220822.65], [629157.75, 5220819.15], [629160.25, 5220813.15], [629164.25, 5220803.15], [629165.75, 5220799.65], [629167.75, 5220794.65], [629170.25, 5220788.65], [629174.25, 5220778.65], [629175.75, 5220775.15], [629177.75, 5220770.15], [629180.25, 5220764.15], [629181.75, 5220760.65], [629184.25, 5220754.65], [629186.25, 5220749.65], [629188.75, 5220743.65], [629190.75, 5220738.65], [629193.25, 5220732.65], [629195.25, 5220727.65], [629196.75, 5220724.15], [629200.25, 5220715.15], [629201.75, 5220711.65], [629201.75, 5220711.15], [629200.75, 5220710.15], [629200.25, 5220710.15], [629199.75, 5220710.65], [629191.75, 5220730.65], [629189.25, 5220736.65], [629187.25, 5220741.65], [629185.75, 5220745.15], [629183.75, 5220750.15], [629176.25, 5220768.15], [629174.25, 5220773.15], [629171.75, 5220779.15], [629169.75, 5220784.15], [629167.25, 5220790.15], [629165.25, 5220795.15], [629162.75, 5220801.15], [629160.75, 5220806.15], [629158.25, 5220812.15], [629156.25, 5220817.15], [629151.25, 5220829.15], [629149.25, 5220833.15], [629148.75, 5220833.65], [629149.25, 5220833.15], [629151.25, 5220828.15], [629153.75, 5220822.15], [629160.75, 5220804.65], [629162.25, 5220801.15], [629164.25, 5220796.15], [629165.75, 5220792.65], [629167.75, 5220787.65], [629169.25, 5220784.15], [629171.25, 5220779.15], [629172.75, 5220775.65], [629174.75, 5220770.65], [629176.25, 5220767.15], [629178.75, 5220761.15], [629180.25, 5220757.65], [629182.25, 5220752.65], [629184.75, 5220746.65], [629186.75, 5220741.65], [629189.25, 5220735.65], [629191.25, 5220730.65], [629193.75, 5220724.65], [629195.75, 5220719.65], [629197.25, 5220716.15], [629198.75, 5220711.65], [629199.25, 5220710.65], [629198.25, 5220709.65], [629196.25, 5220711.65], [629193.75, 5220719.15], [629193.25, 5220720.65], [629192.25, 5220722.65], [629189.75, 5220728.65], [629187.75, 5220733.65], [629186.25, 5220737.15], [629184.25, 5220742.15], [629181.75, 5220748.15], [629179.75, 5220753.15], [629177.25, 5220759.15], [629175.75, 5220762.65], [629173.25, 5220769.15], [629172.25, 5220771.15], [629169.75, 5220777.15], [629167.75, 5220782.15], [629166.25, 5220785.65], [629164.25, 5220790.65], [629162.75, 5220794.15], [629160.75, 5220799.15], [629159.25, 5220802.65], [629157.25, 5220807.65], [629155.75, 5220811.15], [629152.25, 5220820.15], [629150.75, 5220823.65], [629147.25, 5220830.15], [629150.25, 5220823.15], [629150.75, 5220821.65], [629151.75, 5220819.65], [629153.75, 5220814.65], [629156.75, 5220807.65], [629159.25, 5220801.65], [629161.25, 5220796.65], [629162.75, 5220793.15], [629164.75, 5220788.15], [629166.25, 5220784.65], [629168.25, 5220779.65], [629169.75, 5220776.15], [629172.25, 5220770.15], [629174.25, 5220765.15], [629175.75, 5220761.65], [629178.25, 5220755.65], [629180.25, 5220750.65], [629181.75, 5220747.15], [629186.75, 5220735.15], [629188.75, 5220730.15], [629190.25, 5220726.65], [629192.25, 5220721.65], [629193.75, 5220718.15], [629195.75, 5220713.15], [629196.25, 5220710.65], [629195.75, 5220710.15], [629194.25, 5220711.65], [629193.25, 5220713.65], [629190.75, 5220719.65], [629188.75, 5220724.65], [629187.25, 5220728.15], [629182.25, 5220740.15], [629180.25, 5220745.15], [629179.75, 5220747.15], [629179.25, 5220747.65], [629178.75, 5220749.15], [629177.75, 5220751.15], [629172.75, 5220763.15], [629170.75, 5220768.15], [629169.25, 5220771.65], [629167.25, 5220776.65], [629165.75, 5220780.15], [629163.25, 5220786.15], [629161.25, 5220791.15], [629159.75, 5220794.65], [629157.75, 5220799.65], [629156.25, 5220803.15], [629153.75, 5220809.15], [629152.25, 5220812.65], [629148.25, 5220822.65], [629146.75, 5220825.15], [629146.25, 5220825.65], [629145.75, 5220826.15], [629143.25, 5220824.65], [629141.75, 5220825.15], [629140.25, 5220828.65], [629137.75, 5220834.65], [629136.25, 5220838.65], [629135.25, 5220840.65], [629135.25, 5220841.15], [629135.75, 5220839.15], [629136.75, 5220835.65], [629137.75, 5220833.65], [629140.25, 5220827.65], [629141.25, 5220824.65], [629140.25, 5220823.65], [629139.25, 5220824.65], [629138.75, 5220826.15], [629134.75, 5220834.15], [629134.25, 5220834.65], [629134.75, 5220834.15], [629135.25, 5220832.65], [629136.25, 5220830.65], [629143.75, 5220812.65], [629144.75, 5220809.65], [629144.75, 5220809.15], [629144.25, 5220812.65], [629143.75, 5220813.15], [629142.75, 5220815.15], [629140.25, 5220822.15], [629141.25, 5220823.15], [629145.75, 5220826.15], [629146.25, 5220825.65], [629146.75, 5220825.15], [629147.25, 5220823.65], [629148.25, 5220821.65], [629150.25, 5220816.65], [629155.25, 5220804.65], [629157.25, 5220799.65], [629158.75, 5220796.15], [629163.75, 5220784.15], [629165.75, 5220779.15], [629167.25, 5220775.65], [629172.25, 5220763.65], [629173.75, 5220760.15], [629175.75, 5220755.15], [629177.25, 5220751.65], [629179.25, 5220746.65], [629180.75, 5220743.15], [629182.75, 5220738.15], [629184.25, 5220734.65], [629186.25, 5220729.65], [629188.75, 5220723.65], [629190.75, 5220718.65], [629192.25, 5220715.15], [629194.75, 5220710.15], [629185.75, 5220705.65], [629184.75, 5220707.15], [629182.25, 5220713.15], [629180.25, 5220718.15], [629178.75, 5220721.65], [629176.25, 5220727.65], [629174.25, 5220732.65], [629172.75, 5220736.15], [629171.25, 5220738.65], [629170.75, 5220739.15], [629170.25, 5220742.65], [629164.25, 5220756.65], [629158.25, 5220771.65], [629156.75, 5220775.15], [629154.75, 5220780.15], [629152.25, 5220786.15], [629150.25, 5220791.15], [629148.75, 5220794.65], [629141.75, 5220811.15], [629139.25, 5220817.15], [629137.75, 5220820.15], [629137.25, 5220820.65], [629135.75, 5220820.65], [629135.25, 5220821.15], [629133.75, 5220824.65], [629133.25, 5220826.15], [629132.25, 5220828.15], [629130.75, 5220831.65], [629123.25, 5220849.65], [629121.75, 5220853.15], [629120.25, 5220857.65], [629124.25, 5220845.65], [629125.75, 5220842.65], [629133.25, 5220824.65], [629134.25, 5220821.65], [629133.25, 5220820.65], [629131.75, 5220819.65], [629128.75, 5220818.15], [629128.25, 5220817.65], [629130.75, 5220810.15], [629131.75, 5220808.15], [629133.25, 5220804.65], [629135.25, 5220799.65], [629137.75, 5220793.65], [629139.75, 5220788.65], [629139.75, 5220787.65], [629139.25, 5220791.15], [629134.25, 5220803.15], [629132.25, 5220808.15], [629126.25, 5220822.15], [629121.25, 5220834.15], [629119.75, 5220837.65], [629112.25, 5220855.65], [629109.75, 5220860.65], [629109.25, 5220861.15], [629107.75, 5220860.65], [629108.25, 5220857.15], [629106.75, 5220857.15], [629110.75, 5220845.15], [629111.25, 5220844.65], [629113.25, 5220839.65], [629114.75, 5220836.15], [629119.75, 5220824.15], [629122.75, 5220817.15], [629143.75, 5220765.65], [629144.75, 5220763.65], [629145.25, 5220762.15], [629146.25, 5220761.15], [629144.75, 5220762.65], [629143.75, 5220767.65], [629143.25, 5220768.15], [629141.25, 5220773.15], [629139.75, 5220776.65], [629134.75, 5220788.65], [629132.25, 5220795.15], [629131.25, 5220797.15], [629129.25, 5220802.15], [629129.25, 5220803.15], [629128.75, 5220803.65], [629127.75, 5220805.65], [629125.25, 5220811.65], [629124.25, 5220815.15], [629122.25, 5220819.15], [629117.25, 5220831.15], [629115.75, 5220834.65], [629110.75, 5220846.65], [629109.25, 5220850.15], [629106.25, 5220856.15], [629104.75, 5220855.65], [629102.25, 5220853.15], [629105.75, 5220842.65], [629104.75, 5220840.65], [629105.75, 5220837.15], [629116.75, 5220811.15], [629106.75, 5220801.15], [629105.25, 5220802.65], [629103.75, 5220804.65], [629101.75, 5220807.65], [629109.75, 5220794.65], [629110.25, 5220793.65], [629110.75, 5220793.15], [629111.75, 5220791.65], [629113.25, 5220789.65], [629116.25, 5220785.15], [629117.75, 5220783.15], [629120.75, 5220778.65], [629126.75, 5220771.65], [629127.25, 5220771.15], [629126.75, 5220771.65], [629125.75, 5220773.15], [629124.25, 5220775.15], [629121.25, 5220779.65], [629119.75, 5220781.65], [629117.75, 5220784.65], [629116.25, 5220786.65], [629113.25, 5220791.15], [629112.75, 5220792.15], [629111.75, 5220793.15], [629109.75, 5220796.15], [629108.25, 5220798.15], [629107.25, 5220799.65], [629117.25, 5220809.65], [629117.75, 5220809.15], [629140.25, 5220748.65], [629162.25, 5220693.65], [629145.25, 5220683.15], [629142.75, 5220681.65], [629136.75, 5220679.65], [629135.25, 5220681.65], [629128.25, 5220692.65], [629123.25, 5220700.15], [629111.25, 5220716.65], [629110.75, 5220717.15], [629098.75, 5220738.15], [629098.25, 5220738.65], [629092.25, 5220747.65], [629082.25, 5220763.15], [629081.25, 5220764.65], [629074.25, 5220772.65], [629072.75, 5220771.65], [629070.25, 5220774.15], [629078.75, 5220780.65], [629092.25, 5220787.65], [629094.75, 5220784.15], [629100.25, 5220770.65], [629100.75, 5220770.15], [629098.75, 5220771.15], [629094.75, 5220784.65], [629094.75, 5220785.15], [629092.25, 5220787.65], [629095.75, 5220789.15], [629095.75, 5220788.65], [629097.25, 5220786.65], [629096.25, 5220785.65], [629096.25, 5220785.15], [629097.25, 5220784.15], [629099.25, 5220785.15], [629100.25, 5220784.65], [629096.75, 5220787.65], [629095.75, 5220788.65], [629093.75, 5220789.65], [629063.25, 5220771.15], [629055.25, 5220763.15], [629056.25, 5220762.15], [629056.25, 5220761.65], [629056.75, 5220761.15], [629057.25, 5220760.65], [629058.25, 5220759.15], [629066.25, 5220747.15], [629076.75, 5220731.15], [629085.25, 5220718.15], [629086.25, 5220716.65], [629086.25, 5220716.15], [629085.75, 5220718.15], [629076.25, 5220733.65], [629069.25, 5220744.15], [629064.75, 5220751.15], [629061.75, 5220755.65], [629056.75, 5220761.15], [629056.25, 5220761.65], [629056.25, 5220762.15], [629055.25, 5220763.15], [629053.75, 5220761.15], [629054.25, 5220760.65], [629056.25, 5220757.65], [629057.75, 5220754.15], [629068.75, 5220737.65], [629089.75, 5220705.65], [629090.75, 5220704.15], [629101.75, 5220689.15], [629102.75, 5220688.15], [629103.25, 5220686.15], [629104.75, 5220682.65], [629106.75, 5220679.65], [629114.25, 5220668.15], [629114.25, 5220667.65], [629113.25, 5220666.65], [629111.75, 5220668.15], [629111.25, 5220669.65], [629111.25, 5220665.65], [629106.75, 5220663.65], [629104.75, 5220665.65], [629109.25, 5220663.65], [629119.25, 5220669.65], [629119.75, 5220670.15], [629119.25, 5220671.65], [629117.75, 5220673.15], [629117.25, 5220675.15], [629113.25, 5220682.65], [629107.25, 5220691.65], [629095.25, 5220709.15], [629102.25, 5220697.65], [629104.25, 5220694.65], [629111.75, 5220683.15], [629120.75, 5220671.15], [629121.75, 5220670.15], [629122.25, 5220670.15], [629122.75, 5220670.65], [629122.25, 5220673.15], [629120.25, 5220675.15], [629124.75, 5220672.65], [629142.75, 5220681.65], [629143.75, 5220682.65], [629143.25, 5220686.15], [629143.75, 5220684.65], [629145.25, 5220683.15], [629181.25, 5220700.15], [629187.75, 5220701.65], [629203.75, 5220687.15], [629409.25, 5220537.15], [629426.75, 5220522.65], [629440.25, 5220508.15], [629449.75, 5220490.65], [629449.75, 5220534.15], [629450.25, 5220534.65], [629482.25, 5220542.65], [629484.75, 5220543.15], [629485.25, 5220543.65], [629484.75, 5220543.15], [629483.25, 5220543.15], [629482.75, 5220542.65], [629481.25, 5220542.65], [629480.75, 5220542.15], [629479.25, 5220542.15], [629478.75, 5220541.65], [629478.25, 5220541.65], [629450.25, 5220534.65], [629449.75, 5220534.15], [629451.25, 5220526.15], [629454.75, 5220526.15], [629455.25, 5220526.65], [629475.75, 5220531.65], [629479.75, 5220532.65], [629481.25, 5220533.15], [629481.75, 5220533.65], [629481.25, 5220533.15], [629479.25, 5220532.65], [629478.75, 5220532.15], [629475.25, 5220531.65], [629453.25, 5220526.15], [629450.75, 5220525.65], [629451.75, 5220521.65], [629454.75, 5220521.65], [629455.25, 5220522.15], [629469.75, 5220525.65], [629470.75, 5220525.65], [629471.25, 5220526.15], [629479.25, 5220528.15], [629479.75, 5220528.65], [629481.25, 5220528.65], [629453.25, 5220521.65], [629451.25, 5220521.15], [629452.75, 5220503.65], [629463.75, 5220506.15], [629473.25, 5220508.65], [629485.25, 5220511.65], [629487.75, 5220512.15], [629484.25, 5220511.65], [629460.25, 5220505.65], [629459.25, 5220505.65], [629458.75, 5220505.15], [629455.25, 5220504.65], [629453.25, 5220503.15], [629459.25, 5220447.15], [629487.75, 5220341.15], [629495.75, 5220328.65], [629500.25, 5220316.15], [629504.75, 5220250.65], [629504.7, 5220250.75]]}}]}