{"type": "FeatureCollection", "crs": {"type": "name", "properties": {"name": "urn:ogc:def:crs:EPSG::32635"}}, "features": [{"type": "Feature", "geometry": {"type": "Point", "coordinates": [629194.4, 5220840.76]}, "properties": {"type": "gap", "gap_m": 5.7, "vineyard_id": "V02", "row_id": "V02-R44", "reachable": true, "id": "T0086", "x": 629194.4, "y": 5220840.76, "order": 4, "visited": true}}, {"type": "Feature", "geometry": {"type": "Point", "coordinates": [629142.13, 5220752.94]}, "properties": {"type": "gap", "gap_m": 18.8, "vineyard_id": "V02", "row_id": "V02-R82", "reachable": true, "id": "T0226", "x": 629142.13, "y": 5220752.94, "order": null, "visited": false}}, {"type": "Feature", "geometry": {"type": "Point", "coordinates": [629214.91, 5220568.86]}, "properties": {"type": "gap", "gap_m": 5.8, "vineyard_id": "V06", "row_id": "V06-R12", "reachable": true, "id": "T0291", "x": 629214.91, "y": 5220568.86, "order": 3, "visited": true}}, {"type": "Feature", "geometry": {"type": "Point", "coordinates": [629179.29, 5220572.51]}, "properties": {"type": "gap", "gap_m": 3.6, "vineyard_id": "V06", "row_id": "V06-R19", "reachable": true, "id": "T0301", "x": 629179.29, "y": 5220572.51, "order": null, "visited": false}}, {"type": "Feature", "geometry": {"type": "Point", "coordinates": [629186.39, 5220513.33]}, "properties": {"type": "gap", "gap_m": 3.2, "vineyard_id": "V09", "row_id": "V09-R16", "reachable": true, "id": "T0354", "x": 629186.39, "y": 5220513.33, "order": 2, "visited": true}}, {"type": "Feature", "geometry": {"type": "Point", "coordinates": [629209.44, 5220480.35]}, "properties": {"type": "gap", "gap_m": 17.9, "vineyard_id": "V09", "row_id": "V09-R21", "reachable": true, "id": "T0367", "x": 629209.44, "y": 5220480.35, "order": null, "visited": false}}, {"type": "Feature", "geometry": {"type": "Point", "coordinates": [629602.83, 5220227.54]}, "properties": {"type": "gap", "gap_m": 3.4, "vineyard_id": "V14", "row_id": "V14-R28", "reachable": true, "id": "T0431", "x": 629602.83, "y": 5220227.54, "order": null, "visited": false}}, {"type": "Feature", "geometry": {"type": "Point", "coordinates": [629572.06, 5220220.5]}, "properties": {"type": "gap", "gap_m": 59.5, "vineyard_id": "V14", "row_id": "V14-R42", "reachable": true, "id": "T0443", "x": 629572.06, "y": 5220220.5, "order": 1, "visited": true}}, {"type": "Feature", "geometry": {"type": "Point", "coordinates": [629910.5, 5219879.61]}, "properties": {"type": "gap", "gap_m": 23.4, "vineyard_id": "V17", "row_id": "V17-R07", "reachable": true, "id": "T0652", "x": 629910.5, "y": 5219879.61, "order": null, "visited": false}}, {"type": "Feature", "geometry": {"type": "Point", "coordinates": [629943.64, 5219827.34]}, "properties": {"type": "gap", "gap_m": 3.0, "vineyard_id": "V17", "row_id": "V17-R09", "reachable": true, "id": "T0667", "x": 629943.64, "y": 5219827.34, "order": null, "visited": false}}, {"type": "Feature", "geometry": {"type": "Point", "coordinates": [629822.65, 5219722.88]}, "properties": {"type": "gap", "gap_m": 3.4, "vineyard_id": "V21", "row_id": "V21-R01", "reachable": true, "id": "T0713", "x": 629822.65, "y": 5219722.88, "order": null, "visited": false}}, {"type": "Feature", "geometry": {"type": "Point", "coordinates": [629836.91, 5219702.51]}, "properties": {"type": "gap", "gap_m": 4.9, "vineyard_id": "V21", "row_id": "V21-R01", "reachable": true, "id": "T0714", "x": 629836.91, "y": 5219702.51, "order": null, "visited": false}}, {"type": "Feature", "geometry": {"type": "Point", "coordinates": [630221.81, 5219688.32]}, "properties": {"type": "gap", "gap_m": 4.3, "vineyard_id": "V22", "row_id": "V22-R03", "reachable": true, "id": "T0720", "x": 630221.81, "y": 5219688.32, "order": null, "visited": false}}, {"type": "Feature", "geometry": {"type": "Point", "coordinates": [630220.34, 5219684.79]}, "properties": {"type": "gap", "gap_m": 3.8, "vineyard_id": "V22", "row_id": "V22-R04", "reachable": true, "id": "T0721", "x": 630220.34, "y": 5219684.79, "order": null, "visited": false}}, {"type": "Feature", "geometry": {"type": "Point", "coordinates": [630356.38, 5219425.76]}, "properties": {"type": "gap", "gap_m": 8.3, "vineyard_id": "V34", "row_id": "V34-R09", "reachable": true, "id": "T0818", "x": 630356.38, "y": 5219425.76, "order": null, "visited": false}}, {"type": "Feature", "geometry": {"type": "Point", "coordinates": [630237.66, 5219327.52]}, "properties": {"type": "gap", "gap_m": 3.5, "vineyard_id": "V39", "row_id": "V39-R07", "reachable": true, "id": "T0879", "x": 630237.66, "y": 5219327.52, "order": null, "visited": true}}, {"type": "Feature", "geometry": {"type": "Point", "coordinates": [630232.29, 5219305.41]}, "properties": {"type": "gap", "gap_m": 35.3, "vineyard_id": "V39", "row_id": "V39-R10", "reachable": true, "id": "T0894", "x": 630232.29, "y": 5219305.41, "order": null, "visited": false}}, {"type": "Feature", "geometry": {"type": "Point", "coordinates": [630286.78, 5219295.59]}, "properties": {"type": "gap", "gap_m": 6.2, "vineyard_id": "V41", "row_id": "V41-R10", "reachable": true, "id": "T0926", "x": 630286.78, "y": 5219295.59, "order": null, "visited": false}}, {"type": "Feature", "geometry": {"type": "Point", "coordinates": [630281.97, 5219288.22]}, "properties": {"type": "gap", "gap_m": 5.9, "vineyard_id": "V41", "row_id": "V41-R10", "reachable": true, "id": "T0927", "x": 630281.97, "y": 5219288.22, "order": 5, "visited": true}}, {"type": "Feature", "geometry": {"type": "Point", "coordinates": [630206.21, 5219257.4]}, "properties": {"type": "gap", "gap_m": 3.6, "vineyard_id": "V42", "row_id": "V42-R10", "reachable": true, "id": "T0942", "x": 630206.21, "y": 5219257.4, "order": null, "visited": false}}, {"type": "Feature", "geometry": {"type": "Point", "coordinates": [630178.0, 5219265.34]}, "properties": {"type": "gap", "gap_m": 12.9, "vineyard_id": "V42", "row_id": "V42-R14", "reachable": true, "id": "T0947", "x": 630178.0, "y": 5219265.34, "order": null, "visited": false}}]}