{"type": "FeatureCollection", "crs": {"type": "name", "properties": {"name": "urn:ogc:def:crs:EPSG::32635"}}, "features": [{"type": "Feature", "geometry": {"type": "Point", "coordinates": [629230.07, 5220913.02]}, "properties": {"type": "gap", "gap_m": 11.8, "vineyard_id": "V02", "row_id": "V02-R16", "reachable": true, "id": "T0015", "x": 629230.07, "y": 5220913.02, "order": null, "visited": false}}, {"type": "Feature", "geometry": {"type": "Point", "coordinates": [629228.97, 5220902.85]}, "properties": {"type": "gap", "gap_m": 12.9, "vineyard_id": "V02", "row_id": "V02-R19", "reachable": true, "id": "T0025", "x": 629228.97, "y": 5220902.85, "order": null, "visited": false}}, {"type": "Feature", "geometry": {"type": "Point", "coordinates": [629241.44, 5220873.3]}, "properties": {"type": "gap", "gap_m": 12.9, "vineyard_id": "V02", "row_id": "V02-R19", "reachable": true, "id": "T0028", "x": 629241.44, "y": 5220873.3, "order": null, "visited": false}}, {"type": "Feature", "geometry": {"type": "Point", "coordinates": [629234.8, 5220741.32]}, "properties": {"type": "gap", "gap_m": 12.4, "vineyard_id": "V02", "row_id": "V02-R44", "reachable": true, "id": "T0089", "x": 629234.8, "y": 5220741.32, "order": 6, "visited": true}}, {"type": "Feature", "geometry": {"type": "Point", "coordinates": [629231.82, 5220742.04]}, "properties": {"type": "gap", "gap_m": 10.2, "vineyard_id": "V02", "row_id": "V02-R45", "reachable": true, "id": "T0092", "x": 629231.82, "y": 5220742.04, "order": 7, "visited": true}}, {"type": "Feature", "geometry": {"type": "Point", "coordinates": [629160.92, 5220848.26]}, "properties": {"type": "gap", "gap_m": 16.1, "vineyard_id": "V02", "row_id": "V02-R56", "reachable": true, "id": "T0146", "x": 629160.92, "y": 5220848.26, "order": 9, "visited": true}}, {"type": "Feature", "geometry": {"type": "Point", "coordinates": [629148.78, 5220870.6]}, "properties": {"type": "gap", "gap_m": 11.2, "vineyard_id": "V02", "row_id": "V02-R57", "reachable": true, "id": "T0148", "x": 629148.78, "y": 5220870.6, "order": 8, "visited": true}}, {"type": "Feature", "geometry": {"type": "Point", "coordinates": [629143.53, 5220756.61]}, "properties": {"type": "gap", "gap_m": 10.8, "vineyard_id": "V02", "row_id": "V02-R80", "reachable": true, "id": "T0225", "x": 629143.53, "y": 5220756.61, "order": null, "visited": false}}, {"type": "Feature", "geometry": {"type": "Point", "coordinates": [629142.13, 5220752.94]}, "properties": {"type": "gap", "gap_m": 18.8, "vineyard_id": "V02", "row_id": "V02-R82", "reachable": true, "id": "T0226", "x": 629142.13, "y": 5220752.94, "order": null, "visited": false}}, {"type": "Feature", "geometry": {"type": "Point", "coordinates": [629113.28, 5220792.75]}, "properties": {"type": "gap", "gap_m": 15.1, "vineyard_id": "V04", "row_id": "V04-R02", "reachable": true, "id": "T0228", "x": 629113.28, "y": 5220792.75, "order": 10, "visited": true}}, {"type": "Feature", "geometry": {"type": "Point", "coordinates": [629127.93, 5220771.71]}, "properties": {"type": "gap", "gap_m": 13.5, "vineyard_id": "V04", "row_id": "V04-R02", "reachable": true, "id": "T0229", "x": 629127.93, "y": 5220771.71, "order": 11, "visited": true}}, {"type": "Feature", "geometry": {"type": "Point", "coordinates": [629109.62, 5220793.02]}, "properties": {"type": "gap", "gap_m": 12.1, "vineyard_id": "V04", "row_id": "V04-R04", "reachable": true, "id": "T0230", "x": 629109.62, "y": 5220793.02, "order": 12, "visited": true}}, {"type": "Feature", "geometry": {"type": "Point", "coordinates": [629139.79, 5220741.7]}, "properties": {"type": "gap", "gap_m": 11.9, "vineyard_id": "V04", "row_id": "V04-R06", "reachable": true, "id": "T0231", "x": 629139.79, "y": 5220741.7, "order": null, "visited": false}}, {"type": "Feature", "geometry": {"type": "Point", "coordinates": [629101.49, 5220770.53]}, "properties": {"type": "gap", "gap_m": 10.9, "vineyard_id": "V04", "row_id": "V04-R16", "reachable": true, "id": "T0241", "x": 629101.49, "y": 5220770.53, "order": 14, "visited": true}}, {"type": "Feature", "geometry": {"type": "Point", "coordinates": [629098.19, 5220770.56]}, "properties": {"type": "gap", "gap_m": 10.7, "vineyard_id": "V04", "row_id": "V04-R18", "reachable": true, "id": "T0244", "x": 629098.19, "y": 5220770.56, "order": 13, "visited": true}}, {"type": "Feature", "geometry": {"type": "Point", "coordinates": [629040.04, 5220696.29]}, "properties": {"type": "gap", "gap_m": 17.3, "vineyard_id": "V04", "row_id": "V04-R53", "reachable": true, "id": "T0272", "x": 629040.04, "y": 5220696.29, "order": null, "visited": false}}, {"type": "Feature", "geometry": {"type": "Point", "coordinates": [629383.9, 5220630.62]}, "properties": {"type": "gap", "gap_m": 10.5, "vineyard_id": "V05", "row_id": "V05-R06", "reachable": true, "id": "T0284", "x": 629383.9, "y": 5220630.62, "order": null, "visited": false}}, {"type": "Feature", "geometry": {"type": "Point", "coordinates": [629393.92, 5220640.68]}, "properties": {"type": "gap", "gap_m": 10.0, "vineyard_id": "V05", "row_id": "V05-R08", "reachable": true, "id": "T0288", "x": 629393.92, "y": 5220640.68, "order": null, "visited": false}}, {"type": "Feature", "geometry": {"type": "Point", "coordinates": [629479.28, 5220535.94]}, "properties": {"type": "gap", "gap_m": 29.1, "vineyard_id": "V08", "row_id": "V08-R11", "reachable": true, "id": "T0331", "x": 629479.28, "y": 5220535.94, "order": null, "visited": false}}, {"type": "Feature", "geometry": {"type": "Point", "coordinates": [629481.2, 5220534.3]}, "properties": {"type": "gap", "gap_m": 30.8, "vineyard_id": "V08", "row_id": "V08-R12", "reachable": true, "id": "T0332", "x": 629481.2, "y": 5220534.3, "order": 4, "visited": true}}, {"type": "Feature", "geometry": {"type": "Point", "coordinates": [629479.3, 5220531.57]}, "properties": {"type": "gap", "gap_m": 25.8, "vineyard_id": "V08", "row_id": "V08-R13", "reachable": true, "id": "T0334", "x": 629479.3, "y": 5220531.57, "order": 5, "visited": true}}, {"type": "Feature", "geometry": {"type": "Point", "coordinates": [629479.26, 5220529.31]}, "properties": {"type": "gap", "gap_m": 27.2, "vineyard_id": "V08", "row_id": "V08-R14", "reachable": true, "id": "T0335", "x": 629479.26, "y": 5220529.31, "order": 3, "visited": true}}, {"type": "Feature", "geometry": {"type": "Point", "coordinates": [629481.43, 5220527.65]}, "properties": {"type": "gap", "gap_m": 13.6, "vineyard_id": "V08", "row_id": "V08-R15", "reachable": true, "id": "T0336", "x": 629481.43, "y": 5220527.65, "order": 2, "visited": true}}, {"type": "Feature", "geometry": {"type": "Point", "coordinates": [629170.6, 5220530.25]}, "properties": {"type": "gap", "gap_m": 12.6, "vineyard_id": "V09", "row_id": "V09-R10", "reachable": true, "id": "T0351", "x": 629170.6, "y": 5220530.25, "order": 15, "visited": true}}, {"type": "Feature", "geometry": {"type": "Point", "coordinates": [629215.77, 5220487.37]}, "properties": {"type": "gap", "gap_m": 10.7, "vineyard_id": "V09", "row_id": "V09-R19", "reachable": true, "id": "T0363", "x": 629215.77, "y": 5220487.37, "order": 16, "visited": true}}, {"type": "Feature", "geometry": {"type": "Point", "coordinates": [629209.44, 5220480.35]}, "properties": {"type": "gap", "gap_m": 17.9, "vineyard_id": "V09", "row_id": "V09-R21", "reachable": true, "id": "T0367", "x": 629209.44, "y": 5220480.35, "order": null, "visited": false}}, {"type": "Feature", "geometry": {"type": "Point", "coordinates": [629487.96, 5220511.37]}, "properties": {"type": "gap", "gap_m": 14.1, "vineyard_id": "V10", "row_id": "V10-R03", "reachable": true, "id": "T0371", "x": 629487.96, "y": 5220511.37, "order": 1, "visited": true}}, {"type": "Feature", "geometry": {"type": "Point", "coordinates": [629592.18, 5220278.34]}, "properties": {"type": "gap", "gap_m": 10.3, "vineyard_id": "V12", "row_id": "V12-R03", "reachable": true, "id": "T0379", "x": 629592.18, "y": 5220278.34, "order": 17, "visited": true}}, {"type": "Feature", "geometry": {"type": "Point", "coordinates": [629509.64, 5220232.15]}, "properties": {"type": "gap", "gap_m": 15.9, "vineyard_id": "V13", "row_id": "V13-R01", "reachable": true, "id": "T0382", "x": 629509.64, "y": 5220232.15, "order": 42, "visited": true}}, {"type": "Feature", "geometry": {"type": "Point", "coordinates": [629517.1, 5220218.06]}, "properties": {"type": "gap", "gap_m": 10.8, "vineyard_id": "V13", "row_id": "V13-R02", "reachable": true, "id": "T0386", "x": 629517.1, "y": 5220218.06, "order": 41, "visited": true}}, {"type": "Feature", "geometry": {"type": "Point", "coordinates": [629690.48, 5220227.07]}, "properties": {"type": "gap", "gap_m": 47.6, "vineyard_id": "V14", "row_id": "V14-R02", "reachable": true, "id": "T0392", "x": 629690.48, "y": 5220227.07, "order": 21, "visited": true}}, {"type": "Feature", "geometry": {"type": "Point", "coordinates": [629602.17, 5220210.27]}, "properties": {"type": "gap", "gap_m": 10.2, "vineyard_id": "V14", "row_id": "V14-R32", "reachable": true, "id": "T0438", "x": 629602.17, "y": 5220210.27, "order": 38, "visited": true}}, {"type": "Feature", "geometry": {"type": "Point", "coordinates": [629597.68, 5220211.5]}, "properties": {"type": "gap", "gap_m": 19.4, "vineyard_id": "V14", "row_id": "V14-R33", "reachable": true, "id": "T0439", "x": 629597.68, "y": 5220211.5, "order": 39, "visited": true}}, {"type": "Feature", "geometry": {"type": "Point", "coordinates": [629572.06, 5220220.5]}, "properties": {"type": "gap", "gap_m": 59.5, "vineyard_id": "V14", "row_id": "V14-R42", "reachable": true, "id": "T0443", "x": 629572.06, "y": 5220220.5, "order": 40, "visited": true}}, {"type": "Feature", "geometry": {"type": "Point", "coordinates": [629509.85, 5220236.86]}, "properties": {"type": "gap", "gap_m": 14.4, "vineyard_id": "V14", "row_id": "V14-R57", "reachable": true, "id": "T0501", "x": 629509.85, "y": 5220236.86, "order": 43, "visited": true}}, {"type": "Feature", "geometry": {"type": "Point", "coordinates": [629744.99, 5220160.81]}, "properties": {"type": "gap", "gap_m": 20.3, "vineyard_id": "V15", "row_id": "V15-R02", "reachable": true, "id": "T0506", "x": 629744.99, "y": 5220160.81, "order": 22, "visited": true}}, {"type": "Feature", "geometry": {"type": "Point", "coordinates": [629675.24, 5220186.69]}, "properties": {"type": "gap", "gap_m": 19.7, "vineyard_id": "V15", "row_id": "V15-R16", "reachable": true, "id": "T0517", "x": 629675.24, "y": 5220186.69, "order": 20, "visited": true}}, {"type": "Feature", "geometry": {"type": "Point", "coordinates": [629680.42, 5220175.79]}, "properties": {"type": "gap", "gap_m": 10.9, "vineyard_id": "V15", "row_id": "V15-R17", "reachable": true, "id": "T0521", "x": 629680.42, "y": 5220175.79, "order": 18, "visited": true}}, {"type": "Feature", "geometry": {"type": "Point", "coordinates": [629679.64, 5220172.9]}, "properties": {"type": "gap", "gap_m": 13.1, "vineyard_id": "V15", "row_id": "V15-R18", "reachable": true, "id": "T0528", "x": 629679.64, "y": 5220172.9, "order": 19, "visited": true}}, {"type": "Feature", "geometry": {"type": "Point", "coordinates": [629640.05, 5220124.32]}, "properties": {"type": "gap", "gap_m": 58.0, "vineyard_id": "V15", "row_id": "V15-R41", "reachable": true, "id": "T0563", "x": 629640.05, "y": 5220124.32, "order": 37, "visited": true}}, {"type": "Feature", "geometry": {"type": "Point", "coordinates": [629885.11, 5219971.46]}, "properties": {"type": "gap", "gap_m": 10.9, "vineyard_id": "V16", "row_id": "V16-R01", "reachable": true, "id": "T0581", "x": 629885.11, "y": 5219971.46, "order": null, "visited": false}}, {"type": "Feature", "geometry": {"type": "Point", "coordinates": [629850.34, 5219996.15]}, "properties": {"type": "gap", "gap_m": 17.8, "vineyard_id": "V16", "row_id": "V16-R05", "reachable": true, "id": "T0595", "x": 629850.34, "y": 5219996.15, "order": null, "visited": false}}, {"type": "Feature", "geometry": {"type": "Point", "coordinates": [629870.8, 5219969.88]}, "properties": {"type": "gap", "gap_m": 14.3, "vineyard_id": "V16", "row_id": "V16-R05", "reachable": true, "id": "T0598", "x": 629870.8, "y": 5219969.88, "order": null, "visited": false}}, {"type": "Feature", "geometry": {"type": "Point", "coordinates": [629789.78, 5220022.33]}, "properties": {"type": "gap", "gap_m": 11.5, "vineyard_id": "V16", "row_id": "V16-R18", "reachable": true, "id": "T0606", "x": 629789.78, "y": 5220022.33, "order": null, "visited": false}}, {"type": "Feature", "geometry": {"type": "Point", "coordinates": [629779.0, 5220014.86]}, "properties": {"type": "gap", "gap_m": 19.6, "vineyard_id": "V16", "row_id": "V16-R23", "reachable": true, "id": "T0621", "x": 629779.0, "y": 5220014.86, "order": null, "visited": false}}, {"type": "Feature", "geometry": {"type": "Point", "coordinates": [629775.77, 5220014.08]}, "properties": {"type": "gap", "gap_m": 23.2, "vineyard_id": "V16", "row_id": "V16-R25", "reachable": true, "id": "T0622", "x": 629775.77, "y": 5220014.08, "order": 35, "visited": true}}, {"type": "Feature", "geometry": {"type": "Point", "coordinates": [629665.76, 5220090.74]}, "properties": {"type": "gap", "gap_m": 11.7, "vineyard_id": "V16", "row_id": "V16-R40", "reachable": true, "id": "T0629", "x": 629665.76, "y": 5220090.74, "order": 36, "visited": true}}, {"type": "Feature", "geometry": {"type": "Point", "coordinates": [629915.31, 5219877.87]}, "properties": {"type": "gap", "gap_m": 12.1, "vineyard_id": "V17", "row_id": "V17-R06", "reachable": true, "id": "T0650", "x": 629915.31, "y": 5219877.87, "order": null, "visited": false}}, {"type": "Feature", "geometry": {"type": "Point", "coordinates": [629910.5, 5219879.61]}, "properties": {"type": "gap", "gap_m": 23.4, "vineyard_id": "V17", "row_id": "V17-R07", "reachable": true, "id": "T0652", "x": 629910.5, "y": 5219879.61, "order": null, "visited": false}}, {"type": "Feature", "geometry": {"type": "Point", "coordinates": [629967.17, 5219792.96]}, "properties": {"type": "gap", "gap_m": 10.4, "vineyard_id": "V17", "row_id": "V17-R10", "reachable": true, "id": "T0671", "x": 629967.17, "y": 5219792.96, "order": 34, "visited": true}}, {"type": "Feature", "geometry": {"type": "Point", "coordinates": [629983.36, 5219758.43]}, "properties": {"type": "gap", "gap_m": 16.8, "vineyard_id": "V18", "row_id": "V18-R02", "reachable": true, "id": "T0674", "x": 629983.36, "y": 5219758.43, "order": 33, "visited": true}}, {"type": "Feature", "geometry": {"type": "Point", "coordinates": [629950.65, 5219797.02]}, "properties": {"type": "gap", "gap_m": 10.7, "vineyard_id": "V18", "row_id": "V18-R03", "reachable": true, "id": "T0679", "x": 629950.65, "y": 5219797.02, "order": null, "visited": false}}, {"type": "Feature", "geometry": {"type": "Point", "coordinates": [630024.07, 5219769.87]}, "properties": {"type": "gap", "gap_m": 12.9, "vineyard_id": "V19", "row_id": "V19-R03", "reachable": true, "id": "T0689", "x": 630024.07, "y": 5219769.87, "order": 23, "visited": true}}, {"type": "Feature", "geometry": {"type": "Point", "coordinates": [630021.66, 5219767.32]}, "properties": {"type": "gap", "gap_m": 10.6, "vineyard_id": "V19", "row_id": "V19-R04", "reachable": true, "id": "T0693", "x": 630021.66, "y": 5219767.32, "order": 24, "visited": true}}, {"type": "Feature", "geometry": {"type": "Point", "coordinates": [629988.95, 5219760.13]}, "properties": {"type": "gap", "gap_m": 26.4, "vineyard_id": "V19", "row_id": "V19-R08", "reachable": true, "id": "T0708", "x": 629988.95, "y": 5219760.13, "order": 32, "visited": true}}, {"type": "Feature", "geometry": {"type": "Point", "coordinates": [630048.14, 5219583.3]}, "properties": {"type": "gap", "gap_m": 16.4, "vineyard_id": "V28", "row_id": "V28-R04", "reachable": true, "id": "T0752", "x": 630048.14, "y": 5219583.3, "order": null, "visited": false}}, {"type": "Feature", "geometry": {"type": "Point", "coordinates": [630137.41, 5219522.44]}, "properties": {"type": "gap", "gap_m": 13.7, "vineyard_id": "V31", "row_id": "V31-R09", "reachable": true, "id": "T0770", "x": 630137.41, "y": 5219522.44, "order": null, "visited": false}}, {"type": "Feature", "geometry": {"type": "Point", "coordinates": [630135.65, 5219422.31]}, "properties": {"type": "gap", "gap_m": 10.3, "vineyard_id": "V33", "row_id": "V33-R03", "reachable": true, "id": "T0790", "x": 630135.65, "y": 5219422.31, "order": null, "visited": false}}, {"type": "Feature", "geometry": {"type": "Point", "coordinates": [630122.17, 5219401.97]}, "properties": {"type": "gap", "gap_m": 16.7, "vineyard_id": "V33", "row_id": "V33-R04", "reachable": true, "id": "T0796", "x": 630122.17, "y": 5219401.97, "order": null, "visited": false}}, {"type": "Feature", "geometry": {"type": "Point", "coordinates": [630289.95, 5219420.98]}, "properties": {"type": "gap", "gap_m": 12.6, "vineyard_id": "V38", "row_id": "V38-R05", "reachable": true, "id": "T0843", "x": 630289.95, "y": 5219420.98, "order": null, "visited": true}}, {"type": "Feature", "geometry": {"type": "Point", "coordinates": [630305.87, 5219389.15]}, "properties": {"type": "gap", "gap_m": 11.4, "vineyard_id": "V38", "row_id": "V38-R17", "reachable": true, "id": "T0845", "x": 630305.87, "y": 5219389.15, "order": null, "visited": false}}, {"type": "Feature", "geometry": {"type": "Point", "coordinates": [630226.24, 5219324.98]}, "properties": {"type": "gap", "gap_m": 21.2, "vineyard_id": "V39", "row_id": "V39-R03", "reachable": true, "id": "T0863", "x": 630226.24, "y": 5219324.98, "order": 30, "visited": true}}, {"type": "Feature", "geometry": {"type": "Point", "coordinates": [630229.82, 5219325.23]}, "properties": {"type": "gap", "gap_m": 13.6, "vineyard_id": "V39", "row_id": "V39-R05", "reachable": true, "id": "T0869", "x": 630229.82, "y": 5219325.23, "order": 31, "visited": true}}, {"type": "Feature", "geometry": {"type": "Point", "coordinates": [630230.43, 5219321.3]}, "properties": {"type": "gap", "gap_m": 20.3, "vineyard_id": "V39", "row_id": "V39-R06", "reachable": true, "id": "T0875", "x": 630230.43, "y": 5219321.3, "order": null, "visited": false}}, {"type": "Feature", "geometry": {"type": "Point", "coordinates": [630221.61, 5219307.27]}, "properties": {"type": "gap", "gap_m": 10.3, "vineyard_id": "V39", "row_id": "V39-R06", "reachable": true, "id": "T0876", "x": 630221.61, "y": 5219307.27, "order": null, "visited": false}}, {"type": "Feature", "geometry": {"type": "Point", "coordinates": [630230.01, 5219311.09]}, "properties": {"type": "gap", "gap_m": 10.7, "vineyard_id": "V39", "row_id": "V39-R08", "reachable": true, "id": "T0885", "x": 630230.01, "y": 5219311.09, "order": 25, "visited": true}}, {"type": "Feature", "geometry": {"type": "Point", "coordinates": [630248.86, 5219331.0]}, "properties": {"type": "gap", "gap_m": 10.9, "vineyard_id": "V39", "row_id": "V39-R10", "reachable": true, "id": "T0892", "x": 630248.86, "y": 5219331.0, "order": 26, "visited": true}}, {"type": "Feature", "geometry": {"type": "Point", "coordinates": [630232.29, 5219305.41]}, "properties": {"type": "gap", "gap_m": 35.3, "vineyard_id": "V39", "row_id": "V39-R10", "reachable": true, "id": "T0894", "x": 630232.29, "y": 5219305.41, "order": 27, "visited": true}}, {"type": "Feature", "geometry": {"type": "Point", "coordinates": [630237.56, 5219308.74]}, "properties": {"type": "gap", "gap_m": 16.4, "vineyard_id": "V39", "row_id": "V39-R11", "reachable": true, "id": "T0899", "x": 630237.56, "y": 5219308.74, "order": 29, "visited": true}}, {"type": "Feature", "geometry": {"type": "Point", "coordinates": [630267.81, 5219350.88]}, "properties": {"type": "gap", "gap_m": 11.2, "vineyard_id": "V39", "row_id": "V39-R12", "reachable": true, "id": "T0902", "x": 630267.81, "y": 5219350.88, "order": null, "visited": true}}, {"type": "Feature", "geometry": {"type": "Point", "coordinates": [630267.45, 5219345.18]}, "properties": {"type": "gap", "gap_m": 10.0, "vineyard_id": "V39", "row_id": "V39-R13", "reachable": true, "id": "T0905", "x": 630267.45, "y": 5219345.18, "order": null, "visited": true}}, {"type": "Feature", "geometry": {"type": "Point", "coordinates": [630255.08, 5219325.86]}, "properties": {"type": "gap", "gap_m": 13.0, "vineyard_id": "V39", "row_id": "V39-R13", "reachable": true, "id": "T0906", "x": 630255.08, "y": 5219325.86, "order": 28, "visited": true}}, {"type": "Feature", "geometry": {"type": "Point", "coordinates": [630237.78, 5219293.88]}, "properties": {"type": "gap", "gap_m": 13.7, "vineyard_id": "V39", "row_id": "V39-R14", "reachable": true, "id": "T0918", "x": 630237.78, "y": 5219293.88, "order": null, "visited": false}}, {"type": "Feature", "geometry": {"type": "Point", "coordinates": [630178.0, 5219265.34]}, "properties": {"type": "gap", "gap_m": 12.9, "vineyard_id": "V42", "row_id": "V42-R14", "reachable": true, "id": "T0947", "x": 630178.0, "y": 5219265.34, "order": null, "visited": false}}, {"type": "Feature", "geometry": {"type": "Point", "coordinates": [630168.69, 5219258.66]}, "properties": {"type": "gap", "gap_m": 10.8, "vineyard_id": "V42", "row_id": "V42-R18", "reachable": true, "id": "T0968", "x": 630168.69, "y": 5219258.66, "order": null, "visited": false}}, {"type": "Feature", "geometry": {"type": "Point", "coordinates": [630196.7, 5219229.94]}, "properties": {"type": "gap", "gap_m": 10.2, "vineyard_id": "V42", "row_id": "V42-R20", "reachable": true, "id": "T0976", "x": 630196.7, "y": 5219229.94, "order": null, "visited": false}}]}