{"type": "FeatureCollection", "crs": {"type": "name", "properties": {"name": "urn:ogc:def:crs:EPSG::32635"}}, "features": [{"type": "Feature", "properties": {"length_m": 22441.6, "mode": "inspector", "start": [629504.7, 5220250.75], "custom_start": false, "target_types": "gap,waste", "targets_total": 573, "targets_visited": 573, "outside_share": 0.014, "row_walls": true, "minutes_at_4kmh": 336.6}, "geometry": {"type": "LineString", "coordinates": [[629504.7, 5220250.75], [629504.75, 5220250.65], [629509.75, 5220236.65], [629517.75, 5220229.15], [629518.75, 5220226.15], [629518.25, 5220224.15], [629517.25, 5220223.15], [629523.25, 5220219.15], [629523.75, 5220219.65], [629529.75, 5220213.65], [629523.75, 5220219.65], [629523.25, 5220219.15], [629523.75, 5220217.15], [629525.75, 5220215.15], [629528.75, 5220208.15], [629529.75, 5220207.15], [629530.75, 5220205.65], [629530.75, 5220204.65], [629530.25, 5220204.65], [629529.75, 5220204.15], [629529.25, 5220204.65], [629528.75, 5220205.15], [629518.25, 5220218.15], [629517.75, 5220218.65], [629521.25, 5220215.65], [629521.75, 5220213.65], [629523.25, 5220211.65], [629523.75, 5220210.65], [629524.75, 5220209.65], [629528.75, 5220205.15], [629529.25, 5220204.65], [629529.75, 5220204.15], [629530.25, 5220203.65], [629530.75, 5220204.15], [629531.75, 5220203.15], [629533.25, 5220202.15], [629534.25, 5220201.15], [629535.25, 5220199.65], [629535.75, 5220198.15], [629557.75, 5220169.65], [629559.25, 5220167.65], [629560.25, 5220165.15], [629563.75, 5220157.65], [629572.75, 5220147.65], [629574.75, 5220145.65], [629575.25, 5220144.15], [629576.25, 5220143.15], [629577.25, 5220142.65], [629577.25, 5220144.15], [629575.75, 5220147.15], [629563.75, 5220163.65], [629562.75, 5220166.15], [629566.25, 5220166.65], [629568.25, 5220160.65], [629569.25, 5220159.65], [629578.25, 5220147.65], [629583.25, 5220140.65], [629586.75, 5220136.15], [629588.25, 5220134.15], [629588.75, 5220133.15], [629590.25, 5220131.65], [629600.75, 5220120.15], [629608.25, 5220108.65], [629616.25, 5220098.15], [629621.25, 5220091.65], [629628.75, 5220081.65], [629629.25, 5220080.15], [629628.75, 5220079.65], [629625.75, 5220079.15], [629625.75, 5220078.15], [629626.75, 5220077.15], [629623.75, 5220078.15], [629623.25, 5220077.65], [629624.25, 5220076.15], [629623.25, 5220077.65], [629623.75, 5220078.15], [629626.75, 5220079.65], [629627.75, 5220078.65], [629634.25, 5220070.15], [629638.75, 5220064.15], [629639.75, 5220062.65], [629637.25, 5220066.15], [629635.75, 5220067.65], [629635.25, 5220069.65], [629634.25, 5220071.15], [629629.75, 5220077.15], [629629.75, 5220077.65], [629628.25, 5220079.15], [629629.25, 5220080.15], [629633.25, 5220077.65], [629631.75, 5220079.15], [629631.75, 5220080.65], [629635.75, 5220081.15], [629637.75, 5220079.15], [629644.25, 5220070.65], [629654.25, 5220058.65], [629654.75, 5220058.15], [629655.25, 5220057.65], [629654.75, 5220058.15], [629654.25, 5220058.65], [629650.75, 5220063.15], [629642.75, 5220073.65], [629638.25, 5220079.65], [629638.25, 5220080.15], [629637.25, 5220081.15], [629637.75, 5220082.15], [629640.75, 5220081.65], [629640.25, 5220082.15], [629641.25, 5220083.15], [629644.25, 5220083.65], [629644.75, 5220083.15], [629646.25, 5220084.15], [629649.75, 5220085.15], [629652.25, 5220085.65], [629655.25, 5220086.65], [629647.75, 5220086.15], [629646.25, 5220087.65], [629623.25, 5220118.15], [629618.75, 5220124.15], [629618.75, 5220124.65], [629619.25, 5220122.65], [629622.75, 5220117.65], [629624.75, 5220115.15], [629632.75, 5220104.65], [629637.25, 5220098.65], [629637.25, 5220098.15], [629638.75, 5220096.65], [629640.75, 5220094.15], [629641.75, 5220092.65], [629645.25, 5220087.65], [629646.25, 5220086.15], [629646.25, 5220085.65], [629645.75, 5220085.15], [629639.25, 5220083.65], [629637.25, 5220085.65], [629622.75, 5220103.15], [629622.25, 5220103.65], [629621.75, 5220104.15], [629621.25, 5220104.65], [629620.75, 5220105.15], [629621.25, 5220104.65], [629621.75, 5220104.15], [629622.25, 5220103.65], [629622.75, 5220103.15], [629629.75, 5220094.15], [629637.75, 5220083.65], [629637.75, 5220083.15], [629637.25, 5220082.65], [629635.75, 5220083.15], [629634.75, 5220084.15], [629624.75, 5220097.15], [629622.75, 5220099.65], [629621.75, 5220101.15], [629619.75, 5220103.65], [629608.75, 5220118.15], [629605.75, 5220122.15], [629603.25, 5220125.65], [629601.75, 5220127.65], [629601.25, 5220128.65], [629600.25, 5220129.65], [629598.25, 5220132.15], [629594.75, 5220136.65], [629589.75, 5220143.15], [629571.75, 5220165.65], [629570.75, 5220166.65], [629568.75, 5220168.15], [629571.25, 5220169.15], [629574.25, 5220169.65], [629574.75, 5220171.15], [629555.75, 5220196.65], [629555.25, 5220198.15], [629554.75, 5220199.15], [629553.75, 5220200.15], [629549.25, 5220206.15], [629548.25, 5220207.65], [629546.25, 5220208.65], [629544.75, 5220212.15], [629541.25, 5220216.65], [629533.75, 5220226.65], [629533.25, 5220227.65], [629532.25, 5220228.65], [629523.25, 5220240.65], [629522.75, 5220241.65], [629521.75, 5220242.65], [629520.25, 5220244.65], [629519.25, 5220246.15], [629515.75, 5220249.15], [629515.25, 5220249.65], [629514.75, 5220251.15], [629516.75, 5220252.15], [629517.75, 5220251.15], [629519.25, 5220249.15], [629519.75, 5220248.65], [629528.75, 5220236.65], [629529.25, 5220235.65], [629530.25, 5220234.65], [629548.25, 5220211.15], [629551.75, 5220206.15], [629556.25, 5220200.15], [629561.25, 5220194.15], [629570.75, 5220181.15], [629576.75, 5220173.15], [629577.75, 5220171.65], [629577.75, 5220166.65], [629585.25, 5220159.15], [629583.75, 5220160.65], [629581.75, 5220163.15], [629577.75, 5220168.65], [629578.25, 5220169.65], [629580.75, 5220168.15], [629584.75, 5220164.15], [629586.25, 5220160.65], [629598.75, 5220144.15], [629603.75, 5220137.65], [629609.75, 5220129.65], [629609.75, 5220129.15], [629609.25, 5220131.15], [629598.25, 5220146.15], [629592.25, 5220153.65], [629588.75, 5220158.65], [629585.25, 5220163.15], [629580.75, 5220169.15], [629580.25, 5220171.65], [629580.25, 5220173.15], [629574.25, 5220182.15], [629562.75, 5220197.15], [629561.75, 5220198.65], [629554.75, 5220207.65], [629554.25, 5220208.15], [629552.75, 5220210.65], [629552.25, 5220211.65], [629551.25, 5220212.65], [629548.25, 5220216.65], [629547.75, 5220217.65], [629546.75, 5220218.65], [629539.25, 5220228.65], [629538.75, 5220229.65], [629537.75, 5220230.65], [629531.75, 5220238.65], [629530.75, 5220240.15], [629532.75, 5220235.65], [629533.25, 5220234.65], [629534.25, 5220233.65], [629541.75, 5220223.65], [629542.75, 5220222.15], [629543.25, 5220221.65], [629559.75, 5220200.15], [629560.75, 5220198.65], [629574.75, 5220180.65], [629580.75, 5220173.65], [629581.75, 5220172.65], [629582.75, 5220172.65], [629583.25, 5220174.15], [629581.25, 5220177.65], [629574.75, 5220186.15], [629565.25, 5220198.65], [629552.25, 5220214.65], [629551.25, 5220215.65], [629548.25, 5220220.65], [629544.75, 5220224.15], [629544.25, 5220226.15], [629540.75, 5220231.15], [629529.25, 5220245.15], [629528.75, 5220245.65], [629529.25, 5220245.15], [629531.25, 5220242.65], [629582.75, 5220175.65], [629584.75, 5220173.65], [629585.75, 5220173.15], [629585.25, 5220177.15], [629584.25, 5220178.15], [629579.25, 5220184.65], [629571.25, 5220195.15], [629569.75, 5220197.15], [629565.75, 5220202.65], [629557.25, 5220212.65], [629555.75, 5220214.15], [629554.75, 5220217.15], [629554.25, 5220217.65], [629551.75, 5220221.65], [629559.75, 5220209.15], [629560.25, 5220208.65], [629565.25, 5220202.15], [629585.75, 5220176.15], [629587.25, 5220174.65], [629588.75, 5220174.15], [629588.75, 5220175.65], [629580.75, 5220187.15], [629572.25, 5220197.15], [629571.25, 5220198.15], [629570.75, 5220200.15], [629567.25, 5220205.15], [629560.25, 5220214.15], [629554.75, 5220221.15], [629549.75, 5220228.15], [629541.25, 5220238.65], [629540.25, 5220240.65], [629540.25, 5220241.15], [629540.75, 5220239.15], [629541.75, 5220238.15], [629542.75, 5220236.65], [629568.75, 5220203.15], [629569.75, 5220202.15], [629571.25, 5220198.65], [629572.25, 5220197.15], [629575.75, 5220192.65], [629589.25, 5220176.15], [629590.25, 5220175.15], [629591.25, 5220175.15], [629591.75, 5220176.65], [629588.25, 5220181.65], [629584.75, 5220186.15], [629574.75, 5220198.65], [629574.25, 5220199.15], [629568.25, 5220208.15], [629566.25, 5220210.65], [629560.25, 5220217.15], [629559.25, 5220218.15], [629561.25, 5220216.15], [629564.75, 5220211.65], [629571.75, 5220202.65], [629591.25, 5220177.65], [629592.75, 5220176.15], [629593.75, 5220176.15], [629596.75, 5220176.65], [629596.75, 5220178.15], [629595.75, 5220179.15], [629586.75, 5220193.15], [629585.75, 5220194.15], [629579.75, 5220202.15], [629575.25, 5220209.65], [629571.25, 5220214.65], [629570.25, 5220216.15], [629569.25, 5220217.15], [629567.25, 5220219.65], [629567.25, 5220220.15], [629565.25, 5220222.15], [629557.25, 5220232.15], [629554.75, 5220235.15], [629553.75, 5220237.15], [629552.75, 5220238.15], [629546.75, 5220246.15], [629546.25, 5220247.15], [629554.25, 5220234.65], [629554.75, 5220234.15], [629556.25, 5220232.15], [629558.75, 5220228.65], [629562.25, 5220224.15], [629567.25, 5220217.65], [629578.25, 5220203.65], [629579.25, 5220202.15], [629580.75, 5220200.15], [629581.75, 5220198.65], [629598.25, 5220177.65], [629599.25, 5220177.65], [629599.75, 5220175.65], [629625.25, 5220140.65], [629640.25, 5220124.15], [629643.75, 5220116.65], [629647.25, 5220112.15], [629652.25, 5220105.65], [629658.75, 5220098.65], [629659.25, 5220098.15], [629659.75, 5220096.15], [629663.75, 5220091.65], [629664.75, 5220090.65], [629665.75, 5220090.65], [629670.75, 5220091.15], [629674.25, 5220092.65], [629686.25, 5220095.65], [629691.75, 5220096.15], [629695.25, 5220096.65], [629695.75, 5220097.15], [629698.25, 5220099.65], [629697.25, 5220100.65], [629699.25, 5220099.65], [629700.75, 5220100.15], [629700.75, 5220100.65], [629699.75, 5220101.65], [629700.75, 5220100.65], [629699.75, 5220099.65], [629693.75, 5220098.15], [629693.25, 5220098.65], [629689.75, 5220097.15], [629675.75, 5220092.15], [629674.75, 5220090.65], [629689.75, 5220067.65], [629690.25, 5220067.15], [629699.25, 5220055.15], [629695.75, 5220062.65], [629672.75, 5220090.15], [629672.25, 5220090.65], [629662.75, 5220089.65], [629660.75, 5220088.65], [629662.25, 5220088.15], [629662.75, 5220087.65], [629692.75, 5220048.65], [629692.75, 5220048.15], [629694.25, 5220047.65], [629694.75, 5220046.65], [629697.25, 5220044.15], [629701.25, 5220043.15], [629726.25, 5220018.15], [629727.75, 5220018.65], [629728.75, 5220017.65], [629735.75, 5220010.15], [629736.25, 5220009.65], [629743.25, 5220010.65], [629743.75, 5220012.15], [629732.25, 5220027.15], [629730.75, 5220028.65], [629732.25, 5220027.15], [629735.75, 5220022.65], [629744.25, 5220012.65], [629745.25, 5220011.65], [629767.75, 5220016.15], [629769.25, 5220017.65], [629771.75, 5220016.15], [629772.75, 5220014.65], [629774.25, 5220012.65], [629774.75, 5220011.15], [629918.25, 5219839.65], [629920.25, 5219837.15], [629921.75, 5219835.15], [629922.75, 5219833.65], [629925.75, 5219830.15], [629927.75, 5219827.65], [629940.75, 5219811.15], [629944.75, 5219806.15], [629948.25, 5219801.65], [629952.25, 5219796.65], [629967.25, 5219780.15], [629974.25, 5219771.65], [629974.25, 5219771.15], [629979.75, 5219764.65], [629983.25, 5219760.15], [629983.75, 5219759.15], [629985.25, 5219757.65], [629987.25, 5219755.15], [629993.75, 5219748.15], [629995.25, 5219748.15], [629994.75, 5219748.15], [629994.25, 5219747.65], [629994.75, 5219745.15], [629995.75, 5219744.15], [629995.75, 5219742.65], [629995.25, 5219742.15], [629969.25, 5219714.65], [629906.75, 5219664.15], [629898.75, 5219661.15], [629891.25, 5219664.15], [629890.75, 5219664.15], [629890.25, 5219663.65], [629889.75, 5219663.15], [629889.25, 5219662.65], [629888.75, 5219662.15], [629888.25, 5219661.65], [629887.75, 5219661.15], [629881.25, 5219654.65], [629874.75, 5219647.65], [629868.75, 5219641.65], [629877.25, 5219649.65], [629886.75, 5219660.15], [629890.75, 5219664.15], [629891.25, 5219664.15], [629891.75, 5219663.65], [629891.25, 5219661.15], [629874.25, 5219644.15], [629873.75, 5219643.15], [629873.25, 5219642.65], [629872.75, 5219642.15], [629872.25, 5219641.65], [629871.75, 5219641.15], [629871.25, 5219640.65], [629871.75, 5219641.15], [629872.25, 5219641.65], [629872.75, 5219642.15], [629873.25, 5219642.65], [629873.75, 5219643.15], [629888.75, 5219658.65], [629892.75, 5219662.65], [629902.75, 5219659.15], [629969.75, 5219602.15], [629973.75, 5219599.15], [629974.75, 5219599.15], [629977.75, 5219602.15], [629980.75, 5219605.65], [629989.75, 5219615.15], [629990.25, 5219615.65], [629993.75, 5219620.15], [629996.25, 5219622.65], [629996.25, 5219624.15], [629989.75, 5219615.15], [629988.75, 5219614.15], [629976.25, 5219600.15], [629975.75, 5219598.15], [629976.25, 5219597.65], [629978.25, 5219595.65], [629978.75, 5219595.65], [629980.75, 5219597.65], [629989.75, 5219608.15], [629995.25, 5219614.65], [630001.25, 5219621.65], [630003.75, 5219624.65], [630006.75, 5219628.15], [630006.75, 5219628.65], [630006.25, 5219626.65], [629997.25, 5219616.15], [629985.75, 5219602.65], [629982.75, 5219599.15], [629980.25, 5219596.15], [629981.75, 5219595.15], [629982.25, 5219595.65], [629983.25, 5219596.65], [629986.25, 5219600.15], [629989.25, 5219603.65], [629994.75, 5219610.15], [629997.75, 5219613.65], [630005.25, 5219621.65], [630005.75, 5219622.15], [630005.25, 5219621.65], [630004.25, 5219620.65], [630001.25, 5219617.15], [629989.25, 5219603.15], [629982.25, 5219595.65], [629981.75, 5219595.15], [629976.75, 5219596.15], [629973.25, 5219599.65], [629975.25, 5219603.15], [629978.25, 5219606.65], [629980.75, 5219609.65], [629983.75, 5219613.15], [629986.25, 5219616.15], [629989.25, 5219619.65], [629998.75, 5219629.65], [630000.25, 5219631.15], [629997.75, 5219628.65], [629994.75, 5219625.15], [629982.75, 5219611.15], [629974.25, 5219602.15], [629972.75, 5219600.65], [629969.75, 5219601.65], [629902.75, 5219660.15], [629972.25, 5219714.65], [630030.75, 5219650.65], [630066.25, 5219620.15], [630067.25, 5219620.15], [630067.75, 5219619.65], [630072.25, 5219615.15], [630200.75, 5219507.65], [630216.75, 5219565.15], [630227.75, 5219576.15], [630242.75, 5219571.15], [630244.75, 5219570.65], [630261.25, 5219601.65], [630291.75, 5219642.65], [630310.75, 5219661.65], [630312.75, 5219652.65], [630327.75, 5219595.15], [630344.75, 5219541.65], [630351.25, 5219471.15], [630348.25, 5219468.15], [630347.75, 5219468.15], [630345.25, 5219465.65], [630330.25, 5219453.15], [630327.75, 5219451.15], [630336.25, 5219457.65], [630342.25, 5219462.65], [630349.25, 5219469.15], [630352.75, 5219471.15], [630353.25, 5219470.65], [630353.25, 5219469.65], [630350.25, 5219466.65], [630348.75, 5219465.65], [630351.75, 5219466.15], [630352.25, 5219465.65], [630353.75, 5219460.65], [630350.75, 5219456.65], [630343.75, 5219451.65], [630335.75, 5219444.15], [630333.25, 5219443.15], [630331.75, 5219441.65], [630328.75, 5219439.15], [630328.25, 5219439.15], [630330.25, 5219439.65], [630331.25, 5219440.65], [630331.75, 5219440.65], [630333.75, 5219442.65], [630336.75, 5219445.15], [630339.75, 5219447.65], [630342.75, 5219450.15], [630350.75, 5219457.65], [630353.75, 5219460.65], [630353.25, 5219462.15], [630351.75, 5219463.65], [630349.75, 5219463.15], [630347.25, 5219460.65], [630338.25, 5219453.15], [630333.25, 5219448.65], [630332.75, 5219448.15], [630329.25, 5219445.65], [630324.75, 5219441.65], [630323.25, 5219440.15], [630316.75, 5219435.65], [630314.75, 5219435.15], [630310.25, 5219430.65], [630308.75, 5219431.15], [630307.75, 5219430.15], [630306.25, 5219428.15], [630304.25, 5219425.15], [630302.75, 5219423.15], [630300.75, 5219420.15], [630299.25, 5219418.15], [630298.25, 5219416.65], [630296.75, 5219414.65], [630294.75, 5219411.65], [630293.25, 5219409.65], [630291.25, 5219406.65], [630289.75, 5219404.65], [630287.75, 5219401.65], [630286.25, 5219399.65], [630284.25, 5219396.65], [630282.75, 5219394.65], [630280.75, 5219391.65], [630279.25, 5219389.65], [630277.25, 5219386.65], [630275.75, 5219384.65], [630273.75, 5219381.65], [630272.25, 5219379.65], [630271.75, 5219379.15], [630260.25, 5219360.15], [630258.75, 5219357.65], [630258.75, 5219357.15], [630257.75, 5219356.15], [630256.75, 5219354.65], [630239.25, 5219328.15], [630238.25, 5219327.15], [630237.25, 5219323.65], [630234.25, 5219320.65], [630232.75, 5219317.15], [630229.75, 5219312.65], [630229.25, 5219311.15], [630227.75, 5219310.65], [630227.25, 5219308.65], [630224.25, 5219304.15], [630222.75, 5219301.65], [630222.75, 5219301.15], [630221.75, 5219300.15], [630221.25, 5219299.15], [630220.75, 5219298.65], [630214.75, 5219289.65], [630218.25, 5219286.65], [630221.25, 5219289.65], [630222.25, 5219292.65], [630222.75, 5219293.15], [630232.25, 5219308.15], [630235.25, 5219312.65], [630245.25, 5219328.15], [630250.25, 5219336.15], [630252.25, 5219339.15], [630252.25, 5219339.65], [630253.25, 5219340.65], [630257.25, 5219346.15], [630258.25, 5219347.15], [630258.75, 5219349.15], [630263.75, 5219356.15], [630264.25, 5219356.65], [630263.75, 5219357.65], [630263.25, 5219355.65], [630250.25, 5219335.15], [630248.25, 5219331.65], [630247.75, 5219331.15], [630244.75, 5219326.65], [630242.25, 5219322.65], [630242.25, 5219322.15], [630241.25, 5219321.15], [630239.25, 5219318.15], [630229.25, 5219302.65], [630221.25, 5219290.15], [630221.25, 5219289.65], [630220.75, 5219289.15], [630218.25, 5219286.65], [630220.75, 5219284.65], [630232.75, 5219304.15], [630232.75, 5219304.65], [630233.25, 5219305.15], [630237.25, 5219311.15], [630243.75, 5219320.15], [630244.25, 5219320.65], [630248.25, 5219328.15], [630249.25, 5219329.65], [630253.75, 5219335.65], [630254.25, 5219336.15], [630254.75, 5219338.15], [630257.25, 5219341.15], [630257.75, 5219341.65], [630258.25, 5219343.65], [630259.75, 5219346.15], [630265.25, 5219353.65], [630265.75, 5219354.15], [630266.25, 5219356.15], [630270.25, 5219361.65], [630271.75, 5219363.15], [630272.25, 5219363.15], [630272.75, 5219362.65], [630279.25, 5219353.15], [630271.25, 5219344.65], [630270.25, 5219341.15], [630269.25, 5219340.15], [630266.25, 5219335.65], [630261.75, 5219329.65], [630260.75, 5219328.15], [630247.25, 5219305.15], [630244.25, 5219300.65], [630236.25, 5219288.15], [630231.25, 5219280.15], [630229.25, 5219277.15], [630230.25, 5219276.15], [630252.75, 5219255.65], [630252.25, 5219255.15], [630251.25, 5219253.65], [630251.25, 5219252.65], [630251.75, 5219252.15], [630254.25, 5219249.65], [630261.25, 5219244.65], [630261.75, 5219245.15], [630263.25, 5219246.65], [630272.75, 5219238.65], [630272.25, 5219236.65], [630270.25, 5219234.65], [630267.75, 5219234.65], [630266.75, 5219233.65], [630265.25, 5219233.15], [630264.25, 5219232.15], [630262.75, 5219231.65], [630261.75, 5219230.65], [630260.25, 5219230.15], [630259.25, 5219228.65], [630257.75, 5219226.65], [630256.25, 5219226.65], [630255.25, 5219225.65], [630254.75, 5219225.65], [630247.25, 5219229.15], [630232.75, 5219227.15], [630232.25, 5219226.65], [630231.75, 5219226.15], [630228.25, 5219227.15], [630227.25, 5219228.15], [630224.75, 5219230.15], [630215.75, 5219237.15], [630214.75, 5219237.65], [630213.75, 5219238.65], [630208.75, 5219242.65], [630207.75, 5219243.15], [630206.75, 5219244.15], [630204.25, 5219246.15], [630203.25, 5219246.65], [630202.25, 5219247.65], [630199.75, 5219249.65], [630192.25, 5219256.65], [630191.75, 5219257.15], [630189.75, 5219257.15], [630193.75, 5219254.65], [630197.25, 5219251.15], [630199.25, 5219250.65], [630204.75, 5219246.65], [630213.75, 5219239.65], [630216.25, 5219237.65], [630220.75, 5219234.15], [630223.25, 5219232.15], [630229.75, 5219227.15], [630231.25, 5219226.15], [630231.75, 5219226.15], [630232.25, 5219226.65], [630232.75, 5219227.15], [630235.75, 5219227.65], [630232.25, 5219231.15], [630227.25, 5219235.15], [630222.75, 5219238.65], [630219.75, 5219241.15], [630215.25, 5219244.65], [630212.75, 5219246.65], [630208.25, 5219250.15], [630205.75, 5219252.15], [630201.25, 5219255.65], [630198.75, 5219257.65], [630190.25, 5219265.15], [630189.25, 5219266.15], [630190.25, 5219265.15], [630199.25, 5219258.15], [630201.75, 5219256.15], [630215.25, 5219245.65], [630217.75, 5219243.65], [630222.25, 5219240.15], [630236.25, 5219229.65], [630237.25, 5219229.15], [630238.25, 5219230.15], [630236.25, 5219232.15], [630221.75, 5219243.15], [630213.75, 5219250.15], [630211.75, 5219252.15], [630209.75, 5219252.65], [630205.75, 5219256.65], [630206.75, 5219255.65], [630211.25, 5219252.15], [630213.75, 5219250.15], [630218.25, 5219246.65], [630237.75, 5219231.65], [630239.25, 5219231.15], [630239.75, 5219231.15], [630240.25, 5219231.65], [630237.75, 5219234.15], [630235.25, 5219236.15], [630226.25, 5219243.15], [630212.75, 5219254.65], [630210.75, 5219256.65], [630208.75, 5219257.15], [630198.75, 5219265.65], [630198.25, 5219266.15], [630192.75, 5219269.15], [630187.75, 5219274.65], [630185.75, 5219275.15], [630178.25, 5219281.65], [630177.25, 5219282.65], [630173.25, 5219285.15], [630169.75, 5219288.65], [630168.25, 5219289.15], [630159.75, 5219278.15], [630161.75, 5219276.15], [630172.75, 5219268.15], [630177.25, 5219264.65], [630177.75, 5219264.65], [630179.25, 5219263.15], [630184.25, 5219259.15], [630188.75, 5219255.65], [630193.25, 5219252.15], [630193.75, 5219252.15], [630191.75, 5219252.65], [630185.25, 5219257.65], [630180.75, 5219261.15], [630168.25, 5219271.15], [630163.75, 5219274.65], [630161.25, 5219276.65], [630159.75, 5219278.15], [630158.75, 5219276.65], [630158.75, 5219276.15], [630159.25, 5219275.65], [630161.75, 5219273.65], [630171.75, 5219265.65], [630176.25, 5219262.15], [630178.75, 5219260.15], [630183.25, 5219256.65], [630184.75, 5219255.65], [630185.75, 5219254.65], [630190.25, 5219251.15], [630190.75, 5219251.15], [630192.75, 5219249.15], [630201.25, 5219241.65], [630201.75, 5219241.15], [630202.25, 5219242.15], [630200.25, 5219242.65], [630198.75, 5219243.65], [630194.25, 5219247.15], [630191.75, 5219249.15], [630180.75, 5219258.65], [630179.75, 5219259.65], [630178.75, 5219260.15], [630176.75, 5219262.15], [630175.25, 5219262.65], [630172.75, 5219265.15], [630171.75, 5219265.65], [630168.75, 5219267.65], [630167.25, 5219269.65], [630163.75, 5219271.15], [630158.75, 5219275.15], [630155.75, 5219277.65], [630151.75, 5219280.65], [630150.75, 5219280.65], [630150.25, 5219280.15], [630150.75, 5219278.15], [630152.25, 5219276.65], [630153.75, 5219275.65], [630154.25, 5219275.15], [630151.25, 5219269.65], [630150.75, 5219269.15], [630152.75, 5219267.15], [630157.75, 5219263.15], [630160.75, 5219260.65], [630173.75, 5219249.15], [630174.75, 5219248.15], [630185.75, 5219240.15], [630188.25, 5219237.65], [630195.75, 5219232.15], [630197.25, 5219230.65], [630213.75, 5219218.65], [630219.75, 5219212.65], [630217.25, 5219211.65], [630206.75, 5219219.65], [630199.25, 5219225.65], [630197.75, 5219226.65], [630187.75, 5219234.65], [630186.75, 5219235.15], [630179.75, 5219242.15], [630174.75, 5219245.15], [630166.75, 5219251.65], [630164.25, 5219254.15], [630161.75, 5219256.15], [630150.25, 5219267.65], [630150.75, 5219269.15], [630151.25, 5219269.65], [630154.25, 5219273.15], [630155.25, 5219274.15], [630162.25, 5219269.65], [630178.25, 5219257.15], [630178.75, 5219257.15], [630180.75, 5219255.15], [630185.25, 5219251.65], [630186.75, 5219250.65], [630177.25, 5219257.15], [630169.75, 5219263.15], [630166.25, 5219265.65], [630163.75, 5219267.65], [630161.25, 5219269.65], [630158.75, 5219271.65], [630156.25, 5219273.65], [630153.75, 5219275.65], [630152.25, 5219276.65], [630150.25, 5219279.65], [630150.25, 5219280.15], [630150.75, 5219280.65], [630153.25, 5219280.15], [630156.75, 5219277.65], [630169.75, 5219290.65], [630178.25, 5219285.15], [630179.25, 5219284.15], [630183.75, 5219280.65], [630190.75, 5219275.15], [630195.25, 5219271.65], [630199.75, 5219268.15], [630200.25, 5219268.15], [630198.25, 5219268.65], [630191.75, 5219273.65], [630178.25, 5219284.15], [630175.75, 5219286.15], [630169.25, 5219292.15], [630168.75, 5219292.65], [630169.75, 5219293.65], [630171.75, 5219293.15], [630175.75, 5219289.15], [630178.25, 5219287.65], [630180.75, 5219285.15], [630182.75, 5219284.65], [630184.25, 5219283.65], [630186.75, 5219281.65], [630194.75, 5219274.65], [630196.25, 5219273.15], [630204.75, 5219267.65], [630205.25, 5219267.15], [630207.75, 5219265.15], [630216.75, 5219258.15], [630224.25, 5219252.15], [630237.75, 5219241.65], [630244.25, 5219236.65], [630253.25, 5219229.65], [630257.25, 5219226.65], [630257.75, 5219226.65], [630258.75, 5219227.65], [630261.25, 5219227.65], [630262.25, 5219228.65], [630263.75, 5219229.15], [630264.75, 5219230.15], [630266.75, 5219230.15], [630272.75, 5219237.15], [630272.25, 5219239.65], [630263.25, 5219246.65], [630261.25, 5219244.65], [630260.25, 5219245.65], [630257.75, 5219246.15], [630257.25, 5219246.65], [630251.25, 5219252.65], [630251.25, 5219254.15], [630252.75, 5219255.65], [630229.25, 5219277.15], [630231.75, 5219282.65], [630231.75, 5219283.15], [630232.75, 5219284.15], [630234.75, 5219287.15], [630238.25, 5219292.65], [630238.25, 5219293.15], [630238.75, 5219293.65], [630241.75, 5219298.15], [630249.75, 5219310.65], [630271.25, 5219344.15], [630271.75, 5219345.15], [630272.25, 5219345.65], [630275.75, 5219351.15], [630275.75, 5219351.65], [630275.25, 5219352.15], [630273.75, 5219352.15], [630271.25, 5219349.65], [630270.75, 5219347.65], [630268.25, 5219345.15], [630267.75, 5219343.15], [630265.25, 5219338.65], [630265.25, 5219338.15], [630264.25, 5219337.15], [630263.25, 5219335.65], [630262.25, 5219334.15], [630258.25, 5219329.15], [630257.25, 5219328.15], [630256.25, 5219324.65], [630249.75, 5219315.65], [630248.75, 5219314.65], [630248.25, 5219312.65], [630245.75, 5219308.15], [630245.25, 5219307.15], [630244.75, 5219306.65], [630241.75, 5219303.15], [630241.25, 5219302.65], [630240.75, 5219302.15], [630241.25, 5219302.65], [630241.75, 5219303.15], [630243.75, 5219306.15], [630244.25, 5219307.65], [630245.25, 5219308.65], [630246.25, 5219310.15], [630249.25, 5219313.65], [630250.25, 5219314.65], [630250.75, 5219316.65], [630255.25, 5219324.15], [630256.75, 5219326.65], [630257.75, 5219328.65], [630261.25, 5219332.15], [630270.25, 5219347.65], [630271.25, 5219349.15], [630271.75, 5219350.15], [630272.25, 5219350.65], [630276.25, 5219356.15], [630274.75, 5219357.65], [630271.25, 5219354.65], [630259.75, 5219335.15], [630257.75, 5219332.15], [630244.75, 5219311.65], [630227.75, 5219286.15], [630227.25, 5219285.65], [630226.75, 5219285.15], [630227.25, 5219285.65], [630227.75, 5219286.15], [630228.75, 5219287.65], [630236.75, 5219300.15], [630244.75, 5219312.65], [630253.75, 5219325.65], [630254.75, 5219326.65], [630255.25, 5219328.65], [630264.75, 5219344.15], [630268.25, 5219349.65], [630268.25, 5219350.15], [630269.25, 5219351.15], [630271.75, 5219355.15], [630271.75, 5219355.65], [630274.25, 5219358.15], [630271.75, 5219360.15], [630270.25, 5219356.65], [630258.25, 5219337.65], [630255.25, 5219333.15], [630238.75, 5219308.65], [630238.25, 5219308.15], [630231.75, 5219297.65], [630230.75, 5219296.65], [630230.25, 5219294.65], [630226.25, 5219289.15], [630225.25, 5219288.15], [630224.75, 5219286.15], [630222.25, 5219283.15], [630221.25, 5219282.15], [630220.75, 5219282.15], [630212.75, 5219288.65], [630207.25, 5219283.65], [630204.75, 5219284.15], [630201.25, 5219287.65], [630207.25, 5219298.65], [630207.25, 5219299.15], [630208.25, 5219300.15], [630212.75, 5219305.15], [630213.25, 5219307.15], [630214.25, 5219310.15], [630215.25, 5219311.15], [630217.25, 5219314.15], [630224.75, 5219324.65], [630225.75, 5219325.65], [630226.25, 5219327.65], [630240.25, 5219350.65], [630242.25, 5219353.65], [630249.25, 5219364.65], [630250.75, 5219367.15], [630250.75, 5219367.65], [630251.75, 5219368.65], [630252.75, 5219370.15], [630257.75, 5219375.15], [630258.25, 5219375.15], [630258.75, 5219374.65], [630257.25, 5219370.15], [630253.25, 5219366.15], [630252.75, 5219364.15], [630246.25, 5219352.65], [630238.25, 5219340.15], [630231.25, 5219329.15], [630230.25, 5219327.65], [630229.25, 5219326.15], [630229.25, 5219325.65], [630229.75, 5219327.65], [630248.25, 5219355.65], [630248.75, 5219356.15], [630259.25, 5219374.65], [630263.25, 5219379.15], [630271.75, 5219392.65], [630272.75, 5219393.65], [630277.25, 5219401.15], [630278.75, 5219403.15], [630280.75, 5219406.15], [630282.25, 5219408.15], [630284.25, 5219411.15], [630285.75, 5219413.15], [630287.75, 5219416.15], [630289.25, 5219418.15], [630291.25, 5219421.15], [630292.75, 5219423.15], [630293.75, 5219424.65], [630296.75, 5219428.15], [630297.75, 5219429.15], [630298.25, 5219430.15], [630301.75, 5219435.15], [630302.75, 5219436.15], [630294.25, 5219444.15], [630270.25, 5219460.65], [630226.75, 5219485.65], [630067.75, 5219619.15], [630067.75, 5219619.65], [630067.25, 5219620.15], [630032.75, 5219648.65], [630011.25, 5219671.65], [629976.75, 5219711.15], [629973.75, 5219717.15], [629995.25, 5219742.15], [629996.25, 5219743.15], [629997.75, 5219744.15], [629999.75, 5219746.65], [630001.25, 5219748.65], [630003.25, 5219751.15], [630004.75, 5219754.15], [630006.25, 5219753.65], [630006.75, 5219753.15], [630010.25, 5219748.65], [630010.25, 5219748.15], [630009.25, 5219752.15], [630007.75, 5219753.65], [630006.75, 5219755.15], [630012.75, 5219762.65], [630016.75, 5219759.65], [630017.25, 5219753.15], [630018.25, 5219752.15], [630016.25, 5219760.15], [630014.25, 5219767.65], [630018.25, 5219771.15], [630018.75, 5219770.65], [630019.25, 5219768.15], [630019.25, 5219767.65], [630019.75, 5219767.15], [630022.25, 5219756.65], [630022.25, 5219755.65], [630021.75, 5219759.15], [630018.75, 5219774.15], [630020.25, 5219775.65], [630021.25, 5219773.65], [630022.25, 5219768.65], [630022.25, 5219767.65], [630022.75, 5219767.15], [630024.25, 5219760.65], [630024.25, 5219759.65], [630024.75, 5219759.15], [630026.25, 5219757.15], [630027.25, 5219747.65], [630027.75, 5219747.15], [630029.25, 5219745.65], [630028.75, 5219741.65], [630028.25, 5219750.15], [630027.75, 5219750.65], [630026.25, 5219753.15], [630025.75, 5219753.65], [630025.25, 5219757.15], [630020.75, 5219779.65], [630021.25, 5219780.15], [630022.25, 5219780.15], [630022.75, 5219779.65], [630024.75, 5219771.15], [630024.75, 5219770.15], [630025.25, 5219769.65], [630027.25, 5219761.15], [630029.75, 5219755.15], [630030.25, 5219754.65], [630030.75, 5219751.15], [630032.75, 5219743.15], [630028.25, 5219761.65], [630025.25, 5219774.15], [630023.25, 5219782.65], [630023.25, 5219784.15], [630024.25, 5219785.15], [630024.75, 5219784.65], [630028.25, 5219772.65], [630028.75, 5219772.15], [630029.25, 5219764.65], [630029.75, 5219764.15], [630033.25, 5219752.65], [630033.75, 5219749.15], [630034.75, 5219746.15], [630029.75, 5219766.65], [630027.75, 5219772.65], [630027.25, 5219773.15], [630027.25, 5219778.15], [630026.75, 5219778.65], [630024.75, 5219784.65], [630024.25, 5219785.15], [630023.25, 5219784.15], [630020.75, 5219779.65], [630016.25, 5219767.15], [630017.75, 5219765.65], [630018.75, 5219762.15], [630019.25, 5219761.65], [630019.75, 5219758.15], [630021.25, 5219747.15], [630021.25, 5219746.65], [630021.75, 5219746.15], [630023.25, 5219744.15], [630023.75, 5219743.65], [630023.25, 5219744.15], [630022.25, 5219749.15], [630022.25, 5219749.65], [630021.75, 5219750.15], [630018.75, 5219758.15], [630016.75, 5219766.65], [630016.25, 5219767.15], [630006.25, 5219757.15], [630001.75, 5219752.65], [629998.75, 5219753.65], [629997.25, 5219755.15], [629992.25, 5219756.65], [629988.75, 5219760.15], [629975.25, 5219780.65], [629966.25, 5219792.15], [629963.75, 5219795.65], [629955.25, 5219804.65], [629953.75, 5219806.15], [629952.25, 5219806.15], [629921.25, 5219837.65], [629915.75, 5219851.15], [629909.25, 5219859.15], [629907.25, 5219861.65], [629903.75, 5219866.15], [629901.75, 5219868.65], [629793.25, 5219998.65], [629790.25, 5220003.15], [629778.75, 5220014.65], [629779.25, 5220017.15], [629778.75, 5220018.15], [629779.25, 5220018.65], [629780.75, 5220018.65], [629781.25, 5220018.15], [629787.25, 5220011.15], [629788.25, 5220010.15], [629786.25, 5220011.15], [629783.25, 5220016.15], [629780.25, 5220019.15], [629778.25, 5220020.65], [629774.25, 5220019.65], [629773.75, 5220020.15], [629717.25, 5220094.65], [629713.75, 5220099.15], [629712.75, 5220100.65], [629712.25, 5220102.15], [629712.75, 5220103.65], [629711.75, 5220104.65], [629712.75, 5220103.65], [629710.75, 5220100.65], [629710.25, 5220100.15], [629708.25, 5220100.65], [629707.25, 5220101.65], [629706.25, 5220101.65], [629704.75, 5220101.15], [629702.75, 5220102.65], [629705.25, 5220101.15], [629706.75, 5220101.65], [629706.75, 5220102.15], [629705.75, 5220103.15], [629705.25, 5220105.15], [629701.75, 5220110.15], [629699.75, 5220112.65], [629686.75, 5220129.65], [629680.75, 5220137.65], [629678.75, 5220140.15], [629678.75, 5220140.65], [629677.25, 5220142.15], [629669.25, 5220152.65], [629665.75, 5220157.15], [629659.75, 5220164.65], [629652.25, 5220174.65], [629651.25, 5220176.15], [629649.25, 5220178.65], [629645.75, 5220183.15], [629642.75, 5220187.15], [629641.75, 5220188.65], [629642.75, 5220189.65], [629648.25, 5220191.65], [629650.75, 5220189.15], [629659.25, 5220178.15], [629662.75, 5220173.65], [629682.75, 5220147.65], [629683.75, 5220146.15], [629690.75, 5220137.15], [629695.75, 5220130.65], [629702.75, 5220121.65], [629707.75, 5220115.15], [629713.75, 5220107.15], [629713.75, 5220106.65], [629715.75, 5220106.15], [629714.75, 5220107.15], [629712.75, 5220109.65], [629707.75, 5220116.15], [629706.75, 5220117.65], [629701.75, 5220124.15], [629693.75, 5220134.65], [629687.25, 5220143.15], [629683.75, 5220147.65], [629678.25, 5220154.65], [629668.25, 5220167.65], [629661.25, 5220176.65], [629651.25, 5220189.65], [629650.25, 5220191.15], [629648.75, 5220193.65], [629648.25, 5220193.65], [629647.75, 5220194.15], [629644.25, 5220198.65], [629642.75, 5220200.65], [629640.75, 5220203.65], [629638.75, 5220206.15], [629628.75, 5220219.15], [629622.25, 5220227.65], [629617.25, 5220234.15], [629614.25, 5220238.15], [629613.75, 5220239.15], [629615.25, 5220235.65], [629618.75, 5220231.15], [629628.75, 5220218.15], [629635.25, 5220209.65], [629645.25, 5220196.65], [629647.25, 5220193.65], [629646.25, 5220192.65], [629643.75, 5220192.15], [629640.75, 5220191.15], [629641.25, 5220191.65], [629640.25, 5220195.15], [629639.75, 5220195.65], [629633.25, 5220204.15], [629628.25, 5220210.65], [629618.25, 5220222.15], [629617.25, 5220223.15], [629607.25, 5220238.15], [629605.25, 5220240.65], [629598.25, 5220249.65], [629580.25, 5220273.65], [629580.75, 5220274.65], [629583.25, 5220274.65], [629583.75, 5220275.65], [629586.25, 5220277.15], [629589.25, 5220277.65], [629590.25, 5220277.15], [629591.25, 5220276.15], [629597.75, 5220267.65], [629608.75, 5220253.15], [629609.25, 5220252.15], [629600.25, 5220266.15], [629599.75, 5220266.65], [629592.25, 5220276.65], [629591.75, 5220278.15], [629595.25, 5220279.65], [629597.25, 5220277.65], [629601.75, 5220272.65], [629603.25, 5220271.15], [629601.75, 5220272.65], [629597.25, 5220278.65], [629597.25, 5220280.15], [629612.75, 5220283.65], [629630.25, 5220288.15], [629632.25, 5220286.15], [629639.25, 5220278.65], [629638.25, 5220279.65], [629633.25, 5220286.15], [629632.25, 5220287.65], [629632.25, 5220288.15], [629633.25, 5220289.15], [629644.25, 5220292.65], [629647.25, 5220290.15], [629650.75, 5220284.65], [629654.25, 5220280.15], [629656.25, 5220277.65], [629658.75, 5220274.65], [629662.75, 5220269.65], [629662.75, 5220268.65], [629662.25, 5220268.15], [629661.75, 5220265.65], [629662.25, 5220268.15], [629662.75, 5220268.65], [629661.25, 5220276.15], [629645.25, 5220292.15], [629643.75, 5220292.65], [629640.75, 5220290.65], [629642.25, 5220286.15], [629643.25, 5220285.15], [629651.75, 5220275.65], [629653.25, 5220274.15], [629652.75, 5220272.65], [629656.25, 5220270.15], [629664.25, 5220257.65], [629665.25, 5220256.65], [629666.75, 5220254.65], [629667.25, 5220253.65], [629668.75, 5220252.15], [629672.25, 5220247.65], [629677.25, 5220241.15], [629688.75, 5220227.65], [629689.75, 5220226.65], [629694.25, 5220219.15], [629699.25, 5220212.65], [629700.75, 5220210.65], [629700.25, 5220209.65], [629699.25, 5220209.65], [629698.25, 5220210.65], [629691.25, 5220219.65], [629686.25, 5220226.15], [629682.75, 5220230.65], [629677.75, 5220237.15], [629672.75, 5220243.65], [629669.25, 5220248.15], [629661.75, 5220257.65], [629661.75, 5220258.15], [629663.25, 5220254.65], [629670.25, 5220247.15], [629670.75, 5220246.65], [629672.25, 5220243.15], [629678.75, 5220236.15], [629679.75, 5220235.15], [629680.25, 5220233.15], [629684.25, 5220227.65], [629694.75, 5220214.15], [629696.25, 5220212.15], [629697.25, 5220210.65], [629697.75, 5220210.15], [629697.25, 5220208.15], [629706.25, 5220194.15], [629707.25, 5220193.15], [629713.75, 5220185.15], [629717.25, 5220180.15], [629720.75, 5220175.65], [629725.75, 5220169.15], [629732.75, 5220160.15], [629733.75, 5220158.65], [629735.75, 5220156.15], [629736.25, 5220155.15], [629731.75, 5220162.65], [629726.75, 5220169.15], [629720.25, 5220177.65], [629710.25, 5220190.65], [629706.75, 5220195.15], [629698.75, 5220205.65], [629684.75, 5220223.65], [629679.75, 5220230.15], [629676.25, 5220234.65], [629674.75, 5220236.65], [629674.75, 5220237.15], [629672.75, 5220239.15], [629669.25, 5220243.65], [629660.75, 5220253.65], [629659.25, 5220255.15], [629660.75, 5220253.65], [629662.75, 5220251.15], [629666.25, 5220246.65], [629676.25, 5220233.65], [629682.75, 5220225.15], [629692.75, 5220212.15], [629694.25, 5220210.15], [629695.25, 5220208.65], [629694.75, 5220208.15], [629691.75, 5220208.65], [629692.25, 5220208.15], [629693.25, 5220202.15], [629694.25, 5220201.15], [629709.25, 5220181.65], [629710.25, 5220180.15], [629712.25, 5220177.65], [629722.25, 5220164.65], [629726.75, 5220159.15], [629730.75, 5220153.65], [629734.25, 5220149.15], [629735.25, 5220147.65], [629737.25, 5220145.15], [629742.25, 5220138.65], [629745.75, 5220134.15], [629750.75, 5220127.65], [629756.75, 5220121.15], [629757.25, 5220120.65], [629757.75, 5220118.65], [629759.75, 5220115.65], [629759.75, 5220114.65], [629754.25, 5220111.15], [629754.25, 5220110.15], [629754.75, 5220109.65], [629750.75, 5220111.65], [629750.75, 5220114.15], [629746.75, 5220118.15], [629747.75, 5220119.15], [629746.25, 5220120.65], [629741.25, 5220127.15], [629709.75, 5220168.15], [629708.25, 5220170.15], [629707.25, 5220171.65], [629702.25, 5220178.15], [629695.75, 5220186.65], [629683.25, 5220201.65], [629682.75, 5220202.15], [629679.25, 5220201.65], [629678.75, 5220201.15], [629679.25, 5220197.65], [629679.75, 5220197.15], [629681.25, 5220195.15], [629682.25, 5220193.65], [629687.25, 5220187.15], [629693.75, 5220178.65], [629698.75, 5220172.15], [629705.25, 5220163.65], [629710.25, 5220157.15], [629713.75, 5220152.65], [629726.75, 5220135.65], [629731.75, 5220129.15], [629739.75, 5220118.65], [629741.25, 5220116.65], [629741.25, 5220116.15], [629740.75, 5220118.15], [629731.25, 5220131.15], [629718.25, 5220148.15], [629714.75, 5220152.65], [629713.75, 5220154.15], [629704.25, 5220166.15], [629700.75, 5220171.15], [629690.75, 5220184.15], [629677.75, 5220199.65], [629676.75, 5220200.65], [629676.25, 5220200.65], [629675.75, 5220200.15], [629676.25, 5220197.15], [629676.75, 5220196.65], [629683.25, 5220188.15], [629707.25, 5220156.65], [629712.25, 5220150.15], [629715.75, 5220145.65], [629735.25, 5220120.15], [629738.25, 5220116.15], [629738.75, 5220115.15], [629737.25, 5220118.65], [629735.25, 5220121.15], [629715.75, 5220146.65], [629713.75, 5220149.15], [629707.25, 5220157.65], [629701.75, 5220164.65], [629700.75, 5220166.15], [629695.75, 5220172.65], [629689.25, 5220181.15], [629684.25, 5220187.65], [629675.25, 5220198.65], [629674.25, 5220199.65], [629671.75, 5220198.15], [629686.75, 5220178.65], [629693.25, 5220170.15], [629698.25, 5220163.65], [629704.75, 5220155.15], [629704.75, 5220154.65], [629706.25, 5220153.15], [629711.25, 5220147.15], [629717.75, 5220138.65], [629725.75, 5220128.15], [629732.25, 5220119.65], [629736.75, 5220113.65], [629737.25, 5220112.65], [629738.25, 5220111.65], [629739.25, 5220110.15], [629738.25, 5220109.15], [629731.25, 5220108.15], [629730.75, 5220108.65], [629725.75, 5220115.15], [629720.75, 5220121.65], [629714.25, 5220130.15], [629707.75, 5220138.65], [629705.75, 5220141.15], [629702.25, 5220145.65], [629697.25, 5220152.15], [629690.75, 5220160.65], [629685.75, 5220167.15], [629680.75, 5220173.15], [629680.25, 5220173.65], [629680.75, 5220173.15], [629684.25, 5220168.65], [629685.75, 5220166.65], [629685.75, 5220166.15], [629687.75, 5220164.15], [629690.75, 5220160.65], [629692.75, 5220158.65], [629693.25, 5220156.65], [629694.25, 5220155.65], [629696.25, 5220153.15], [629699.75, 5220148.65], [629709.75, 5220135.65], [629719.25, 5220123.65], [629720.25, 5220122.65], [629722.25, 5220119.15], [629729.25, 5220110.65], [629729.75, 5220110.15], [629730.75, 5220107.65], [629728.25, 5220107.15], [629726.75, 5220108.65], [629727.75, 5220107.65], [629727.75, 5220107.15], [629727.25, 5220106.65], [629725.75, 5220106.65], [629723.25, 5220109.15], [629726.75, 5220106.15], [629733.25, 5220108.15], [629732.25, 5220111.15], [629731.75, 5220111.65], [629726.75, 5220118.15], [629725.25, 5220120.15], [629725.25, 5220120.65], [629724.75, 5220121.15], [629724.25, 5220121.65], [629723.75, 5220122.15], [629718.75, 5220127.15], [629718.25, 5220128.65], [629716.25, 5220130.65], [629708.25, 5220141.65], [629707.75, 5220142.15], [629706.75, 5220143.15], [629703.25, 5220148.65], [629693.25, 5220161.65], [629689.75, 5220166.15], [629684.75, 5220172.65], [629683.25, 5220174.65], [629682.25, 5220176.15], [629681.75, 5220176.65], [629679.75, 5220179.15], [629674.75, 5220185.65], [629671.25, 5220190.15], [629665.25, 5220198.15], [629664.25, 5220199.65], [629667.75, 5220194.65], [629678.75, 5220179.65], [629680.25, 5220177.65], [629681.25, 5220176.15], [629681.75, 5220175.65], [629683.75, 5220173.15], [629688.75, 5220166.65], [629695.25, 5220158.15], [629700.25, 5220151.65], [629703.75, 5220147.15], [629705.75, 5220144.65], [629707.75, 5220142.15], [629709.75, 5220139.65], [629712.25, 5220136.15], [629718.75, 5220127.65], [629723.75, 5220121.15], [629733.75, 5220109.15], [629734.25, 5220108.65], [629735.25, 5220108.65], [629735.75, 5220109.15], [629735.25, 5220110.65], [629733.25, 5220112.65], [629729.25, 5220120.15], [629715.75, 5220137.65], [629713.25, 5220141.15], [629710.25, 5220145.15], [629709.25, 5220146.65], [629706.75, 5220149.15], [629700.25, 5220157.65], [629695.25, 5220164.15], [629677.25, 5220185.65], [629675.75, 5220187.15], [629675.25, 5220189.15], [629669.75, 5220197.65], [629672.25, 5220201.15], [629675.25, 5220202.15], [629675.25, 5220202.65], [629674.75, 5220203.15], [629677.25, 5220202.65], [629680.25, 5220203.65], [629682.25, 5220204.65], [629686.25, 5220205.15], [629689.75, 5220206.65], [629688.75, 5220207.65], [629688.25, 5220209.65], [629683.25, 5220216.65], [629672.75, 5220230.15], [629667.75, 5220236.65], [629660.75, 5220245.65], [629659.25, 5220247.65], [629658.25, 5220249.15], [629657.75, 5220249.65], [629657.25, 5220249.65], [629646.75, 5220262.65], [629644.75, 5220264.65], [629644.25, 5220266.65], [629639.25, 5220273.65], [629634.25, 5220280.15], [629627.25, 5220287.65], [629597.25, 5220280.65], [629594.25, 5220280.15], [629592.25, 5220278.65], [629580.25, 5220275.15], [629577.25, 5220274.65], [629574.75, 5220273.15], [629572.25, 5220272.65], [629572.25, 5220269.65], [629575.75, 5220264.65], [629586.25, 5220252.15], [629587.75, 5220250.65], [629586.25, 5220252.15], [629571.25, 5220270.65], [629570.75, 5220271.15], [629569.75, 5220271.15], [629566.75, 5220270.65], [629567.75, 5220270.15], [629569.25, 5220268.65], [629580.25, 5220254.15], [629593.75, 5220237.65], [629595.25, 5220236.15], [629598.25, 5220231.15], [629602.25, 5220227.15], [629602.75, 5220225.15], [629630.25, 5220189.65], [629631.25, 5220188.65], [629632.25, 5220188.15], [629632.75, 5220189.65], [629631.25, 5220193.15], [629631.25, 5220193.65], [629631.75, 5220192.15], [629634.75, 5220189.15], [629635.75, 5220189.15], [629637.75, 5220190.15], [629640.25, 5220184.65], [629640.75, 5220183.65], [629639.25, 5220186.15], [629637.25, 5220188.15], [629633.75, 5220186.65], [629633.25, 5220186.15], [629634.25, 5220182.65], [629634.75, 5220182.15], [629644.75, 5220170.65], [629645.75, 5220169.65], [629644.75, 5220170.65], [629642.75, 5220173.15], [629633.25, 5220184.15], [629631.25, 5220186.15], [629629.75, 5220187.15], [629626.75, 5220186.65], [629623.75, 5220185.65], [629623.25, 5220185.65], [629621.75, 5220187.15], [629619.75, 5220189.65], [629614.75, 5220196.15], [629604.25, 5220209.15], [629602.75, 5220210.65], [629602.25, 5220212.65], [629597.75, 5220217.15], [629598.25, 5220216.65], [629598.75, 5220216.15], [629599.25, 5220215.65], [629601.25, 5220213.15], [629606.25, 5220206.65], [629607.75, 5220204.65], [629611.75, 5220198.65], [629616.75, 5220192.65], [629620.25, 5220187.65], [629621.75, 5220185.65], [629620.75, 5220184.65], [629620.25, 5220184.65], [629619.25, 5220185.65], [629617.25, 5220188.15], [629610.75, 5220196.65], [629609.75, 5220198.15], [629607.75, 5220200.65], [629599.25, 5220211.15], [629598.25, 5220212.15], [629599.25, 5220211.15], [629604.25, 5220204.65], [629607.25, 5220200.65], [629607.75, 5220199.15], [629609.75, 5220196.65], [629618.25, 5220185.65], [629618.75, 5220184.15], [629618.75, 5220183.65], [629615.25, 5220183.15], [629613.25, 5220179.65], [629616.25, 5220175.65], [629616.75, 5220175.15], [629611.75, 5220179.65], [629602.25, 5220179.15], [629601.25, 5220180.15], [629595.25, 5220188.15], [629592.25, 5220192.15], [629591.75, 5220193.15], [629590.25, 5220194.65], [629585.75, 5220200.65], [629584.75, 5220202.15], [629580.25, 5220209.65], [629565.25, 5220225.15], [629571.75, 5220220.65], [629583.75, 5220202.15], [629584.25, 5220201.65], [629589.25, 5220195.65], [629589.75, 5220194.15], [629589.25, 5220192.65], [629589.75, 5220192.15], [629602.25, 5220179.15], [629607.25, 5220180.65], [629606.25, 5220184.15], [629605.75, 5220184.65], [629593.25, 5220200.65], [629592.75, 5220201.15], [629592.25, 5220201.65], [629591.75, 5220202.15], [629591.25, 5220202.65], [629591.75, 5220202.15], [629592.25, 5220201.65], [629592.75, 5220201.15], [629593.25, 5220200.65], [629597.75, 5220194.65], [629599.75, 5220191.15], [629607.25, 5220182.65], [629608.75, 5220181.15], [629609.75, 5220181.15], [629612.75, 5220182.15], [629612.25, 5220186.15], [629610.75, 5220187.65], [629607.25, 5220192.15], [629605.75, 5220194.15], [629604.75, 5220195.65], [629603.25, 5220197.65], [629599.75, 5220202.65], [629597.75, 5220205.15], [629594.25, 5220209.65], [629584.25, 5220222.65], [629576.75, 5220232.15], [629575.75, 5220233.65], [629565.25, 5220245.65], [629563.25, 5220247.65], [629562.75, 5220249.65], [629558.25, 5220257.15], [629556.75, 5220259.15], [629556.75, 5220259.65], [629555.25, 5220261.15], [629555.25, 5220261.65], [629553.75, 5220263.15], [629552.25, 5220265.15], [629557.75, 5220268.65], [629560.75, 5220269.65], [629563.75, 5220270.15], [629563.75, 5220267.15], [629564.75, 5220265.65], [629575.25, 5220251.65], [629576.25, 5220250.15], [629576.75, 5220248.65], [629574.75, 5220253.65], [629574.25, 5220254.15], [629572.25, 5220256.65], [629571.25, 5220258.15], [629563.25, 5220267.65], [629562.25, 5220268.65], [629514.25, 5220252.15], [629512.25, 5220250.15], [629521.75, 5220238.15], [629522.75, 5220237.15], [629529.75, 5220226.15], [629534.75, 5220221.15], [629534.25, 5220221.65], [629530.75, 5220226.15], [629511.25, 5220249.65], [629505.75, 5220250.15], [629504.25, 5220253.15], [629499.25, 5220325.15], [629487.75, 5220346.15], [629477.25, 5220369.65], [629369.25, 5220441.15], [629320.25, 5220479.65], [629250.75, 5220530.65], [629227.75, 5220542.65], [629227.25, 5220541.15], [629235.25, 5220495.15], [629233.75, 5220494.65], [629231.25, 5220496.15], [629225.75, 5220499.15], [629219.25, 5220502.65], [629208.25, 5220508.65], [629187.75, 5220519.65], [629181.25, 5220523.15], [629177.25, 5220525.15], [629176.75, 5220525.15], [629175.75, 5220526.15], [629169.25, 5220529.65], [629158.25, 5220535.65], [629151.25, 5220539.65], [629150.75, 5220540.15], [629151.75, 5220541.15], [629156.25, 5220539.65], [629167.25, 5220536.65], [629167.75, 5220536.15], [629170.25, 5220534.65], [629179.25, 5220526.65], [629179.75, 5220526.15], [629176.25, 5220530.15], [629181.25, 5220529.15], [629179.25, 5220529.65], [629172.25, 5220530.65], [629161.75, 5220536.15], [629159.75, 5220537.15], [629159.25, 5220537.15], [629158.75, 5220537.65], [629157.25, 5220538.65], [629151.75, 5220541.15], [629151.25, 5220539.65], [629153.75, 5220538.15], [629158.25, 5220535.65], [629165.75, 5220531.65], [629169.75, 5220529.65], [629170.25, 5220529.65], [629170.75, 5220529.15], [629172.25, 5220528.15], [629178.75, 5220524.65], [629186.25, 5220520.65], [629192.75, 5220517.15], [629201.75, 5220512.15], [629207.25, 5220509.15], [629211.75, 5220506.65], [629218.25, 5220503.15], [629223.75, 5220500.15], [629229.25, 5220497.15], [629234.75, 5220494.15], [629235.75, 5220493.15], [629239.25, 5220482.65], [629238.25, 5220478.15], [629237.75, 5220477.65], [629234.25, 5220478.15], [629233.75, 5220478.65], [629231.25, 5220480.15], [629225.75, 5220483.15], [629225.25, 5220483.15], [629224.75, 5220483.65], [629220.25, 5220486.15], [629216.25, 5220488.15], [629215.75, 5220488.15], [629214.75, 5220489.15], [629209.25, 5220492.15], [629203.75, 5220495.15], [629203.25, 5220495.15], [629205.75, 5220494.65], [629206.25, 5220494.15], [629211.75, 5220491.15], [629213.75, 5220490.15], [629214.25, 5220490.15], [629214.75, 5220489.65], [629218.25, 5220487.65], [629229.25, 5220481.65], [629235.75, 5220478.15], [629237.25, 5220477.65], [629237.75, 5220477.65], [629238.25, 5220478.15], [629239.25, 5220483.15], [629223.75, 5220557.15], [629222.75, 5220562.15], [629223.25, 5220562.65], [629226.25, 5220561.65], [629227.25, 5220560.65], [629226.75, 5220561.15], [629223.75, 5220562.65], [629223.25, 5220562.65], [629222.75, 5220562.15], [629220.25, 5220564.65], [629217.25, 5220566.15], [629216.75, 5220566.15], [629216.25, 5220566.65], [629214.75, 5220568.15], [629215.25, 5220567.65], [629217.75, 5220566.15], [629219.25, 5220565.65], [629221.25, 5220565.65], [629222.75, 5220566.15], [629228.75, 5220562.65], [629229.25, 5220562.15], [629228.75, 5220562.65], [629225.25, 5220564.65], [629222.25, 5220566.65], [629221.25, 5220567.65], [629221.25, 5220568.65], [629221.75, 5220569.15], [629234.25, 5220562.65], [629236.75, 5220561.15], [629237.25, 5220560.65], [629236.75, 5220561.15], [629234.25, 5220562.65], [629224.75, 5220567.65], [629221.75, 5220569.15], [629216.75, 5220569.15], [629215.25, 5220570.65], [629215.75, 5220570.15], [629217.25, 5220569.15], [629218.25, 5220569.15], [629218.75, 5220569.65], [629218.75, 5220570.15], [629217.75, 5220571.15], [629214.25, 5220573.15], [629204.75, 5220578.15], [629195.25, 5220583.15], [629187.75, 5220587.15], [629181.25, 5220590.65], [629175.75, 5220593.65], [629169.25, 5220597.15], [629167.25, 5220598.15], [629166.75, 5220598.15], [629168.75, 5220597.65], [629172.25, 5220595.65], [629191.75, 5220585.15], [629197.25, 5220582.15], [629204.75, 5220578.15], [629216.25, 5220572.15], [629217.75, 5220571.65], [629219.25, 5220571.65], [629218.75, 5220574.65], [629216.25, 5220574.15], [629217.25, 5220575.65], [629217.75, 5220577.65], [629214.75, 5220594.15], [629214.25, 5220595.65], [629198.75, 5220660.15], [629192.25, 5220703.15], [629196.75, 5220706.65], [629214.25, 5220717.65], [629214.75, 5220718.15], [629215.25, 5220718.65], [629212.75, 5220726.15], [629211.75, 5220728.15], [629210.25, 5220731.65], [629206.25, 5220741.65], [629203.75, 5220747.65], [629201.75, 5220752.65], [629198.25, 5220760.65], [629197.75, 5220761.15], [629196.75, 5220764.15], [629193.25, 5220774.15], [629193.25, 5220774.65], [629192.75, 5220775.15], [629192.25, 5220776.65], [629190.75, 5220779.65], [629188.75, 5220784.65], [629187.25, 5220788.15], [629184.75, 5220794.15], [629183.25, 5220798.65], [629182.75, 5220799.15], [629181.25, 5220802.65], [629178.75, 5220808.65], [629176.75, 5220813.65], [629176.75, 5220814.15], [629176.25, 5220814.65], [629174.75, 5220818.15], [629172.75, 5220823.15], [629171.25, 5220826.65], [629169.25, 5220831.65], [629166.75, 5220837.65], [629164.75, 5220842.65], [629162.25, 5220848.65], [629160.25, 5220853.65], [629158.75, 5220857.15], [629156.75, 5220862.15], [629153.75, 5220869.15], [629153.25, 5220870.65], [629151.75, 5220873.65], [629150.25, 5220877.15], [629149.75, 5220878.65], [629149.75, 5220879.15], [629149.25, 5220879.65], [629148.25, 5220881.65], [629146.75, 5220885.15], [629146.25, 5220886.65], [629145.75, 5220887.65], [629146.75, 5220888.65], [629147.75, 5220887.65], [629149.75, 5220883.65], [629151.25, 5220880.15], [629155.25, 5220872.15], [629155.75, 5220871.65], [629156.25, 5220868.15], [629156.75, 5220867.65], [629158.25, 5220864.15], [629159.25, 5220862.65], [629159.75, 5220862.15], [629162.75, 5220852.65], [629164.25, 5220850.65], [629164.75, 5220850.15], [629167.25, 5220842.15], [629168.75, 5220840.65], [629169.25, 5220837.15], [629169.75, 5220835.65], [629171.25, 5220832.15], [629171.75, 5220830.65], [629176.75, 5220820.65], [629177.25, 5220820.15], [629177.75, 5220816.65], [629180.75, 5220810.65], [629181.25, 5220810.15], [629181.75, 5220806.65], [629186.25, 5220797.65], [629186.75, 5220797.15], [629187.25, 5220793.65], [629187.75, 5220792.15], [629189.25, 5220788.65], [629190.25, 5220786.65], [629191.25, 5220783.65], [629191.25, 5220783.15], [629192.75, 5220782.65], [629194.75, 5220776.65], [629195.75, 5220775.65], [629196.25, 5220772.15], [629198.25, 5220767.15], [629199.75, 5220764.65], [629200.25, 5220764.15], [629199.25, 5220763.65], [629199.75, 5220763.15], [629200.25, 5220761.65], [629201.25, 5220759.65], [629203.25, 5220754.65], [629203.25, 5220753.65], [629203.75, 5220753.15], [629204.25, 5220751.65], [629205.25, 5220749.65], [629207.25, 5220746.15], [629207.75, 5220745.65], [629212.75, 5220730.65], [629213.25, 5220730.15], [629215.25, 5220725.15], [629217.75, 5220720.65], [629218.25, 5220720.15], [629218.75, 5220720.15], [629219.25, 5220720.65], [629218.25, 5220726.65], [629217.75, 5220727.15], [629217.25, 5220728.65], [629216.25, 5220730.65], [629210.25, 5220745.65], [629209.75, 5220747.65], [629209.25, 5220748.15], [629208.75, 5220749.65], [629207.75, 5220751.65], [629202.75, 5220764.15], [629199.75, 5220771.15], [629197.25, 5220777.15], [629195.75, 5220780.65], [629192.75, 5220788.15], [629187.75, 5220800.15], [629186.25, 5220804.65], [629185.75, 5220805.15], [629185.25, 5220806.65], [629184.25, 5220808.65], [629182.75, 5220812.15], [629179.25, 5220821.15], [629177.75, 5220824.65], [629171.25, 5220840.65], [629170.25, 5220843.65], [629169.75, 5220844.15], [629169.25, 5220845.65], [629168.25, 5220847.65], [629166.75, 5220851.15], [629164.75, 5220856.15], [629163.25, 5220859.65], [629160.75, 5220866.15], [629160.25, 5220867.65], [629158.25, 5220871.65], [629155.75, 5220877.65], [629151.25, 5220888.15], [629149.75, 5220892.65], [629154.25, 5220893.15], [629157.25, 5220886.15], [629159.75, 5220880.65], [629160.25, 5220880.15], [629159.75, 5220880.65], [629159.25, 5220882.15], [629157.75, 5220885.15], [629155.25, 5220891.15], [629154.25, 5220894.15], [629154.25, 5220894.65], [629155.75, 5220895.15], [629156.75, 5220893.15], [629158.25, 5220889.65], [629160.75, 5220883.65], [629163.25, 5220877.65], [629168.25, 5220865.65], [629168.25, 5220864.65], [629167.75, 5220868.15], [629166.25, 5220872.65], [629166.25, 5220873.15], [629165.75, 5220873.65], [629164.75, 5220875.65], [629161.75, 5220882.65], [629160.25, 5220886.65], [629160.25, 5220887.15], [629159.75, 5220887.65], [629159.25, 5220889.15], [629156.75, 5220894.15], [629156.25, 5220896.65], [629157.75, 5220896.65], [629158.75, 5220895.15], [629159.25, 5220893.65], [629160.75, 5220890.65], [629163.25, 5220884.65], [629173.75, 5220860.15], [629175.25, 5220855.65], [629175.75, 5220855.15], [629177.25, 5220851.65], [629179.25, 5220846.65], [629180.75, 5220843.15], [629182.75, 5220839.15], [629183.25, 5220838.65], [629184.75, 5220838.65], [629185.75, 5220837.65], [629189.75, 5220829.15], [629190.25, 5220828.65], [629189.75, 5220829.15], [629189.25, 5220830.65], [629188.25, 5220832.65], [629186.75, 5220836.15], [629185.75, 5220837.65], [629184.75, 5220838.65], [629184.25, 5220838.65], [629183.75, 5220838.15], [629184.75, 5220832.65], [629185.25, 5220832.15], [629187.25, 5220827.15], [629188.75, 5220823.65], [629190.75, 5220818.65], [629192.25, 5220815.15], [629194.75, 5220810.65], [629195.25, 5220810.15], [629195.75, 5220806.65], [629201.75, 5220791.65], [629203.25, 5220788.15], [629205.25, 5220783.15], [629206.75, 5220779.65], [629209.25, 5220773.65], [629211.25, 5220768.65], [629214.25, 5220761.65], [629215.75, 5220759.15], [629216.25, 5220758.65], [629216.75, 5220755.15], [629222.75, 5220741.15], [629226.25, 5220732.15], [629228.25, 5220728.15], [629228.75, 5220727.65], [629230.25, 5220728.15], [629232.25, 5220727.65], [629232.75, 5220728.15], [629231.75, 5220733.65], [629231.25, 5220734.15], [629230.75, 5220735.65], [629229.75, 5220737.65], [629228.25, 5220741.15], [629224.25, 5220750.15], [629223.75, 5220750.65], [629223.75, 5220753.15], [629223.25, 5220753.65], [629221.75, 5220757.15], [629219.75, 5220762.15], [629218.25, 5220765.65], [629214.25, 5220775.65], [629211.75, 5220782.15], [629210.75, 5220784.15], [629206.75, 5220794.15], [629206.25, 5220796.15], [629205.75, 5220796.65], [629204.25, 5220800.15], [629200.25, 5220810.15], [629200.25, 5220811.15], [629199.75, 5220811.65], [629199.25, 5220813.15], [629198.25, 5220815.15], [629197.25, 5220818.65], [629196.75, 5220819.15], [629191.75, 5220831.15], [629190.25, 5220834.65], [629189.25, 5220837.65], [629189.25, 5220838.15], [629188.75, 5220838.65], [629188.25, 5220840.15], [629186.25, 5220844.15], [629184.75, 5220847.65], [629182.25, 5220853.65], [629180.75, 5220857.15], [629173.25, 5220875.15], [629171.75, 5220878.65], [629169.25, 5220884.65], [629167.75, 5220888.15], [629165.25, 5220894.15], [629163.75, 5220897.65], [629161.75, 5220903.15], [629163.25, 5220903.65], [629164.25, 5220902.15], [629165.75, 5220898.65], [629170.75, 5220886.65], [629172.25, 5220883.15], [629177.25, 5220871.15], [629178.75, 5220867.65], [629180.75, 5220862.65], [629185.25, 5220852.15], [629187.75, 5220846.15], [629190.75, 5220839.15], [629192.75, 5220834.15], [629193.25, 5220832.65], [629193.25, 5220832.15], [629193.75, 5220831.65], [629194.75, 5220829.65], [629196.25, 5220826.15], [629198.25, 5220821.15], [629200.75, 5220815.15], [629201.75, 5220811.65], [629202.75, 5220809.65], [629204.75, 5220804.65], [629207.25, 5220798.65], [629209.25, 5220793.65], [629209.75, 5220791.65], [629210.25, 5220791.15], [629212.25, 5220786.15], [629213.75, 5220782.65], [629213.75, 5220781.65], [629214.25, 5220781.15], [629214.75, 5220779.65], [629218.75, 5220771.65], [629219.25, 5220771.15], [629220.25, 5220765.65], [629220.75, 5220765.15], [629221.25, 5220763.65], [629222.25, 5220761.65], [629224.75, 5220755.65], [629226.75, 5220750.65], [629230.75, 5220742.15], [629231.25, 5220741.65], [629231.75, 5220738.15], [629232.25, 5220736.65], [629232.25, 5220736.15], [629232.75, 5220735.65], [629233.25, 5220734.15], [629235.25, 5220730.65], [629235.75, 5220730.15], [629236.25, 5220730.15], [629236.75, 5220730.65], [629236.25, 5220735.65], [629235.75, 5220736.15], [629234.25, 5220740.65], [629233.75, 5220741.15], [629231.75, 5220746.15], [629229.25, 5220752.15], [629228.25, 5220755.15], [629228.25, 5220755.65], [629227.75, 5220756.15], [629227.25, 5220757.65], [629226.25, 5220759.65], [629223.75, 5220766.15], [629223.25, 5220767.65], [629222.25, 5220769.65], [629218.25, 5220779.65], [629215.75, 5220785.65], [629213.75, 5220790.65], [629212.25, 5220794.65], [629211.25, 5220796.65], [629211.25, 5220797.65], [629210.75, 5220798.15], [629210.25, 5220799.65], [629209.25, 5220801.65], [629207.25, 5220806.65], [629205.75, 5220810.15], [629201.75, 5220820.15], [629199.25, 5220826.15], [629197.25, 5220831.15], [629193.25, 5220839.65], [629192.75, 5220840.15], [629192.25, 5220843.65], [629191.75, 5220845.15], [629190.75, 5220847.15], [629190.75, 5220847.65], [629190.75, 5220847.15], [629191.25, 5220846.65], [629192.75, 5220846.15], [629193.75, 5220845.15], [629195.25, 5220840.65], [629195.75, 5220840.15], [629196.25, 5220838.65], [629197.75, 5220835.15], [629198.75, 5220833.15], [629200.75, 5220828.15], [629203.25, 5220822.15], [629205.25, 5220818.15], [629205.75, 5220817.65], [629209.75, 5220805.65], [629210.75, 5220803.65], [629212.75, 5220798.65], [629214.25, 5220795.15], [629218.25, 5220785.15], [629219.75, 5220781.65], [629223.75, 5220771.65], [629226.25, 5220765.65], [629229.75, 5220756.65], [629232.25, 5220750.65], [629236.25, 5220740.65], [629239.75, 5220733.65], [629240.25, 5220733.15], [629242.75, 5220733.65], [629243.75, 5220734.65], [629242.75, 5220740.15], [629242.25, 5220740.65], [629241.75, 5220742.15], [629240.75, 5220744.15], [629238.25, 5220750.15], [629232.25, 5220765.15], [629230.75, 5220768.65], [629224.75, 5220783.65], [629222.25, 5220789.65], [629218.25, 5220799.65], [629216.75, 5220802.15], [629216.25, 5220802.65], [629216.75, 5220802.15], [629217.25, 5220800.65], [629218.25, 5220798.65], [629220.25, 5220793.65], [629222.75, 5220787.65], [629224.75, 5220782.65], [629240.25, 5220744.65], [629243.75, 5220736.65], [629245.25, 5220735.15], [629258.75, 5220744.15], [629253.75, 5220749.15], [629253.75, 5220756.15], [629254.25, 5220756.65], [629253.25, 5220762.15], [629252.75, 5220762.65], [629250.75, 5220767.65], [629246.25, 5220778.15], [629244.25, 5220783.15], [629242.75, 5220786.65], [629240.75, 5220791.65], [629238.75, 5220796.65], [629237.75, 5220799.65], [629237.75, 5220800.15], [629237.25, 5220800.65], [629236.75, 5220802.15], [629235.75, 5220804.15], [629234.25, 5220807.65], [629232.25, 5220812.65], [629230.75, 5220816.15], [629229.25, 5220820.65], [629228.75, 5220821.15], [629227.25, 5220824.65], [629225.75, 5220829.15], [629225.25, 5220829.65], [629222.75, 5220835.65], [629221.25, 5220839.65], [629221.25, 5220840.15], [629220.75, 5220840.65], [629218.25, 5220846.65], [629216.75, 5220850.15], [629215.25, 5220854.65], [629214.75, 5220857.15], [629213.75, 5220857.65], [629211.75, 5220862.65], [629210.25, 5220866.65], [629210.25, 5220867.15], [629209.75, 5220867.65], [629209.25, 5220869.15], [629207.75, 5220872.15], [629205.25, 5220878.15], [629200.75, 5220888.65], [629197.25, 5220896.65], [629196.75, 5220897.15], [629197.25, 5220896.65], [629197.75, 5220895.15], [629198.75, 5220893.15], [629201.25, 5220887.15], [629203.25, 5220882.15], [629204.75, 5220878.65], [629211.75, 5220861.65], [629213.25, 5220857.65], [629212.25, 5220856.65], [629211.25, 5220857.65], [629211.25, 5220858.15], [629210.75, 5220858.65], [629209.25, 5220860.65], [629208.75, 5220861.15], [629208.25, 5220864.65], [629207.75, 5220866.15], [629206.25, 5220869.65], [629205.25, 5220871.65], [629203.25, 5220876.65], [629201.75, 5220880.15], [629199.75, 5220885.15], [629198.25, 5220888.65], [629195.75, 5220894.65], [629192.75, 5220901.65], [629192.25, 5220903.65], [629190.75, 5220904.15], [629191.25, 5220903.65], [629196.25, 5220891.65], [629199.25, 5220884.65], [629199.25, 5220883.65], [629199.75, 5220883.15], [629200.25, 5220881.65], [629201.75, 5220878.65], [629206.75, 5220866.65], [629208.25, 5220863.15], [629208.75, 5220861.65], [629209.75, 5220859.65], [629210.75, 5220856.65], [629209.25, 5220856.15], [629208.25, 5220857.65], [629205.25, 5220864.65], [629205.25, 5220865.65], [629205.75, 5220862.15], [629206.25, 5220861.65], [629208.75, 5220856.65], [629210.25, 5220856.15], [629213.25, 5220855.65], [629214.75, 5220854.15], [629216.25, 5220850.65], [629218.25, 5220845.65], [629219.75, 5220842.15], [629221.75, 5220837.15], [629224.25, 5220831.15], [629226.25, 5220826.15], [629228.75, 5220820.15], [629231.25, 5220813.65], [629231.75, 5220812.15], [629232.75, 5220810.15], [629234.75, 5220805.15], [629236.25, 5220801.65], [629238.25, 5220796.65], [629239.75, 5220794.65], [629244.25, 5220781.65], [629244.75, 5220780.15], [629246.25, 5220777.15], [629249.25, 5220770.15], [629251.25, 5220765.15], [629252.75, 5220762.65], [629253.25, 5220761.65], [629254.25, 5220756.65], [629253.75, 5220755.15], [629253.75, 5220749.15], [629254.25, 5220748.65], [629256.75, 5220742.65], [629245.25, 5220735.15], [629238.25, 5220731.15], [629230.25, 5220726.15], [629226.75, 5220726.15], [629226.25, 5220726.65], [629225.75, 5220728.15], [629224.75, 5220730.15], [629222.75, 5220735.15], [629220.25, 5220741.15], [629218.25, 5220746.15], [629215.25, 5220752.15], [629214.75, 5220752.65], [629214.25, 5220756.15], [629213.75, 5220757.65], [629212.25, 5220761.15], [629211.25, 5220763.15], [629209.75, 5220766.65], [629207.75, 5220771.65], [629206.25, 5220775.15], [629202.25, 5220783.65], [629201.75, 5220784.15], [629201.25, 5220787.65], [629196.75, 5220798.15], [629194.25, 5220804.15], [629192.25, 5220807.65], [629191.75, 5220808.15], [629191.25, 5220811.65], [629187.25, 5220821.65], [629184.75, 5220827.65], [629182.75, 5220832.65], [629181.25, 5220836.15], [629178.25, 5220842.15], [629177.75, 5220842.65], [629178.25, 5220842.15], [629179.75, 5220838.65], [629180.25, 5220837.15], [629179.75, 5220836.65], [629178.75, 5220836.65], [629178.25, 5220837.15], [629176.75, 5220840.15], [629174.75, 5220845.15], [629174.25, 5220846.65], [629174.25, 5220847.15], [629174.75, 5220843.65], [629178.25, 5220835.65], [629181.25, 5220828.65], [629184.75, 5220821.15], [629185.25, 5220820.65], [629189.25, 5220808.65], [629190.25, 5220806.65], [629192.25, 5220801.65], [629193.25, 5220800.15], [629193.75, 5220799.65], [629194.25, 5220796.15], [629194.75, 5220794.65], [629196.25, 5220791.15], [629196.75, 5220789.65], [629198.75, 5220785.65], [629202.75, 5220777.15], [629203.25, 5220776.65], [629207.25, 5220764.65], [629207.75, 5220764.15], [629209.75, 5220759.15], [629212.25, 5220753.15], [629214.25, 5220748.15], [629216.75, 5220742.15], [629218.75, 5220737.15], [629221.25, 5220731.15], [629223.25, 5220726.15], [629224.25, 5220723.15], [629223.75, 5220722.65], [629222.75, 5220722.65], [629222.25, 5220723.15], [629220.75, 5220726.65], [629218.25, 5220732.65], [629216.25, 5220737.65], [629213.75, 5220743.65], [629211.75, 5220748.65], [629209.25, 5220754.65], [629207.25, 5220759.65], [629204.75, 5220765.65], [629203.75, 5220768.65], [629203.75, 5220769.15], [629204.25, 5220765.65], [629206.25, 5220761.65], [629207.25, 5220758.15], [629207.25, 5220757.65], [629207.75, 5220757.15], [629208.25, 5220755.65], [629209.75, 5220753.65], [629210.25, 5220753.15], [629213.75, 5220742.15], [629213.75, 5220741.65], [629214.25, 5220741.15], [629214.75, 5220739.65], [629215.75, 5220737.65], [629216.75, 5220734.65], [629216.75, 5220734.15], [629217.25, 5220733.65], [629217.75, 5220732.15], [629218.75, 5220730.15], [629221.25, 5220724.15], [629219.75, 5220722.65], [629219.25, 5220720.65], [629218.75, 5220720.15], [629216.75, 5220718.65], [629213.75, 5220717.65], [629210.25, 5220718.65], [629209.75, 5220719.15], [629203.75, 5220734.15], [629203.25, 5220735.65], [629203.25, 5220736.15], [629202.75, 5220736.65], [629202.25, 5220738.15], [629201.25, 5220740.15], [629199.25, 5220745.15], [629198.25, 5220746.65], [629197.75, 5220747.15], [629193.75, 5220759.15], [629193.25, 5220759.65], [629191.25, 5220764.65], [629188.75, 5220770.65], [629172.75, 5220810.65], [629171.25, 5220814.15], [629170.75, 5220815.65], [629169.25, 5220818.65], [629166.75, 5220824.65], [629164.75, 5220829.65], [629165.75, 5220830.65], [629166.25, 5220830.65], [629166.75, 5220830.15], [629167.25, 5220828.65], [629168.25, 5220826.65], [629168.75, 5220824.65], [629164.75, 5220836.65], [629163.75, 5220838.65], [629161.25, 5220844.65], [629160.25, 5220847.65], [629160.25, 5220848.15], [629159.75, 5220848.65], [629158.75, 5220850.65], [629156.25, 5220856.65], [629153.75, 5220861.15], [629153.25, 5220861.65], [629151.75, 5220868.15], [629150.75, 5220869.15], [629149.75, 5220870.65], [629149.25, 5220872.65], [629148.75, 5220873.15], [629146.75, 5220877.65], [629146.25, 5220878.15], [629146.75, 5220877.65], [629147.75, 5220875.65], [629149.25, 5220872.15], [629149.75, 5220870.65], [629151.25, 5220867.65], [629152.75, 5220864.15], [629155.75, 5220856.65], [629163.25, 5220838.65], [629165.25, 5220833.65], [629165.75, 5220831.15], [629165.25, 5220830.65], [629163.75, 5220832.15], [629163.25, 5220833.65], [629161.75, 5220836.65], [629161.25, 5220838.65], [629163.75, 5220830.65], [629162.25, 5220828.65], [629163.25, 5220827.65], [629163.75, 5220823.65], [629164.25, 5220823.15], [629165.25, 5220821.15], [629167.75, 5220815.15], [629171.75, 5220805.15], [629174.25, 5220799.15], [629176.25, 5220794.15], [629178.75, 5220788.15], [629180.75, 5220783.15], [629181.25, 5220781.15], [629181.75, 5220780.65], [629183.25, 5220777.15], [629187.25, 5220767.15], [629188.75, 5220763.65], [629192.25, 5220754.65], [629192.25, 5220753.65], [629192.75, 5220753.15], [629193.25, 5220751.65], [629194.75, 5220748.65], [629200.75, 5220733.65], [629207.25, 5220717.65], [629206.75, 5220716.15], [629205.75, 5220716.15], [629204.75, 5220718.15], [629202.75, 5220723.15], [629201.25, 5220726.65], [629195.25, 5220741.65], [629192.75, 5220747.65], [629190.75, 5220752.65], [629188.75, 5220757.65], [629185.75, 5220765.15], [629183.75, 5220770.15], [629181.25, 5220776.15], [629177.25, 5220786.15], [629175.75, 5220789.65], [629173.75, 5220794.65], [629171.25, 5220800.65], [629169.25, 5220805.65], [629166.75, 5220811.65], [629164.75, 5220816.65], [629162.25, 5220822.65], [629158.75, 5220831.15], [629157.25, 5220834.65], [629157.25, 5220835.65], [629157.75, 5220832.15], [629158.25, 5220830.65], [629159.75, 5220827.65], [629162.25, 5220821.65], [629164.25, 5220818.15], [629164.75, 5220817.65], [629165.25, 5220814.15], [629165.75, 5220812.65], [629167.25, 5220809.15], [629167.75, 5220807.65], [629169.25, 5220804.65], [629171.25, 5220799.65], [629172.75, 5220796.15], [629174.75, 5220791.15], [629177.25, 5220785.15], [629179.25, 5220780.15], [629180.75, 5220776.65], [629182.75, 5220771.65], [629184.25, 5220768.15], [629186.75, 5220763.15], [629187.25, 5220762.65], [629187.75, 5220759.15], [629188.25, 5220757.65], [629189.75, 5220754.15], [629190.25, 5220752.65], [629191.25, 5220750.65], [629192.75, 5220747.15], [629197.75, 5220734.65], [629198.75, 5220732.65], [629202.75, 5220722.65], [629206.25, 5220713.65], [629206.25, 5220713.15], [629205.75, 5220712.65], [629204.75, 5220712.65], [629204.25, 5220713.15], [629198.25, 5220728.15], [629195.75, 5220734.15], [629192.75, 5220741.15], [629182.75, 5220766.15], [629181.25, 5220769.65], [629179.25, 5220774.65], [629177.75, 5220778.15], [629175.75, 5220783.15], [629170.75, 5220795.15], [629168.75, 5220800.15], [629168.75, 5220801.15], [629169.25, 5220797.65], [629171.75, 5220791.65], [629173.75, 5220786.65], [629178.75, 5220774.65], [629180.75, 5220769.65], [629183.25, 5220763.65], [629187.25, 5220753.65], [629188.75, 5220750.15], [629191.25, 5220744.15], [629193.25, 5220739.15], [629193.25, 5220738.15], [629193.75, 5220737.65], [629194.75, 5220735.65], [629197.25, 5220729.65], [629201.25, 5220719.65], [629203.75, 5220713.15], [629203.75, 5220712.15], [629202.75, 5220711.15], [629202.25, 5220711.65], [629201.75, 5220713.15], [629200.75, 5220715.15], [629198.25, 5220721.15], [629178.25, 5220770.15], [629176.75, 5220773.65], [629174.25, 5220779.65], [629170.25, 5220789.65], [629168.75, 5220793.15], [629166.75, 5220798.15], [629165.25, 5220801.65], [629163.25, 5220806.65], [629161.75, 5220810.15], [629159.75, 5220815.15], [629158.25, 5220818.65], [629156.25, 5220823.65], [629154.75, 5220827.15], [629152.25, 5220833.15], [629150.25, 5220838.15], [629148.75, 5220841.65], [629144.25, 5220851.65], [629143.75, 5220852.15], [629144.25, 5220851.65], [629147.75, 5220843.15], [629149.25, 5220839.65], [629154.25, 5220827.65], [629156.25, 5220822.65], [629157.75, 5220819.15], [629160.25, 5220813.15], [629164.25, 5220803.15], [629165.75, 5220799.65], [629167.75, 5220794.65], [629170.25, 5220788.65], [629171.75, 5220784.15], [629172.25, 5220783.65], [629174.25, 5220778.65], [629175.75, 5220775.15], [629177.75, 5220770.15], [629177.75, 5220769.15], [629178.25, 5220768.65], [629179.25, 5220765.65], [629179.75, 5220765.15], [629180.25, 5220763.65], [629181.75, 5220760.65], [629184.25, 5220754.65], [629186.25, 5220749.65], [629188.75, 5220743.65], [629190.75, 5220738.65], [629193.25, 5220732.65], [629195.25, 5220727.65], [629196.75, 5220724.15], [629200.25, 5220715.15], [629201.75, 5220711.65], [629201.75, 5220711.15], [629200.75, 5220710.15], [629200.25, 5220710.15], [629199.75, 5220710.65], [629191.75, 5220730.65], [629189.25, 5220736.65], [629187.25, 5220741.65], [629185.75, 5220745.15], [629183.75, 5220750.15], [629176.25, 5220768.15], [629173.75, 5220773.15], [629173.25, 5220773.65], [629169.25, 5220786.15], [629168.75, 5220786.65], [629167.25, 5220790.15], [629165.25, 5220795.15], [629162.75, 5220801.15], [629160.75, 5220806.15], [629158.25, 5220812.15], [629156.25, 5220817.15], [629153.75, 5220823.15], [629151.25, 5220829.15], [629149.25, 5220833.15], [629148.75, 5220833.65], [629145.75, 5220842.65], [629142.75, 5220849.65], [629140.75, 5220854.65], [629139.25, 5220858.15], [629138.75, 5220860.15], [629142.75, 5220847.65], [629143.25, 5220847.15], [629143.75, 5220845.65], [629145.75, 5220842.65], [629149.25, 5220834.15], [629149.75, 5220833.65], [629153.75, 5220821.65], [629154.75, 5220819.65], [629160.75, 5220804.65], [629162.25, 5220801.15], [629164.25, 5220796.15], [629165.75, 5220792.65], [629167.75, 5220787.65], [629169.25, 5220784.15], [629171.75, 5220777.65], [629172.75, 5220775.65], [629174.75, 5220770.65], [629176.25, 5220767.15], [629178.75, 5220761.15], [629180.25, 5220757.65], [629181.25, 5220754.65], [629181.25, 5220754.15], [629181.75, 5220753.65], [629182.25, 5220752.15], [629183.25, 5220750.15], [629184.75, 5220746.65], [629186.75, 5220741.65], [629189.25, 5220735.65], [629191.25, 5220730.65], [629191.25, 5220729.65], [629191.75, 5220729.15], [629192.25, 5220727.65], [629193.75, 5220724.65], [629194.25, 5220722.65], [629194.75, 5220722.15], [629197.25, 5220716.15], [629198.75, 5220711.65], [629199.25, 5220710.65], [629198.25, 5220709.65], [629196.25, 5220711.65], [629193.75, 5220719.15], [629193.25, 5220720.65], [629192.25, 5220722.65], [629189.75, 5220728.65], [629187.75, 5220733.65], [629186.25, 5220737.15], [629184.25, 5220742.15], [629177.25, 5220759.15], [629175.75, 5220762.65], [629173.25, 5220769.15], [629172.25, 5220771.15], [629169.75, 5220777.15], [629167.75, 5220782.15], [629166.25, 5220785.65], [629164.25, 5220790.65], [629162.75, 5220794.15], [629160.75, 5220799.15], [629159.25, 5220802.65], [629157.25, 5220807.65], [629155.75, 5220811.15], [629152.25, 5220820.15], [629150.75, 5220823.65], [629148.75, 5220828.65], [629142.25, 5220844.15], [629140.75, 5220847.65], [629139.25, 5220851.15], [629136.75, 5220857.15], [629135.25, 5220860.65], [629134.75, 5220862.65], [629138.75, 5220850.65], [629139.25, 5220850.15], [629139.75, 5220848.65], [629141.25, 5220846.65], [629141.75, 5220846.15], [629144.75, 5220836.65], [629146.25, 5220835.15], [629147.25, 5220830.15], [629150.25, 5220823.15], [629150.75, 5220821.65], [629151.75, 5220819.65], [629153.75, 5220814.65], [629156.75, 5220807.65], [629159.25, 5220801.65], [629161.25, 5220796.65], [629162.75, 5220793.15], [629164.75, 5220788.15], [629166.25, 5220784.65], [629168.25, 5220779.65], [629169.75, 5220776.15], [629172.25, 5220770.15], [629172.75, 5220768.15], [629173.25, 5220767.65], [629178.25, 5220755.65], [629180.25, 5220750.65], [629181.75, 5220747.15], [629184.75, 5220739.65], [629185.25, 5220738.15], [629186.75, 5220735.15], [629188.75, 5220730.15], [629190.25, 5220726.65], [629192.25, 5220721.65], [629193.75, 5220718.15], [629195.75, 5220713.15], [629196.25, 5220710.65], [629195.75, 5220710.15], [629194.25, 5220711.65], [629193.25, 5220713.65], [629190.75, 5220719.65], [629188.75, 5220724.65], [629187.25, 5220728.15], [629182.25, 5220740.15], [629180.25, 5220745.15], [629178.75, 5220748.65], [629176.75, 5220753.65], [629175.25, 5220757.15], [629172.75, 5220763.15], [629170.75, 5220768.15], [629169.25, 5220771.65], [629167.25, 5220776.65], [629165.75, 5220780.15], [629163.25, 5220786.15], [629161.25, 5220791.15], [629159.75, 5220794.65], [629157.75, 5220799.65], [629156.25, 5220803.15], [629153.25, 5220809.15], [629152.75, 5220809.65], [629152.25, 5220813.15], [629149.25, 5220820.15], [629146.75, 5220825.15], [629146.25, 5220825.65], [629145.75, 5220826.15], [629141.25, 5220823.15], [629140.25, 5220822.15], [629143.25, 5220813.15], [629143.75, 5220812.65], [629144.75, 5220809.65], [629144.75, 5220809.15], [629144.25, 5220812.65], [629143.75, 5220813.15], [629142.75, 5220815.15], [629140.25, 5220822.15], [629138.75, 5220825.65], [629137.25, 5220829.15], [629134.75, 5220834.15], [629134.25, 5220834.65], [629130.25, 5220846.65], [629129.25, 5220848.65], [629128.25, 5220851.65], [629128.25, 5220852.15], [629127.75, 5220852.65], [629123.75, 5220860.65], [629123.25, 5220861.15], [629123.75, 5220860.65], [629125.25, 5220857.15], [629127.75, 5220851.15], [629130.25, 5220845.15], [629132.75, 5220839.15], [629135.25, 5220833.15], [629139.25, 5220824.65], [629140.25, 5220823.65], [629141.25, 5220824.65], [629136.75, 5220837.65], [629135.25, 5220840.65], [629135.25, 5220841.15], [629133.75, 5220844.65], [629133.25, 5220846.15], [629133.25, 5220846.65], [629132.75, 5220847.15], [629131.75, 5220849.15], [629129.25, 5220855.15], [629127.25, 5220860.15], [629126.75, 5220861.65], [629126.75, 5220862.15], [629127.25, 5220858.65], [629133.25, 5220844.65], [629135.25, 5220839.65], [629136.75, 5220836.15], [629138.75, 5220831.15], [629140.25, 5220827.65], [629142.25, 5220824.65], [629144.75, 5220825.15], [629145.75, 5220826.15], [629146.25, 5220825.65], [629146.75, 5220825.15], [629147.25, 5220823.65], [629148.25, 5220821.65], [629150.25, 5220816.65], [629152.75, 5220810.65], [629155.25, 5220804.65], [629157.25, 5220799.65], [629158.75, 5220796.15], [629163.75, 5220784.15], [629165.75, 5220779.15], [629167.25, 5220775.65], [629172.25, 5220763.65], [629173.75, 5220760.15], [629175.75, 5220755.15], [629177.25, 5220751.65], [629179.25, 5220747.65], [629179.75, 5220747.15], [629183.75, 5220735.15], [629184.25, 5220734.65], [629186.25, 5220729.65], [629188.75, 5220723.65], [629190.75, 5220718.65], [629192.25, 5220715.15], [629194.75, 5220710.15], [629181.25, 5220703.65], [629179.75, 5220706.15], [629179.25, 5220707.65], [629178.25, 5220709.65], [629178.25, 5220710.65], [629177.75, 5220711.15], [629176.75, 5220713.15], [629174.75, 5220718.15], [629173.25, 5220721.65], [629169.25, 5220730.15], [629168.75, 5220730.65], [629168.25, 5220734.15], [629167.75, 5220735.65], [629166.25, 5220739.15], [629165.75, 5220740.65], [629164.25, 5220743.65], [629162.25, 5220748.65], [629160.75, 5220752.15], [629158.75, 5220757.15], [629155.25, 5220764.15], [629154.75, 5220764.65], [629154.25, 5220768.15], [629149.25, 5220780.15], [629147.25, 5220785.15], [629144.75, 5220791.15], [629144.75, 5220792.15], [629144.25, 5220792.65], [629142.75, 5220796.15], [629140.75, 5220801.15], [629139.25, 5220804.65], [629135.75, 5220812.15], [629135.25, 5220812.65], [629133.25, 5220819.65], [629133.25, 5220820.15], [629133.75, 5220820.65], [629134.25, 5220820.65], [629135.25, 5220819.65], [629135.75, 5220818.15], [629137.25, 5220815.15], [629139.75, 5220809.15], [629142.75, 5220801.65], [629143.25, 5220800.15], [629144.75, 5220797.15], [629149.75, 5220784.65], [629152.25, 5220778.65], [629154.25, 5220773.65], [629154.25, 5220772.65], [629153.75, 5220776.15], [629153.25, 5220777.65], [629151.75, 5220781.15], [629151.25, 5220782.65], [629149.75, 5220785.65], [629147.75, 5220790.65], [629146.25, 5220794.15], [629143.25, 5220801.65], [629142.75, 5220803.15], [629141.25, 5220806.15], [629141.25, 5220807.15], [629140.75, 5220807.65], [629140.25, 5220809.15], [629138.75, 5220812.15], [629135.75, 5220820.15], [629137.25, 5220820.65], [629137.75, 5220820.15], [629138.75, 5220818.15], [629140.25, 5220814.65], [629142.25, 5220809.65], [629146.25, 5220799.65], [629146.75, 5220798.15], [629147.75, 5220796.15], [629149.25, 5220792.65], [629151.25, 5220788.65], [629151.75, 5220788.15], [629151.25, 5220788.65], [629147.25, 5220797.15], [629146.75, 5220797.65], [629146.25, 5220801.65], [629144.75, 5220803.15], [629144.25, 5220804.65], [629143.25, 5220808.15], [629141.75, 5220811.15], [629139.25, 5220817.15], [629137.75, 5220820.15], [629137.25, 5220820.65], [629135.75, 5220820.65], [629135.25, 5220821.15], [629133.75, 5220824.65], [629133.25, 5220826.15], [629129.75, 5220834.15], [629128.25, 5220837.65], [629125.75, 5220843.65], [629123.25, 5220849.65], [629121.75, 5220853.15], [629118.75, 5220859.15], [629118.25, 5220859.65], [629118.75, 5220859.15], [629120.25, 5220857.65], [629122.75, 5220849.65], [629124.25, 5220848.15], [629128.25, 5220836.15], [629129.25, 5220834.15], [629130.75, 5220830.65], [629133.25, 5220824.65], [629134.25, 5220821.65], [629133.25, 5220820.65], [629131.75, 5220819.65], [629130.75, 5220819.65], [629130.25, 5220820.15], [629128.75, 5220823.15], [629125.75, 5220828.65], [629125.25, 5220829.15], [629125.75, 5220828.65], [629126.75, 5220826.65], [629129.25, 5220820.65], [629134.75, 5220807.65], [629138.75, 5220799.15], [629139.25, 5220798.65], [629143.25, 5220786.15], [629143.75, 5220785.65], [629146.25, 5220779.15], [629147.25, 5220777.15], [629149.75, 5220771.15], [629150.25, 5220769.15], [629150.75, 5220768.65], [629152.25, 5220765.15], [629154.25, 5220760.15], [629155.75, 5220756.65], [629157.75, 5220751.65], [629161.25, 5220744.65], [629161.75, 5220744.15], [629161.25, 5220744.65], [629160.25, 5220746.65], [629158.25, 5220751.65], [629153.25, 5220763.65], [629151.25, 5220768.65], [629143.75, 5220786.65], [629141.75, 5220791.65], [629139.75, 5220796.65], [629137.75, 5220801.65], [629135.75, 5220806.65], [629132.75, 5220813.65], [629130.25, 5220817.65], [629129.75, 5220818.15], [629128.75, 5220818.15], [629128.25, 5220817.65], [629130.75, 5220810.15], [629131.75, 5220808.15], [629133.25, 5220804.65], [629135.25, 5220799.65], [629136.75, 5220797.15], [629137.25, 5220796.65], [629139.75, 5220788.15], [629139.75, 5220787.65], [629140.25, 5220787.15], [629141.25, 5220785.15], [629143.25, 5220780.15], [629146.25, 5220774.15], [629146.75, 5220773.65], [629147.25, 5220770.15], [629147.75, 5220769.65], [629147.75, 5220768.65], [629148.25, 5220768.15], [629148.75, 5220766.65], [629149.75, 5220764.65], [629151.75, 5220759.65], [629153.25, 5220756.15], [629157.25, 5220746.15], [629159.75, 5220739.65], [629160.25, 5220738.15], [629161.25, 5220736.15], [629165.25, 5220726.15], [629167.75, 5220721.65], [629168.25, 5220721.15], [629168.25, 5220717.15], [629167.75, 5220716.65], [629167.25, 5220716.65], [629166.75, 5220717.15], [629165.75, 5220719.15], [629163.75, 5220724.15], [629161.75, 5220729.15], [629160.75, 5220732.15], [629160.75, 5220732.65], [629161.25, 5220729.15], [629166.75, 5220717.15], [629167.25, 5220716.65], [629167.75, 5220716.65], [629168.25, 5220717.15], [629167.75, 5220722.15], [629167.25, 5220722.65], [629165.25, 5220727.65], [629162.75, 5220733.65], [629160.75, 5220738.65], [629159.25, 5220742.15], [629158.25, 5220745.15], [629157.25, 5220747.15], [629154.75, 5220753.65], [629154.25, 5220755.15], [629152.75, 5220758.15], [629150.75, 5220763.15], [629149.25, 5220766.65], [629146.75, 5220772.65], [629143.25, 5220781.15], [629140.75, 5220787.15], [629138.25, 5220793.15], [629134.25, 5220803.15], [629132.25, 5220808.15], [629126.25, 5220822.15], [629121.25, 5220834.15], [629119.75, 5220837.65], [629112.25, 5220855.65], [629109.75, 5220860.65], [629109.25, 5220861.15], [629107.75, 5220860.65], [629108.25, 5220857.15], [629106.75, 5220857.15], [629110.75, 5220845.15], [629111.25, 5220844.65], [629113.25, 5220839.65], [629114.75, 5220836.15], [629119.75, 5220824.15], [629122.75, 5220817.15], [629125.75, 5220809.15], [629126.75, 5220807.15], [629128.75, 5220803.65], [629129.25, 5220803.15], [629129.75, 5220799.65], [629130.25, 5220798.15], [629131.75, 5220794.65], [629132.75, 5220792.65], [629135.25, 5220786.65], [629137.25, 5220781.65], [629138.75, 5220778.15], [629141.25, 5220772.15], [629143.25, 5220767.15], [629144.75, 5220763.65], [629145.25, 5220762.15], [629146.25, 5220761.15], [629144.75, 5220762.65], [629143.75, 5220767.65], [629143.25, 5220768.15], [629141.25, 5220773.15], [629139.75, 5220776.65], [629134.75, 5220788.65], [629132.25, 5220795.15], [629131.25, 5220797.15], [629129.25, 5220802.15], [629127.75, 5220805.65], [629125.25, 5220811.65], [629124.25, 5220815.15], [629122.25, 5220819.15], [629117.25, 5220831.15], [629115.75, 5220834.65], [629113.25, 5220840.65], [629110.25, 5220848.15], [629109.25, 5220850.15], [629106.25, 5220856.15], [629104.75, 5220855.65], [629102.25, 5220853.15], [629105.75, 5220842.65], [629104.75, 5220840.65], [629105.75, 5220837.15], [629116.75, 5220810.65], [629107.25, 5220799.15], [629109.75, 5220794.65], [629110.25, 5220793.65], [629110.75, 5220793.15], [629111.75, 5220791.65], [629113.25, 5220789.65], [629116.25, 5220785.15], [629117.75, 5220783.15], [629120.75, 5220778.65], [629126.75, 5220771.65], [629127.25, 5220771.15], [629126.75, 5220771.65], [629125.75, 5220773.15], [629124.25, 5220775.15], [629121.25, 5220779.65], [629119.75, 5220781.65], [629117.75, 5220784.65], [629116.25, 5220786.65], [629113.25, 5220791.15], [629112.75, 5220792.15], [629111.75, 5220793.15], [629109.75, 5220796.15], [629108.25, 5220798.15], [629107.25, 5220799.65], [629117.25, 5220809.65], [629117.75, 5220809.15], [629140.25, 5220748.65], [629162.25, 5220693.65], [629145.25, 5220683.15], [629144.75, 5220683.65], [629143.25, 5220685.65], [629143.25, 5220686.15], [629143.75, 5220682.65], [629142.75, 5220681.65], [629142.25, 5220681.65], [629141.75, 5220682.15], [629140.75, 5220683.65], [629140.75, 5220684.15], [629139.75, 5220681.15], [629136.75, 5220679.65], [629135.25, 5220681.65], [629125.25, 5220695.15], [629124.25, 5220696.15], [629125.25, 5220695.15], [629129.25, 5220689.15], [629134.25, 5220681.15], [629135.25, 5220679.65], [629133.75, 5220678.15], [629126.75, 5220673.65], [629122.25, 5220670.15], [629121.75, 5220670.15], [629120.75, 5220671.15], [629117.75, 5220675.65], [629107.25, 5220691.65], [629098.75, 5220703.15], [629097.75, 5220704.15], [629097.25, 5220706.15], [629095.25, 5220709.15], [629102.25, 5220697.65], [629104.25, 5220694.65], [629111.75, 5220683.15], [629116.75, 5220675.15], [629117.75, 5220673.65], [629117.75, 5220673.15], [629118.75, 5220672.15], [629119.75, 5220670.65], [629119.75, 5220670.15], [629119.25, 5220669.65], [629115.75, 5220668.15], [629114.75, 5220669.15], [629112.75, 5220672.15], [629107.25, 5220680.65], [629102.75, 5220687.65], [629102.75, 5220688.15], [629103.25, 5220686.15], [629104.75, 5220682.65], [629106.75, 5220679.65], [629114.25, 5220668.15], [629114.25, 5220667.65], [629113.25, 5220666.65], [629111.75, 5220668.15], [629111.25, 5220669.65], [629111.25, 5220665.65], [629103.25, 5220661.15], [629102.75, 5220660.65], [629099.25, 5220659.15], [629075.25, 5220649.15], [629069.25, 5220655.65], [629067.25, 5220658.65], [629067.25, 5220659.15], [629066.25, 5220660.15], [629060.25, 5220669.15], [629052.75, 5220680.65], [629051.25, 5220682.65], [629049.75, 5220685.15], [629041.25, 5220696.15], [629040.75, 5220696.65], [629040.25, 5220698.65], [629038.75, 5220702.15], [629037.75, 5220703.65], [629033.75, 5220708.15], [629032.75, 5220709.15], [629032.25, 5220711.15], [629022.25, 5220725.15], [629021.75, 5220725.65], [629016.75, 5220733.65], [629015.25, 5220735.15], [629014.25, 5220735.15], [629013.75, 5220734.65], [629022.75, 5220719.15], [629024.75, 5220716.15], [629030.25, 5220707.65], [629040.75, 5220691.65], [629041.75, 5220689.65], [629038.25, 5220697.15], [629014.25, 5220732.15], [629012.75, 5220733.65], [629011.25, 5220733.15], [629007.25, 5220729.15], [629008.25, 5220724.15], [629009.25, 5220723.15], [629010.25, 5220721.65], [629010.75, 5220720.65], [629006.25, 5220727.65], [629004.75, 5220727.15], [629005.75, 5220723.65], [629007.25, 5220721.65], [629008.25, 5220720.15], [629013.75, 5220711.65], [629014.25, 5220710.15], [629015.25, 5220709.15], [629018.25, 5220704.65], [629019.75, 5220702.65], [629027.75, 5220691.65], [629028.25, 5220691.15], [629027.75, 5220691.65], [629017.75, 5220706.65], [629007.25, 5220722.65], [629005.25, 5220725.65], [629004.75, 5220727.15], [629007.75, 5220729.65], [629008.25, 5220729.65], [629009.25, 5220728.65], [629021.25, 5220710.65], [629023.25, 5220707.15], [629025.25, 5220704.15], [629033.25, 5220694.15], [629034.25, 5220693.15], [629034.75, 5220689.15], [629034.25, 5220691.15], [629027.75, 5220702.65], [629026.75, 5220704.15], [629019.25, 5220715.65], [629017.25, 5220718.65], [629009.75, 5220730.15], [629010.25, 5220731.15], [629011.25, 5220731.15], [629012.25, 5220730.15], [629025.25, 5220710.15], [629030.25, 5220702.65], [629037.25, 5220691.65], [629042.25, 5220684.15], [629047.25, 5220678.15], [629048.25, 5220677.15], [629047.25, 5220678.15], [629035.25, 5220696.15], [629027.75, 5220707.65], [629026.75, 5220709.15], [629019.25, 5220720.65], [629018.75, 5220722.15], [629017.75, 5220723.15], [629012.75, 5220730.65], [629011.75, 5220732.65], [629011.75, 5220733.15], [629012.25, 5220733.65], [629014.25, 5220735.15], [629017.25, 5220736.65], [629021.25, 5220737.65], [629049.25, 5220695.65], [629073.75, 5220660.15], [629074.75, 5220659.15], [629075.75, 5220655.65], [629079.25, 5220652.15], [629102.25, 5220660.15], [629103.25, 5220661.15], [629106.75, 5220662.15], [629118.25, 5220667.15], [629122.25, 5220670.15], [629122.75, 5220670.65], [629122.25, 5220673.15], [629120.25, 5220675.15], [629119.75, 5220677.15], [629110.75, 5220692.65], [629109.75, 5220694.15], [629102.75, 5220701.65], [629102.25, 5220703.65], [629099.25, 5220710.15], [629069.75, 5220755.15], [629066.25, 5220760.65], [629064.25, 5220764.15], [629062.25, 5220767.15], [629061.75, 5220768.15], [629062.75, 5220769.15], [629078.75, 5220780.65], [629095.25, 5220789.65], [629095.75, 5220788.65], [629096.75, 5220787.65], [629100.25, 5220784.65], [629100.75, 5220782.65], [629106.75, 5220774.65], [629107.25, 5220774.15], [629106.25, 5220775.15], [629105.25, 5220776.65], [629104.25, 5220778.15], [629103.25, 5220779.65], [629098.25, 5220785.15], [629097.25, 5220784.15], [629107.25, 5220766.65], [629108.75, 5220764.65], [629110.75, 5220761.65], [629115.25, 5220754.15], [629117.75, 5220750.15], [629117.75, 5220749.65], [629117.25, 5220751.65], [629115.75, 5220755.15], [629111.75, 5220761.15], [629110.75, 5220763.65], [629110.25, 5220764.15], [629109.25, 5220765.65], [629108.25, 5220767.15], [629107.25, 5220768.65], [629106.25, 5220770.15], [629105.25, 5220771.65], [629104.25, 5220773.15], [629103.25, 5220774.65], [629102.25, 5220776.15], [629101.25, 5220777.65], [629100.25, 5220779.15], [629099.25, 5220780.65], [629098.25, 5220782.15], [629096.75, 5220784.65], [629096.25, 5220785.15], [629096.25, 5220785.65], [629097.25, 5220786.65], [629095.75, 5220788.65], [629094.25, 5220789.65], [629092.25, 5220787.65], [629094.75, 5220784.15], [629098.25, 5220772.65], [629098.75, 5220771.15], [629099.25, 5220770.65], [629099.75, 5220769.15], [629100.75, 5220767.15], [629107.25, 5220755.65], [629119.75, 5220738.15], [629120.25, 5220737.65], [629119.75, 5220738.15], [629113.75, 5220747.15], [629113.25, 5220748.65], [629112.25, 5220749.65], [629107.25, 5220757.15], [629104.25, 5220761.15], [629103.75, 5220762.65], [629102.75, 5220764.65], [629100.75, 5220769.65], [629100.75, 5220770.15], [629100.25, 5220770.65], [629096.25, 5220780.65], [629094.75, 5220784.15], [629094.75, 5220785.15], [629092.25, 5220787.65], [629070.25, 5220776.15], [629063.25, 5220769.15], [629064.75, 5220767.15], [629065.75, 5220765.65], [629069.25, 5220759.65], [629074.25, 5220752.15], [629081.75, 5220740.65], [629082.75, 5220739.15], [629090.25, 5220727.65], [629093.75, 5220722.15], [629095.25, 5220720.15], [629097.25, 5220717.15], [629100.75, 5220711.65], [629101.75, 5220710.15], [629101.75, 5220709.65], [629102.75, 5220708.65], [629104.75, 5220705.65], [629111.75, 5220694.65], [629118.75, 5220684.15], [629122.75, 5220679.15], [629123.75, 5220678.15], [629124.25, 5220676.15], [629126.75, 5220673.65], [629172.25, 5220696.65], [629187.25, 5220701.65], [629203.75, 5220687.15], [629409.25, 5220537.15], [629426.75, 5220522.65], [629440.25, 5220508.15], [629449.75, 5220490.65], [629451.25, 5220526.15], [629454.75, 5220526.15], [629455.25, 5220526.65], [629475.75, 5220531.65], [629479.75, 5220532.65], [629481.25, 5220533.15], [629481.75, 5220533.65], [629481.25, 5220533.15], [629479.25, 5220532.65], [629478.75, 5220532.15], [629475.25, 5220531.65], [629453.25, 5220526.15], [629450.75, 5220525.65], [629451.75, 5220521.65], [629454.75, 5220521.65], [629455.25, 5220522.15], [629473.75, 5220526.65], [629479.25, 5220528.15], [629481.25, 5220528.65], [629479.75, 5220528.65], [629479.25, 5220528.15], [629471.25, 5220526.15], [629470.75, 5220525.65], [629467.25, 5220525.15], [629453.25, 5220521.65], [629451.25, 5220521.15], [629456.25, 5220460.65], [629486.25, 5220345.15], [629497.75, 5220324.15], [629500.25, 5220316.15], [629504.75, 5220250.65], [629504.7, 5220250.75]]}}]}