{"type":"FeatureCollection","crs":{"type":"name","properties":{"name":"urn:ogc:def:crs:EPSG::32635"}},"features":[{"type":"Feature","properties":{"vineyard_id":"V08","status":"red"},"geometry":{"type":"Polygon","coordinates":[[[629450.0,5220550.5],[629450.3,5220552.2],[629451.4,5220553.2],[629462.4,5220556.1],[629462.9,5220557.7],[629464.1,5220558.5],[629472.9,5220560.6],[629474.3,5220560.4],[629475.4,5220559.4],[629480.0,5220560.6],[629482.2,5220559.9],[629486.0,5220560.6],[629487.6,5220559.6],[629488.3,5220557.8],[629499.5,5220560.6],[629501.0,5220560.4],[629502.1,5220559.3],[629504.5,5220559.5],[629505.9,5220558.2],[629506.8,5220554.6],[629506.7,5220531.1],[629504.9,5220529.5],[629453.7,5220516.7],[629452.3,5220516.8],[629451.0,5220530.9],[629450.0,5220535.5],[629450.0,5220546.3],[629450.4,5220547.7],[629450.0,5220550.5]]]}},{"type":"Feature","properties":{"vineyard_id":"V19","status":"red"},"geometry":{"type":"MultiPolygon","coordinates":[[[[630005.2,5219745.6],[630005.5,5219744.2],[630005.0,5219743.0],[630002.9,5219740.5],[630000.1,5219738.3],[629997.7,5219738.4],[629995.6,5219740.8],[630002.4,5219749.3],[630005.2,5219745.6]]],[[[630015.5,5219765.5],[630028.0,5219791.2],[630029.1,5219789.7],[630040.5,5219743.3],[630040.0,5219741.5],[630038.4,5219740.5],[630038.9,5219737.8],[630037.9,5219735.9],[630033.8,5219734.8],[630032.4,5219735.2],[630024.4,5219734.8],[630023.2,5219735.2],[630018.8,5219734.8],[630016.9,5219735.8],[630012.1,5219753.5],[630012.6,5219755.1],[630014.3,5219756.2],[630012.8,5219762.2],[630015.5,5219765.5]]],[[[629961.5,5219784.3],[629961.3,5219786.1],[629992.6,5219748.7],[629995.0,5219747.6],[629997.9,5219748.5],[629993.7,5219743.2],[629961.5,5219784.3]]],[[[629967.7,5219792.2],[629969.6,5219791.2],[630000.5,5219751.7],[629999.0,5219749.8],[629999.4,5219752.0],[629998.7,5219753.9],[629966.8,5219792.0],[629967.7,5219792.2]]],[[[630013.4,5219772.7],[630014.0,5219774.3],[630015.7,5219775.1],[630012.5,5219788.1],[630012.9,5219789.8],[630014.0,5219790.7],[630017.4,5219791.6],[630019.0,5219791.3],[630021.1,5219791.6],[630022.8,5219790.6],[630024.7,5219791.2],[630014.1,5219769.4],[630013.4,5219772.7]]]]}},{"type":"Feature","properties":{"vineyard_id":"V34","status":"red"},"geometry":{"type":"MultiPolygon","coordinates":[[[[630377.6,5219396.3],[630377.9,5219394.4],[630376.9,5219393.0],[630377.7,5219391.8],[630377.9,5219390.4],[630376.7,5219388.6],[630377.9,5219386.7],[630377.8,5219385.3],[630376.9,5219384.2],[630377.9,5219381.9],[630377.6,5219380.8],[630376.2,5219379.5],[630367.9,5219398.5],[630364.9,5219411.0],[630377.6,5219396.3]]],[[[630359.1,5219376.1],[630357.3,5219375.9],[630356.0,5219376.7],[630322.3,5219415.3],[630351.1,5219385.7],[630359.1,5219376.1]]],[[[630319.7,5219422.3],[630320.2,5219424.4],[630322.6,5219426.6],[630321.1,5219428.4],[630320.9,5219429.6],[630321.3,5219430.8],[630319.8,5219433.3],[630320.4,5219435.2],[630319.8,5219436.8],[630320.4,5219438.5],[630319.8,5219440.1],[630320.3,5219441.6],[630319.8,5219443.5],[630320.5,5219444.8],[630319.8,5219446.3],[630320.4,5219448.1],[630319.8,5219449.4],[630320.1,5219450.9],[630350.3,5219476.2],[630352.8,5219448.8],[630334.2,5219433.3],[630334.6,5219433.0],[630336.6,5219433.8],[630338.2,5219433.0],[630340.2,5219433.8],[630341.9,5219433.0],[630343.0,5219433.7],[630344.4,5219433.7],[630345.5,5219433.1],[630348.5,5219429.8],[630350.3,5219432.7],[630351.2,5219433.4],[630353.2,5219433.5],[630355.7,5219432.0],[630356.5,5219433.0],[630359.8,5219419.4],[630358.8,5219417.9],[630360.6,5219415.9],[630365.0,5219397.6],[630377.7,5219368.7],[630377.0,5219367.9],[630377.9,5219366.0],[630377.3,5219364.2],[630374.8,5219362.0],[630353.3,5219387.7],[630319.7,5219422.3]]],[[[630359.5,5219433.2],[630361.8,5219433.5],[630364.6,5219431.8],[630365.7,5219430.0],[630365.5,5219428.5],[630362.0,5219422.9],[630359.5,5219433.2]]],[[[630361.0,5219485.0],[630362.5,5219485.1],[630363.8,5219484.4],[630365.9,5219485.2],[630367.8,5219484.1],[630369.7,5219485.2],[630371.7,5219484.5],[630373.4,5219485.2],[630375.0,5219484.6],[630377.6,5219481.0],[630377.2,5219479.1],[630377.8,5219477.3],[630377.2,5219475.9],[630377.8,5219474.0],[630377.1,5219472.5],[630377.7,5219470.3],[630376.9,5219468.8],[630355.6,5219451.1],[630353.1,5219478.5],[630361.0,5219485.0]]]]}},{"type":"Feature","properties":{"vineyard_id":"V28","status":"red"},"geometry":{"type":"MultiPolygon","coordinates":[[[[630013.7,5219538.8],[630012.4,5219540.8],[630012.7,5219542.4],[630023.9,5219557.4],[630039.0,5219545.1],[630028.0,5219530.5],[630026.6,5219529.5],[630025.3,5219529.6],[630024.1,5219530.2],[630022.5,5219529.5],[630020.6,5219530.2],[630018.9,5219529.5],[630017.3,5219530.0],[630014.7,5219532.0],[630014.1,5219533.7],[630012.6,5219535.1],[630012.5,5219536.8],[630013.7,5219538.8]]],[[[630041.4,5219581.2],[630039.8,5219580.7],[630038.2,5219581.2],[630035.4,5219583.7],[630035.4,5219586.1],[630062.7,5219620.0],[630070.3,5219613.8],[630069.2,5219612.3],[630070.3,5219611.2],[630070.7,5219610.0],[630069.9,5219607.8],[630070.6,5219606.7],[630070.7,5219605.5],[630069.8,5219603.8],[630070.7,5219602.1],[630070.0,5219600.0],[630070.7,5219598.7],[630070.3,5219596.7],[630070.8,5219595.0],[630070.4,5219593.9],[630067.9,5219590.8],[630070.3,5219588.6],[630070.7,5219586.5],[630040.8,5219547.5],[630025.7,5219559.8],[630041.4,5219581.2]]],[[[630064.7,5219622.3],[630067.2,5219622.4],[630070.0,5219620.3],[630070.7,5219619.0],[630070.6,5219617.5],[630064.7,5219622.3]]]]}},{"type":"Feature","properties":{"vineyard_id":"V18","status":"red"},"geometry":{"type":"MultiPolygon","coordinates":[[[[630003.1,5219739.6],[630003.3,5219738.2],[630002.8,5219736.9],[630000.0,5219734.7],[629998.9,5219734.3],[629997.0,5219734.9],[629993.9,5219738.7],[629998.9,5219745.0],[630003.1,5219739.6]]],[[[629961.4,5219780.2],[629961.4,5219782.1],[629963.2,5219783.9],[629992.6,5219748.7],[629994.3,5219747.8],[629996.7,5219747.8],[629997.0,5219747.4],[629992.0,5219741.2],[629961.4,5219780.2]]],[[[629910.2,5219830.6],[629910.1,5219832.0],[629910.8,5219833.3],[629913.6,5219835.5],[629915.2,5219835.7],[629913.1,5219838.9],[629913.6,5219840.6],[629914.9,5219841.7],[629961.9,5219785.5],[629960.5,5219785.8],[629959.1,5219787.2],[629956.7,5219785.5],[629954.4,5219786.0],[629941.8,5219802.0],[629941.0,5219800.4],[629938.2,5219798.2],[629936.8,5219797.9],[629935.5,5219798.5],[629910.2,5219830.6]]],[[[629924.0,5219843.4],[629925.7,5219842.4],[629940.5,5219823.5],[629924.0,5219843.4]]]]}},{"type":"Feature","properties":{"vineyard_id":"V13","status":"red"},"geometry":{"type":"MultiPolygon","coordinates":[[[[629538.2,5220200.8],[629538.4,5220198.2],[629512.4,5220235.0],[629538.2,5220200.8]]],[[[629505.8,5220230.7],[629505.3,5220231.5],[629505.3,5220240.9],[629505.8,5220239.1],[629536.2,5220196.1],[629534.1,5220195.1],[629532.4,5220195.6],[629531.2,5220195.1],[629530.0,5220195.2],[629528.2,5220196.9],[629525.3,5220195.1],[629523.1,5220195.9],[629505.3,5220219.4],[629505.3,5220230.8],[629505.8,5220230.7]]],[[[629500.5,5220225.8],[629500.6,5220227.7],[629502.3,5220229.3],[629502.3,5220223.3],[629500.5,5220225.8]]],[[[629500.6,5220237.7],[629500.6,5220239.8],[629502.3,5220241.5],[629502.3,5220235.4],[629500.6,5220237.7]]]]}},{"type":"Feature","properties":{"vineyard_id":"V07","status":"red"},"geometry":{"type":"MultiPolygon","coordinates":[[[[629216.8,5220553.5],[629215.8,5220555.1],[629216.0,5220556.8],[629218.0,5220560.0],[629220.2,5220560.4],[629222.7,5220550.3],[629216.8,5220553.5]]],[[[629213.5,5220610.8],[629214.9,5220610.5],[629216.0,5220609.2],[629223.1,5220579.3],[629249.8,5220565.3],[629250.9,5220564.0],[629251.1,5220560.5],[629250.6,5220557.1],[629248.8,5220553.8],[629247.8,5220553.2],[629246.3,5220553.2],[629245.6,5220551.8],[629250.0,5220549.4],[629251.1,5220547.8],[629250.6,5220545.8],[629251.1,5220544.6],[629251.1,5220541.8],[629249.4,5220538.4],[629248.5,5220537.6],[629246.1,5220537.6],[629226.2,5220548.4],[629223.7,5220558.6],[629225.6,5220557.6],[629226.7,5220559.6],[629227.8,5220560.4],[629222.6,5220563.1],[629211.0,5220610.3],[629213.5,5220610.8]]],[[[629193.8,5220579.1],[629193.8,5220588.3],[629195.5,5220591.6],[629197.2,5220592.5],[629198.6,5220592.3],[629214.1,5220584.1],[629208.4,5220608.2],[629219.1,5220565.0],[629194.8,5220577.8],[629193.8,5220579.1]]]]}},{"type":"Feature","properties":{"vineyard_id":"V26","status":"red"},"geometry":{"type":"MultiPolygon","coordinates":[[[[629968.0,5219590.2],[629966.3,5219589.0],[629964.7,5219589.3],[629961.9,5219591.6],[629961.2,5219593.1],[629961.4,5219594.3],[629962.3,5219595.5],[629961.3,5219596.9],[629961.5,5219598.6],[629966.1,5219604.1],[629984.2,5219589.6],[629977.0,5219581.3],[629975.3,5219580.6],[629973.9,5219581.1],[629971.2,5219583.4],[629970.7,5219585.0],[629971.2,5219586.5],[629969.1,5219588.4],[629968.6,5219589.8],[629968.0,5219590.2]]],[[[629995.1,5219637.9],[629996.6,5219638.6],[629998.5,5219638.0],[630000.4,5219638.6],[630001.8,5219637.9],[630003.2,5219638.6],[630005.3,5219638.0],[630007.3,5219638.6],[630010.6,5219636.3],[630012.2,5219638.1],[630013.6,5219638.6],[630015.0,5219638.3],[630017.1,5219636.5],[630018.5,5219638.1],[630019.6,5219638.6],[630021.8,5219637.9],[630023.3,5219638.6],[630024.9,5219638.2],[630026.5,5219638.6],[630027.7,5219638.1],[630029.4,5219638.6],[630030.5,5219638.2],[630033.1,5219636.0],[630033.8,5219634.0],[630033.2,5219632.7],[630018.2,5219615.2],[630016.1,5219615.2],[630013.0,5219617.7],[630012.4,5219619.1],[630012.9,5219620.7],[630012.5,5219622.8],[629986.1,5219591.9],[629968.0,5219606.4],[629995.1,5219637.9]]]]}},{"type":"Feature","properties":{"vineyard_id":"V10","status":"red"},"geometry":{"type":"Polygon","coordinates":[[[629453.7,5220503.5],[629452.8,5220511.3],[629503.0,5220523.9],[629504.9,5220523.6],[629506.0,5220522.3],[629506.8,5220518.8],[629506.8,5220514.0],[629506.4,5220512.7],[629506.8,5220507.7],[629506.3,5220506.4],[629505.2,5220505.5],[629490.0,5220501.8],[629488.4,5220502.2],[629487.5,5220503.5],[629479.9,5220501.8],[629478.4,5220502.7],[629477.7,5220504.7],[629465.9,5220501.8],[629464.3,5220502.2],[629463.4,5220503.5],[629456.0,5220501.8],[629454.8,5220502.3],[629453.7,5220503.5]]]}},{"type":"Feature","properties":{"vineyard_id":"V12","status":"red"},"geometry":{"type":"MultiPolygon","coordinates":[[[[629599.3,5220251.5],[629599.5,5220250.1],[629599.1,5220249.0],[629595.9,5220246.5],[629594.5,5220246.3],[629593.2,5220246.8],[629591.6,5220246.3],[629590.2,5220246.8],[629571.7,5220271.1],[629582.0,5220274.5],[629599.3,5220251.5]]],[[[629609.7,5220270.1],[629609.9,5220268.4],[629608.9,5220267.0],[629609.8,5220265.6],[629610.0,5220264.4],[629608.9,5220262.7],[629609.9,5220261.0],[629609.8,5220259.5],[629609.2,5220258.5],[629606.5,5220256.5],[629604.4,5220256.3],[629603.3,5220257.2],[629588.5,5220276.7],[629601.9,5220280.6],[629609.7,5220270.1]]],[[[629551.7,5220297.9],[629552.1,5220300.2],[629554.8,5220302.4],[629557.8,5220304.1],[629559.9,5220303.7],[629580.1,5220277.1],[629569.8,5220273.7],[629551.7,5220297.9]]],[[[629571.8,5220299.1],[629572.1,5220301.4],[629575.5,5220304.0],[629576.7,5220304.1],[629578.0,5220303.5],[629579.5,5220304.1],[629581.3,5220303.5],[629582.8,5220304.1],[629584.2,5220303.8],[629599.9,5220283.2],[629586.6,5220279.2],[629571.8,5220299.1]]]]}},{"type":"Feature","properties":{"vineyard_id":"V05","status":"red"},"geometry":{"type":"Polygon","coordinates":[[[629364.7,5220605.1],[629358.0,5220605.2],[629354.6,5220606.2],[629353.6,5220607.3],[629353.3,5220608.9],[629369.8,5220661.2],[629371.7,5220662.1],[629376.4,5220661.7],[629378.1,5220662.1],[629380.1,5220661.5],[629381.9,5220662.1],[629384.8,5220661.2],[629386.4,5220662.1],[629389.6,5220661.3],[629390.9,5220662.1],[629394.0,5220662.1],[629398.2,5220660.5],[629398.9,5220659.3],[629398.7,5220657.7],[629400.6,5220657.1],[629402.3,5220657.3],[629403.4,5220656.7],[629405.1,5220654.3],[629404.9,5220652.8],[629403.8,5220651.6],[629405.0,5220650.1],[629405.0,5220648.6],[629403.6,5220646.7],[629405.0,5220645.0],[629405.0,5220643.3],[629401.4,5220639.9],[629399.7,5220639.9],[629398.1,5220641.1],[629387.2,5220606.0],[629385.2,5220605.1],[629382.4,5220605.9],[629380.8,5220605.1],[629378.0,5220605.1],[629375.5,5220605.9],[629373.4,5220605.1],[629370.4,5220606.0],[629368.7,5220605.1],[629366.1,5220605.7],[629364.7,5220605.1]]]}},{"type":"Feature","properties":{"vineyard_id":"V20","status":"red"},"geometry":{"type":"Polygon","coordinates":[[[630059.3,5219750.1],[630057.6,5219751.7],[630057.6,5219753.4],[630064.1,5219764.8],[630065.1,5219765.5],[630066.5,5219765.6],[630070.0,5219763.6],[630070.7,5219762.6],[630070.8,5219761.2],[630068.9,5219757.5],[630070.2,5219756.6],[630070.8,5219755.3],[630070.6,5219753.9],[630069.2,5219751.5],[630070.7,5219750.0],[630070.7,5219748.0],[630065.4,5219739.0],[630063.6,5219738.3],[630061.8,5219739.0],[630059.4,5219735.2],[630057.5,5219734.4],[630053.5,5219736.5],[630052.7,5219738.5],[630059.3,5219750.1]]]}},{"type":"Feature","properties":{"vineyard_id":"V37","status":"red"},"geometry":{"type":"Polygon","coordinates":[[[630218.1,5219353.1],[630217.2,5219354.2],[630217.2,5219355.7],[630220.5,5219361.2],[630218.1,5219362.6],[630217.2,5219363.8],[630217.2,5219365.5],[630218.9,5219368.3],[630217.4,5219369.5],[630217.2,5219371.2],[630223.5,5219381.5],[630225.2,5219382.4],[630227.2,5219381.8],[630228.9,5219382.4],[630232.5,5219380.6],[630233.5,5219382.0],[630235.1,5219382.4],[630238.9,5219380.4],[630239.8,5219379.0],[630239.6,5219377.4],[630224.0,5219352.1],[630222.8,5219351.2],[630221.6,5219351.1],[630218.1,5219353.1]]]}},{"type":"Feature","properties":{"vineyard_id":"V14","status":"yellow"},"geometry":{"type":"MultiPolygon","coordinates":[[[[629609.8,5220176.7],[629609.6,5220174.6],[629607.8,5220172.9],[629610.0,5220169.3],[629609.8,5220168.1],[629608.9,5220167.0],[629610.0,5220164.8],[629609.8,5220163.6],[629608.9,5220162.6],[629610.0,5220160.4],[629609.8,5220159.2],[629609.0,5220158.3],[629609.8,5220157.0],[629610.0,5220155.8],[629608.9,5220154.0],[629609.8,5220152.6],[629609.9,5220151.1],[629609.2,5220149.9],[629605.7,5220147.5],[629605.0,5220146.2],[629601.7,5220144.0],[629600.5,5220143.9],[629599.3,5220144.6],[629597.7,5220143.9],[629595.8,5220144.6],[629594.1,5220143.9],[629592.1,5220144.7],[629590.3,5220143.9],[629588.5,5220144.5],[629586.9,5220143.9],[629585.3,5220144.4],[629569.0,5220165.8],[629608.7,5220178.4],[629609.8,5220176.7]]],[[[629712.2,5220205.0],[629712.3,5220203.3],[629711.2,5220201.9],[629712.3,5220200.2],[629712.2,5220198.5],[629708.1,5220195.3],[629706.3,5220195.7],[629704.2,5220195.1],[629702.7,5220195.8],[629701.3,5220195.1],[629699.2,5220195.7],[629697.5,5220195.1],[629695.8,5220195.8],[629694.3,5220195.1],[629692.2,5220195.7],[629690.4,5220195.1],[629688.7,5220195.9],[629686.9,5220195.1],[629685.1,5220195.8],[629683.7,5220195.1],[629681.7,5220195.7],[629679.9,5220195.1],[629678.2,5220195.8],[629676.8,5220195.1],[629674.7,5220195.7],[629672.9,5220195.1],[629671.4,5220195.7],[629669.9,5220197.6],[629666.5,5220195.2],[629665.3,5220195.1],[629664.1,5220195.7],[629661.9,5220195.1],[629708.6,5220209.8],[629712.2,5220205.0]]],[[[629536.0,5220195.7],[629505.3,5220236.4],[629505.3,5220240.9],[629505.8,5220239.1],[629536.8,5220195.3],[629536.0,5220195.7]]],[[[629510.9,5220241.9],[629511.5,5220244.2],[629512.6,5220245.4],[629510.9,5220247.7],[629510.7,5220249.0],[629519.6,5220252.8],[629520.5,5220252.3],[629522.6,5220252.9],[629524.0,5220252.2],[629525.5,5220252.9],[629527.5,5220252.3],[629529.3,5220252.9],[629531.1,5220252.2],[629532.8,5220252.9],[629534.3,5220252.5],[629536.1,5220252.9],[629537.6,5220252.2],[629539.5,5220252.9],[629541.1,5220252.2],[629543.0,5220252.9],[629544.7,5220252.2],[629546.6,5220252.9],[629548.0,5220252.5],[629549.0,5220251.2],[629551.6,5220252.9],[629551.9,5220254.1],[629552.8,5220255.0],[629551.6,5220257.4],[629551.8,5220258.5],[629552.8,5220259.6],[629551.6,5220262.0],[629551.8,5220263.2],[629552.7,5220264.2],[629552.4,5220264.8],[629576.8,5220272.8],[629592.2,5220252.4],[629592.5,5220252.6],[629577.1,5220272.9],[629593.3,5220278.3],[629603.4,5220264.9],[629603.8,5220265.2],[629603.0,5220266.4],[629602.8,5220267.6],[629603.9,5220269.5],[629602.8,5220271.9],[629604.0,5220274.0],[629602.8,5220276.4],[629603.1,5220277.6],[629604.0,5220278.5],[629602.8,5220280.9],[629645.7,5220291.4],[629653.6,5220278.8],[629661.4,5220268.4],[629697.7,5220224.1],[629706.7,5220212.4],[629651.8,5220195.1],[629650.2,5220195.8],[629648.6,5220195.1],[629646.6,5220195.8],[629645.3,5220195.1],[629643.2,5220195.7],[629641.4,5220195.1],[629639.7,5220195.8],[629637.7,5220195.1],[629636.0,5220195.9],[629634.0,5220195.1],[629632.4,5220195.7],[629631.1,5220195.1],[629629.0,5220195.7],[629627.0,5220195.1],[629625.6,5220195.7],[629623.8,5220195.1],[629622.0,5220195.8],[629620.3,5220195.1],[629618.4,5220195.8],[629616.4,5220195.1],[629614.9,5220195.8],[629613.0,5220195.1],[629611.4,5220195.8],[629609.9,5220195.1],[629608.6,5220193.6],[629610.0,5220191.4],[629609.7,5220189.9],[629608.8,5220188.8],[629609.8,5220187.4],[629610.0,5220185.9],[629608.7,5220184.0],[629610.0,5220181.9],[629567.1,5220168.4],[629551.9,5220188.6],[629551.7,5220190.5],[629552.9,5220192.1],[629551.8,5220193.6],[629551.6,5220195.1],[629550.0,5220195.9],[629548.2,5220195.1],[629546.5,5220195.7],[629544.5,5220195.1],[629543.0,5220195.9],[629541.9,5220195.2],[629540.6,5220195.1],[629508.4,5220240.6],[629507.1,5220246.9],[629510.9,5220241.9]]],[[[629501.4,5220241.6],[629502.3,5220242.9],[629502.3,5220240.4],[629501.4,5220241.6]]],[[[629551.8,5220267.7],[629553.0,5220269.0],[629551.8,5220270.7],[629551.6,5220271.9],[629552.5,5220273.8],[629551.6,5220276.0],[629552.8,5220278.0],[629551.6,5220280.5],[629552.7,5220282.5],[629551.6,5220284.9],[629551.9,5220286.1],[629552.9,5220287.0],[629551.6,5220289.7],[629552.8,5220291.7],[629551.8,5220293.1],[629551.6,5220294.5],[629552.6,5220296.2],[629555.2,5220298.1],[629556.7,5220298.3],[629558.3,5220297.4],[629574.9,5220275.3],[629551.8,5220267.7]]],[[[629557.5,5220299.1],[629557.8,5220301.4],[629561.5,5220304.1],[629562.7,5220304.1],[629563.8,5220303.5],[629565.8,5220304.1],[629567.3,5220303.3],[629569.1,5220304.1],[629570.9,5220303.5],[629572.4,5220304.1],[629573.8,5220303.8],[629591.4,5220280.8],[629575.2,5220275.4],[629557.5,5220299.1]]],[[[629602.9,5220289.2],[629602.9,5220290.9],[629604.0,5220292.2],[629602.8,5220294.2],[629603.0,5220295.6],[629603.9,5220296.7],[629602.9,5220298.4],[629603.0,5220300.1],[629606.2,5220302.9],[629608.2,5220303.2],[629609.9,5220304.1],[629612.0,5220303.5],[629613.8,5220304.2],[629615.5,5220303.5],[629617.3,5220304.2],[629619.0,5220303.4],[629620.7,5220304.1],[629622.6,5220303.4],[629624.3,5220304.1],[629626.0,5220303.6],[629627.6,5220304.2],[629629.3,5220303.4],[629630.9,5220304.1],[629632.9,5220303.4],[629633.2,5220303.6],[629643.3,5220293.9],[629606.2,5220284.8],[629602.9,5220289.2]]]]}},{"type":"Feature","properties":{"vineyard_id":"V39","status":"yellow"},"geometry":{"type":"MultiPolygon","coordinates":[[[[630229.6,5219274.1],[630227.9,5219273.6],[630226.5,5219274.1],[630225.0,5219273.6],[630223.2,5219274.2],[630221.5,5219274.0],[630217.9,5219276.1],[630217.2,5219278.4],[630218.6,5219281.0],[630217.3,5219282.4],[630217.3,5219284.3],[630229.6,5219274.1]]],[[[630194.9,5219290.4],[630194.4,5219291.4],[630194.5,5219292.9],[630198.8,5219299.7],[630213.5,5219287.5],[630209.8,5219281.8],[630207.6,5219281.1],[630204.1,5219283.1],[630203.3,5219284.5],[630200.0,5219286.3],[630194.9,5219290.4]]],[[[630200.4,5219302.3],[630247.3,5219376.1],[630260.0,5219371.3],[630275.5,5219355.9],[630274.2,5219353.7],[630275.2,5219352.8],[630275.6,5219351.7],[630275.5,5219350.5],[630274.3,5219348.6],[630275.6,5219346.7],[630274.5,5219343.9],[630275.6,5219342.4],[630275.4,5219340.7],[630233.6,5219274.7],[630217.1,5219288.4],[630218.2,5219290.8],[630217.3,5219291.8],[630217.1,5219293.1],[630215.1,5219290.0],[630200.4,5219302.3]]],[[[630250.9,5219381.7],[630252.6,5219382.5],[630254.4,5219381.8],[630256.5,5219382.4],[630257.8,5219381.8],[630259.7,5219382.4],[630261.5,5219381.7],[630262.9,5219382.4],[630264.8,5219381.9],[630266.1,5219382.4],[630268.0,5219381.9],[630269.7,5219382.4],[630273.6,5219380.3],[630275.6,5219376.2],[630275.5,5219375.0],[630274.5,5219373.3],[630275.3,5219372.4],[630275.7,5219371.2],[630274.6,5219368.7],[630275.6,5219366.9],[630275.5,5219365.7],[630274.4,5219363.9],[630275.6,5219362.3],[630275.3,5219360.4],[630261.6,5219373.9],[630248.9,5219378.7],[630250.9,5219381.7]]]]}},{"type":"Feature","properties":{"vineyard_id":"V16","status":"yellow"},"geometry":{"type":"MultiPolygon","coordinates":[[[[629833.2,5219939.6],[629830.8,5219939.2],[629829.6,5219940.0],[629808.1,5219968.1],[629807.7,5219970.2],[629833.2,5219939.6]]],[[[629763.4,5220009.0],[629763.5,5220007.3],[629762.5,5220006.1],[629763.5,5220004.6],[629763.6,5220003.4],[629762.3,5220001.5],[629763.6,5219999.1],[629763.3,5219997.7],[629762.4,5219996.8],[629763.5,5219994.6],[629762.7,5219992.6],[629759.2,5219990.3],[629757.0,5219991.0],[629754.9,5219990.3],[629753.4,5219991.1],[629751.6,5219990.3],[629749.8,5219991.0],[629748.1,5219990.3],[629746.4,5219990.9],[629745.1,5219990.3],[629743.9,5219990.4],[629742.7,5219991.3],[629715.5,5220027.4],[629736.4,5220006.6],[629737.4,5220006.6],[629760.5,5220013.0],[629763.4,5220009.0]]],[[[629655.1,5220084.9],[629654.4,5220085.8],[629718.1,5220101.7],[629720.5,5220098.6],[629721.9,5220099.3],[629723.9,5220098.8],[629725.8,5220099.3],[629726.9,5220098.9],[629727.9,5220097.8],[629729.9,5220099.2],[629731.3,5220099.3],[629732.8,5220098.4],[629763.2,5220058.5],[629763.4,5220056.1],[629761.3,5220054.2],[629763.5,5220051.0],[629763.5,5220049.5],[629762.5,5220048.3],[629763.1,5220047.5],[629765.5,5220048.1],[629767.3,5220046.5],[629770.2,5220048.1],[629772.3,5220047.2],[629774.2,5220048.1],[629776.2,5220047.3],[629778.0,5220048.1],[629779.9,5220047.3],[629781.7,5220048.1],[629783.6,5220047.4],[629785.2,5220048.1],[629787.1,5220047.5],[629788.5,5220048.1],[629789.9,5220047.9],[629808.0,5220023.9],[629809.0,5220024.7],[629807.6,5220027.2],[629807.9,5220028.7],[629808.8,5220029.5],[629807.6,5220031.6],[629808.3,5220033.8],[629801.6,5220042.7],[629801.3,5220044.3],[629801.9,5220045.6],[629804.7,5220047.8],[629805.9,5220048.1],[629807.7,5220047.5],[629809.5,5220045.1],[629814.3,5220048.1],[629816.2,5220047.7],[629818.1,5220045.3],[629821.8,5220048.1],[629823.7,5220047.8],[629825.1,5220046.2],[629827.8,5220048.0],[629829.9,5220047.8],[629865.6,5220000.5],[629865.8,5219998.1],[629863.2,5219995.8],[629865.4,5219996.9],[629867.5,5219996.1],[629869.8,5219996.9],[629871.2,5219996.1],[629910.3,5219944.8],[629910.8,5219943.4],[629910.4,5219942.0],[629906.4,5219939.1],[629905.0,5219939.3],[629904.0,5219940.1],[629901.9,5219939.1],[629900.0,5219939.9],[629861.2,5219991.4],[629859.7,5219990.4],[629865.5,5219983.3],[629894.9,5219944.6],[629895.2,5219943.2],[629894.9,5219942.0],[629891.8,5219939.5],[629890.2,5219939.1],[629888.7,5219939.9],[629886.5,5219939.1],[629884.8,5219940.1],[629882.8,5219939.1],[629880.9,5219939.8],[629878.8,5219939.1],[629877.3,5219939.9],[629875.1,5219939.1],[629873.5,5219940.0],[629871.6,5219939.1],[629869.7,5219939.8],[629867.5,5219939.1],[629866.0,5219939.9],[629864.3,5219939.1],[629862.3,5219939.8],[629860.6,5219939.1],[629858.6,5219939.9],[629856.9,5219939.1],[629854.9,5219939.9],[629853.1,5219939.1],[629851.2,5219939.8],[629849.5,5219939.1],[629847.5,5219939.8],[629845.8,5219939.1],[629843.7,5219939.5],[629807.6,5219982.8],[629807.9,5219984.2],[629808.9,5219985.2],[629807.6,5219987.5],[629807.9,5219988.9],[629808.9,5219989.9],[629808.2,5219990.9],[629805.6,5219990.4],[629803.6,5219992.1],[629801.2,5219990.5],[629780.8,5220014.9],[629778.7,5220015.9],[629776.8,5220015.8],[629775.1,5220014.8],[629774.3,5220013.5],[629774.0,5220011.6],[629774.5,5220010.1],[629790.7,5219990.5],[629789.1,5219990.4],[629787.7,5219991.3],[629786.1,5219990.4],[629784.4,5219990.6],[629772.5,5220006.6],[629770.9,5220006.1],[629769.3,5220006.7],[629763.9,5220013.9],[629780.5,5220018.6],[629781.5,5220020.0],[629780.6,5220021.4],[629779.6,5220021.4],[629737.4,5220009.7],[629700.6,5220046.4],[629689.9,5220044.3],[629687.7,5220047.1],[629687.1,5220046.7],[629687.1,5220044.6],[629686.0,5220043.4],[629678.2,5220041.7],[629677.5,5220042.2],[629675.8,5220041.5],[629673.9,5220042.1],[629671.8,5220041.5],[629670.3,5220042.3],[629668.4,5220041.5],[629666.6,5220042.2],[629664.9,5220041.5],[629663.1,5220042.2],[629661.3,5220041.5],[629659.5,5220042.2],[629657.9,5220041.5],[629656.1,5220042.1],[629654.6,5220041.5],[629652.8,5220042.1],[629651.4,5220041.5],[629649.5,5220042.2],[629649.0,5220041.9],[629623.5,5220077.9],[629653.9,5220085.7],[629654.7,5220084.7],[629655.1,5220084.9]]],[[[629697.0,5220041.6],[629694.8,5220042.0],[629693.4,5220041.5],[629692.2,5220041.7],[629699.6,5220043.3],[629697.0,5220041.6]]],[[[629620.6,5220076.8],[629633.9,5220058.1],[629619.8,5220076.6],[629620.6,5220076.8]]],[[[629606.4,5220094.3],[629606.7,5220096.5],[629618.8,5220079.4],[629617.9,5220079.1],[629606.4,5220094.3]]],[[[629612.6,5220098.7],[629614.9,5220099.3],[629616.0,5220098.7],[629618.1,5220099.3],[629619.5,5220098.6],[629620.9,5220099.3],[629623.0,5220098.7],[629624.8,5220099.3],[629626.4,5220098.7],[629628.3,5220099.3],[629630.0,5220098.6],[629631.7,5220099.3],[629633.6,5220098.6],[629635.2,5220099.3],[629637.1,5220098.6],[629638.4,5220099.3],[629640.6,5220098.6],[629641.7,5220099.3],[629642.9,5220099.3],[629644.3,5220098.4],[629652.0,5220088.3],[629621.7,5220080.4],[629609.0,5220098.4],[629610.6,5220099.3],[629612.6,5220098.7]]],[[[629754.7,5220099.3],[629755.9,5220099.3],[629757.2,5220098.6],[629763.4,5220090.3],[629763.1,5220087.9],[629759.8,5220085.3],[629758.3,5220085.2],[629757.0,5220086.0],[629750.8,5220094.3],[629751.1,5220096.6],[629754.7,5220099.3]]],[[[629655.2,5220089.4],[629654.0,5220091.9],[629655.0,5220093.8],[629654.6,5220095.0],[629654.8,5220096.2],[629658.9,5220099.3],[629661.1,5220098.6],[629662.2,5220099.3],[629663.4,5220099.3],[629665.2,5220097.8],[629667.7,5220099.3],[629669.1,5220099.1],[629670.3,5220098.1],[629671.8,5220099.1],[629673.2,5220099.3],[629674.5,5220098.7],[629675.9,5220097.0],[629678.5,5220099.0],[629679.6,5220099.3],[629681.6,5220098.6],[629683.4,5220099.3],[629685.2,5220098.7],[629686.7,5220099.3],[629688.6,5220098.6],[629690.3,5220099.3],[629692.1,5220098.7],[629693.6,5220099.3],[629695.0,5220099.0],[629654.7,5220089.0],[629655.2,5220089.4]]],[[[629705.5,5220102.7],[629706.6,5220103.8],[629705.3,5220105.9],[629705.4,5220107.5],[629709.5,5220110.7],[629711.7,5220109.9],[629716.1,5220104.3],[629705.2,5220101.6],[629705.5,5220102.7]]]]}},{"type":"Feature","properties":{"vineyard_id":"V04","status":"yellow"},"geometry":{"type":"MultiPolygon","coordinates":[[[[629148.9,5220683.5],[629147.5,5220682.2],[629149.3,5220678.6],[629149.0,5220677.4],[629147.9,5220676.4],[629149.3,5220673.6],[629148.8,5220672.2],[629147.8,5220671.3],[629149.2,5220668.4],[629148.8,5220667.0],[629147.5,5220666.0],[629149.1,5220663.5],[629149.2,5220662.0],[629148.7,5220660.9],[629147.3,5220659.9],[629146.6,5220658.2],[629143.6,5220656.2],[629141.5,5220656.2],[629139.7,5220658.1],[629136.9,5220656.2],[629135.7,5220656.0],[629134.2,5220656.5],[629132.0,5220656.0],[629130.7,5220656.8],[629129.1,5220656.0],[629127.9,5220656.1],[629126.8,5220656.8],[629124.7,5220656.0],[629123.0,5220656.6],[629120.9,5220656.0],[629119.5,5220656.7],[629117.4,5220656.0],[629115.9,5220656.7],[629114.5,5220656.0],[629112.3,5220656.7],[629110.5,5220656.0],[629108.7,5220656.7],[629107.2,5220656.0],[629105.0,5220656.7],[629103.1,5220655.9],[629101.2,5220656.9],[629098.9,5220656.0],[629097.2,5220656.7],[629105.6,5220659.7],[629148.9,5220683.5]]],[[[629149.2,5220734.2],[629157.8,5220711.9],[629157.7,5220709.7],[629150.1,5220726.1],[629144.2,5220742.0],[629149.2,5220734.2]]],[[[629023.6,5220738.8],[629038.4,5220749.9],[629040.0,5220747.5],[629041.2,5220748.5],[629039.7,5220750.9],[629076.1,5220777.7],[629077.7,5220777.7],[629078.9,5220776.9],[629087.4,5220764.3],[629088.8,5220764.9],[629090.7,5220764.2],[629091.7,5220764.7],[629090.6,5220767.8],[629090.9,5220769.0],[629091.9,5220770.0],[629090.6,5220773.7],[629090.9,5220774.8],[629091.8,5220775.8],[629090.6,5220779.4],[629091.3,5220781.0],[629092.7,5220781.7],[629090.9,5220786.2],[629099.2,5220791.1],[629115.5,5220807.1],[629120.2,5220800.6],[629123.0,5220792.6],[629119.6,5220790.5],[629127.7,5220778.9],[629147.3,5220725.0],[629155.1,5220708.1],[629152.6,5220707.4],[629150.8,5220708.6],[629148.6,5220707.7],[629149.3,5220705.6],[629148.0,5220703.7],[629149.1,5220701.8],[629149.3,5220700.6],[629148.8,5220699.5],[629147.8,5220698.6],[629149.1,5220696.7],[629149.2,5220695.5],[629148.8,5220694.3],[629147.7,5220693.4],[629149.2,5220690.3],[629148.8,5220688.9],[629147.6,5220687.9],[629148.5,5220686.7],[629104.2,5220662.3],[629087.1,5220656.4],[629085.0,5220656.0],[629083.3,5220656.6],[629081.6,5220655.9],[629079.9,5220656.6],[629078.1,5220656.0],[629076.3,5220656.7],[629074.4,5220656.0],[629072.6,5220656.7],[629070.8,5220656.0],[629068.9,5220656.8],[629066.9,5220655.9],[629065.1,5220656.7],[629063.3,5220655.9],[629061.5,5220656.7],[629059.9,5220656.0],[629057.9,5220656.7],[629056.2,5220655.9],[629054.4,5220656.5],[629053.2,5220656.0],[629051.8,5220656.1],[629050.7,5220657.0],[629035.6,5220679.3],[629034.0,5220678.7],[629032.4,5220679.3],[629027.5,5220686.6],[629024.0,5220684.5],[629022.8,5220684.5],[629021.6,5220685.3],[629019.8,5220688.6],[629020.3,5220690.0],[629021.4,5220691.0],[629002.1,5220720.7],[629002.0,5220722.4],[629003.0,5220723.7],[629002.1,5220725.1],[629023.6,5220738.8]],[[629126.8,5220764.5],[629127.9,5220764.9],[629127.4,5220765.6],[629126.4,5220765.1],[629126.8,5220764.5]]],[[[629005.8,5220731.0],[629006.1,5220733.2],[629007.1,5220734.1],[629005.9,5220736.0],[629005.8,5220737.5],[629007.1,5220739.2],[629002.1,5220746.8],[629001.7,5220748.2],[629002.6,5220750.1],[629008.6,5220754.0],[629004.8,5220759.9],[629005.0,5220762.2],[629009.2,5220764.9],[629011.1,5220764.2],[629013.1,5220764.9],[629014.7,5220764.1],[629016.6,5220764.9],[629018.3,5220764.2],[629020.2,5220764.9],[629021.9,5220764.1],[629023.5,5220764.8],[629025.4,5220764.2],[629026.9,5220764.9],[629028.6,5220764.4],[629036.7,5220752.4],[629021.8,5220741.3],[629005.8,5220731.0]]],[[[629144.7,5220746.8],[629144.6,5220745.1],[629143.5,5220743.9],[629139.4,5220755.3],[629144.7,5220746.8]]],[[[629039.6,5220756.4],[629039.8,5220758.3],[629041.2,5220759.5],[629040.8,5220760.8],[629041.1,5220762.0],[629044.3,5220764.4],[629045.9,5220764.8],[629047.4,5220764.1],[629049.4,5220764.9],[629051.1,5220764.2],[629053.4,5220764.8],[629040.4,5220755.1],[629039.6,5220756.4]]],[[[629138.5,5220763.2],[629138.4,5220761.5],[629137.5,5220760.4],[629134.1,5220769.6],[629138.5,5220763.2]]],[[[629090.9,5220793.0],[629090.9,5220794.7],[629092.2,5220796.1],[629090.8,5220798.5],[629091.0,5220800.2],[629092.1,5220801.2],[629091.0,5220802.9],[629090.8,5220804.1],[629091.1,5220805.3],[629092.3,5220806.3],[629091.0,5220808.4],[629090.8,5220809.6],[629091.1,5220810.7],[629092.2,5220811.7],[629092.8,5220813.6],[629096.7,5220816.1],[629098.7,5220815.4],[629099.9,5220816.0],[629101.4,5220815.9],[629103.5,5220813.6],[629106.8,5220816.0],[629109.2,5220815.6],[629113.7,5220809.5],[629097.3,5220793.4],[629092.4,5220790.6],[629090.9,5220793.0]]]]}},{"type":"Feature","properties":{"vineyard_id":"V09","status":"yellow"},"geometry":{"type":"MultiPolygon","coordinates":[[[[629250.0,5220491.5],[629251.1,5220489.9],[629251.1,5220486.6],[629249.4,5220483.2],[629248.2,5220482.3],[629250.4,5220481.0],[629251.1,5220479.5],[629249.8,5220476.2],[629250.7,5220475.3],[629251.1,5220474.2],[629250.7,5220472.4],[629251.1,5220470.5],[629249.9,5220468.1],[629251.1,5220466.4],[629251.0,5220465.2],[629249.9,5220462.9],[629250.8,5220461.9],[629251.1,5220460.5],[629249.2,5220456.7],[629247.1,5220455.8],[629242.1,5220458.6],[629239.0,5220488.6],[629236.9,5220498.7],[629250.0,5220491.5]]],[[[629142.5,5220547.4],[629142.9,5220552.0],[629142.3,5220553.7],[629143.3,5220556.8],[629145.3,5220560.0],[629146.4,5220560.5],[629147.8,5220560.3],[629198.8,5220532.8],[629199.9,5220531.0],[629198.6,5220527.6],[629199.3,5220527.1],[629231.5,5220509.5],[629232.6,5220504.2],[629231.8,5220502.8],[629230.7,5220502.0],[629233.4,5220500.5],[629236.0,5220488.2],[629238.9,5220460.0],[629194.4,5220484.2],[629193.6,5220486.2],[629194.9,5220488.9],[629193.9,5220489.8],[629193.6,5220491.3],[629195.0,5220494.3],[629193.7,5220495.8],[629194.0,5220497.9],[629193.6,5220499.3],[629195.0,5220502.3],[629194.1,5220503.4],[629193.9,5220504.8],[629190.7,5220506.5],[629188.7,5220502.6],[629186.5,5220501.9],[629174.2,5220508.4],[629173.4,5220509.6],[629173.3,5220510.8],[629175.6,5220514.8],[629165.0,5220520.6],[629164.1,5220522.0],[629164.6,5220524.1],[629163.5,5220525.4],[629163.6,5220527.1],[629153.0,5220533.0],[629152.3,5220534.2],[629152.4,5220535.6],[629151.0,5220536.5],[629150.3,5220537.8],[629150.4,5220539.2],[629151.6,5220541.5],[629143.3,5220546.0],[629142.5,5220547.4]]]]}},{"type":"Feature","properties":{"vineyard_id":"V38","status":"yellow"},"geometry":{"type":"MultiPolygon","coordinates":[[[[630308.0,5219324.8],[630306.6,5219325.3],[630305.1,5219324.8],[630303.6,5219325.2],[630302.2,5219324.8],[630300.7,5219325.2],[630299.4,5219324.8],[630297.9,5219325.2],[630296.6,5219324.8],[630295.1,5219325.2],[630293.1,5219324.9],[630289.5,5219327.1],[630289.0,5219329.4],[630294.0,5219337.7],[630304.2,5219327.5],[630308.0,5219324.8]]],[[[630269.3,5219394.1],[630268.5,5219396.9],[630270.6,5219400.1],[630268.7,5219401.6],[630268.4,5219403.5],[630271.9,5219408.8],[630269.2,5219410.8],[630268.5,5219411.8],[630268.5,5219413.5],[630269.9,5219415.6],[630268.7,5219416.7],[630268.4,5219418.3],[630272.0,5219424.0],[630269.1,5219426.0],[630268.4,5219428.0],[630271.2,5219432.8],[630272.2,5219433.5],[630273.6,5219433.6],[630277.2,5219431.4],[630279.2,5219433.5],[630280.7,5219433.6],[630282.1,5219432.8],[630284.1,5219433.7],[630287.9,5219431.5],[630289.0,5219433.0],[630290.3,5219433.7],[630291.7,5219433.5],[630293.2,5219432.5],[630294.7,5219433.6],[630296.9,5219433.2],[630298.5,5219433.7],[630302.1,5219431.7],[630303.2,5219433.2],[630304.5,5219433.7],[630328.3,5219409.2],[630327.5,5219408.1],[630350.8,5219381.2],[630352.5,5219379.9],[630353.0,5219378.6],[630352.6,5219377.1],[630326.4,5219334.6],[630320.1,5219325.2],[630318.7,5219324.8],[630316.7,5219325.5],[630315.2,5219324.8],[630313.1,5219325.4],[630312.7,5219325.1],[630306.3,5219329.7],[630295.6,5219340.3],[630320.3,5219380.1],[630322.4,5219380.6],[630325.2,5219379.2],[630326.7,5219381.6],[630328.2,5219382.4],[630331.4,5219382.4],[630332.6,5219381.9],[630334.3,5219382.4],[630335.9,5219381.8],[630337.6,5219382.4],[630339.5,5219381.7],[630339.8,5219382.0],[630324.5,5219399.6],[630308.1,5219376.3],[630306.7,5219375.9],[630305.2,5219376.4],[630303.5,5219376.0],[630301.9,5219376.7],[630300.8,5219376.0],[630299.6,5219376.0],[630295.7,5219378.6],[630294.2,5219376.6],[630292.9,5219375.9],[630290.6,5219376.7],[630288.9,5219375.9],[630286.8,5219376.7],[630285.2,5219375.9],[630283.1,5219376.7],[630281.7,5219376.0],[630280.1,5219376.2],[630275.2,5219368.1],[630274.3,5219367.3],[630272.8,5219367.1],[630269.3,5219369.0],[630268.3,5219370.6],[630268.4,5219371.8],[630269.5,5219373.7],[630268.5,5219374.8],[630268.3,5219376.2],[630269.8,5219379.1],[630269.6,5219380.6],[630268.4,5219382.6],[630268.6,5219383.8],[630269.7,5219385.5],[630268.7,5219386.4],[630268.4,5219387.6],[630269.4,5219390.0],[630268.4,5219391.8],[630269.3,5219394.1]]],[[[630325.4,5219416.4],[630329.3,5219414.0],[630329.8,5219411.9],[630325.4,5219416.4]]],[[[630309.4,5219433.2],[630311.3,5219433.7],[630313.1,5219432.8],[630314.4,5219433.6],[630316.0,5219433.5],[630319.4,5219430.9],[630319.8,5219429.5],[630319.5,5219428.3],[630320.8,5219427.5],[630323.1,5219427.6],[630326.2,5219425.5],[630326.8,5219424.4],[630326.7,5219423.0],[630323.6,5219418.3],[630308.8,5219433.5],[630309.4,5219433.2]]]]}},{"type":"Feature","properties":{"vineyard_id":"V33","status":"yellow"},"geometry":{"type":"MultiPolygon","coordinates":[[[[630097.6,5219376.6],[630096.3,5219375.9],[630094.9,5219376.0],[630091.9,5219378.3],[630091.2,5219379.3],[630091.4,5219381.2],[630095.0,5219385.9],[630106.7,5219376.1],[630104.6,5219376.0],[630101.8,5219378.1],[630100.9,5219379.3],[630100.9,5219380.8],[630097.6,5219376.6]]],[[[630096.8,5219388.2],[630132.2,5219432.8],[630133.3,5219433.6],[630149.4,5219454.5],[630164.4,5219445.0],[630155.2,5219432.7],[630157.6,5219434.0],[630159.7,5219433.3],[630167.2,5219442.7],[630172.6,5219437.3],[630165.0,5219427.5],[630163.3,5219427.1],[630161.6,5219427.9],[630144.0,5219415.7],[630142.9,5219415.4],[630141.5,5219415.7],[630121.5,5219390.2],[630119.0,5219387.6],[630121.4,5219385.7],[630122.0,5219384.1],[630120.7,5219381.5],[630121.9,5219380.1],[630121.8,5219378.4],[630120.4,5219376.5],[630119.1,5219375.9],[630116.9,5219376.7],[630115.6,5219375.9],[630114.4,5219376.0],[630111.4,5219378.1],[630110.4,5219376.9],[630096.8,5219388.2]]],[[[630166.8,5219477.0],[630168.2,5219477.5],[630169.6,5219477.3],[630172.4,5219475.2],[630173.1,5219474.2],[630172.9,5219472.2],[630170.2,5219468.7],[630172.4,5219467.0],[630173.1,5219465.7],[630172.9,5219464.0],[630170.4,5219460.7],[630172.7,5219458.8],[630173.2,5219457.2],[630172.7,5219455.8],[630166.2,5219447.4],[630151.3,5219456.9],[630166.8,5219477.0]]]]}},{"type":"Feature","properties":{"vineyard_id":"V31","status":"yellow"},"geometry":{"type":"MultiPolygon","coordinates":[[[[630120.0,5219475.3],[630118.2,5219475.6],[630115.4,5219477.7],[630114.8,5219479.0],[630114.9,5219480.3],[630120.0,5219475.3]]],[[[630114.2,5219530.1],[630112.6,5219529.5],[630111.2,5219529.8],[630108.4,5219532.1],[630107.9,5219534.1],[630115.3,5219544.1],[630117.2,5219545.0],[630118.6,5219544.6],[630121.7,5219542.0],[630121.9,5219540.1],[630120.7,5219538.3],[630121.7,5219537.3],[630122.0,5219535.9],[630123.0,5219535.2],[630125.0,5219536.2],[630127.2,5219535.1],[630129.0,5219536.2],[630131.1,5219535.4],[630132.2,5219536.1],[630133.4,5219536.1],[630134.9,5219535.3],[630137.0,5219536.2],[630138.9,5219535.2],[630140.6,5219536.2],[630142.8,5219535.3],[630143.9,5219536.1],[630145.3,5219536.1],[630149.1,5219532.9],[630149.3,5219531.5],[630147.9,5219529.3],[630148.3,5219529.1],[630153.8,5219535.7],[630155.7,5219536.1],[630157.5,5219535.1],[630158.6,5219536.0],[630159.8,5219536.2],[630161.0,5219535.8],[630163.8,5219533.3],[630165.0,5219534.8],[630171.0,5219529.7],[630129.7,5219479.0],[630128.4,5219478.3],[630127.2,5219478.3],[630124.3,5219480.5],[630122.3,5219477.2],[630115.9,5219483.6],[630116.4,5219484.3],[630115.0,5219485.9],[630114.9,5219487.5],[630134.0,5219511.4],[630133.7,5219511.6],[630120.9,5219495.8],[630118.6,5219495.6],[630115.6,5219497.9],[630114.9,5219500.1],[630116.3,5219502.4],[630115.1,5219503.6],[630114.8,5219505.0],[630116.1,5219507.2],[630115.1,5219508.2],[630114.8,5219509.7],[630116.1,5219511.9],[630115.1,5219513.0],[630114.8,5219514.1],[630115.1,5219515.3],[630116.2,5219516.8],[630115.1,5219517.9],[630114.8,5219519.1],[630115.1,5219520.3],[630116.3,5219521.8],[630115.2,5219522.7],[630114.8,5219524.1],[630116.2,5219526.7],[630114.9,5219528.1],[630115.0,5219529.8],[630114.2,5219530.1]],[[630142.6,5219522.7],[630143.3,5219522.9],[630142.9,5219523.1],[630142.6,5219522.7]]]]}},{"type":"Feature","properties":{"vineyard_id":"V32","status":"yellow"},"geometry":{"type":"MultiPolygon","coordinates":[[[[630071.1,5219375.9],[630067.0,5219377.3],[630063.9,5219379.9],[630063.6,5219381.6],[630064.7,5219383.4],[630063.7,5219384.7],[630063.7,5219386.2],[630075.8,5219401.8],[630092.9,5219387.6],[630083.5,5219376.1],[630082.1,5219375.9],[630080.8,5219376.5],[630079.0,5219375.9],[630077.2,5219376.8],[630075.0,5219375.9],[630073.2,5219376.8],[630071.1,5219375.9]]],[[[630100.7,5219433.2],[630102.0,5219433.7],[630103.8,5219433.3],[630105.4,5219433.8],[630107.4,5219432.8],[630108.4,5219433.6],[630109.6,5219433.8],[630111.5,5219432.7],[630113.5,5219433.8],[630115.3,5219433.1],[630116.1,5219434.1],[630115.0,5219435.3],[630114.8,5219436.8],[630116.1,5219439.0],[630115.1,5219440.0],[630114.8,5219441.4],[630116.1,5219443.8],[630114.9,5219445.3],[630115.1,5219447.2],[630130.2,5219466.8],[630146.4,5219456.5],[630094.8,5219389.9],[630077.6,5219404.1],[630100.7,5219433.2]]],[[[630143.8,5219484.3],[630145.4,5219485.0],[630147.3,5219484.2],[630149.0,5219485.0],[630150.9,5219484.2],[630152.6,5219485.0],[630154.5,5219484.2],[630156.0,5219484.9],[630158.0,5219484.3],[630160.1,5219484.9],[630163.6,5219482.6],[630164.4,5219481.1],[630163.9,5219479.2],[630148.2,5219458.9],[630132.0,5219469.2],[630143.8,5219484.3]]]]}},{"type":"Feature","properties":{"vineyard_id":"V36","status":"yellow"},"geometry":{"type":"Polygon","coordinates":[[[630135.6,5219376.4],[630133.3,5219375.9],[630130.2,5219378.1],[630129.3,5219379.5],[630129.6,5219381.4],[630166.5,5219428.3],[630167.9,5219429.2],[630169.8,5219428.9],[630172.6,5219426.7],[630173.2,5219425.1],[630171.8,5219422.5],[630173.2,5219420.5],[630172.4,5219418.3],[630173.2,5219416.8],[630172.4,5219414.7],[630173.2,5219412.7],[630172.0,5219410.5],[630173.0,5219409.3],[630173.2,5219407.9],[630169.7,5219402.9],[630170.7,5219402.2],[630172.8,5219398.7],[630172.5,5219397.0],[630173.2,5219395.1],[630172.4,5219393.5],[630173.2,5219391.5],[630172.1,5219389.4],[630173.1,5219387.9],[630172.8,5219386.0],[630165.6,5219376.8],[630164.1,5219375.9],[630161.9,5219376.5],[630160.4,5219375.9],[630158.7,5219376.3],[630156.6,5219375.9],[630153.5,5219378.1],[630152.7,5219379.3],[630153.0,5219381.4],[630159.2,5219389.5],[630148.6,5219376.2],[630147.2,5219375.9],[630145.7,5219376.5],[630143.8,5219375.9],[630142.3,5219376.5],[630140.9,5219375.9],[630139.0,5219376.4],[630137.5,5219375.8],[630135.6,5219376.4]]]}},{"type":"Feature","properties":{"vineyard_id":"V11","status":"yellow"},"geometry":{"type":"Polygon","coordinates":[[[629207.2,5220466.5],[629205.3,5220468.4],[629205.5,5220470.3],[629207.4,5220473.5],[629208.8,5220474.0],[629210.0,5220473.8],[629239.1,5220458.1],[629240.7,5220454.5],[629239.1,5220451.6],[629237.6,5220450.7],[629234.8,5220451.6],[629233.8,5220450.9],[629232.3,5220450.7],[629229.7,5220452.1],[629228.0,5220450.7],[629226.7,5220450.8],[629224.8,5220451.8],[629223.6,5220450.9],[629221.9,5220450.8],[629217.6,5220453.3],[629217.1,5220454.4],[629217.2,5220455.8],[629215.4,5220456.9],[629214.6,5220457.8],[629214.4,5220459.0],[629214.9,5220460.2],[629208.1,5220464.1],[629207.3,5220465.1],[629207.2,5220466.5]]]}},{"type":"Feature","properties":{"vineyard_id":"V40","status":"yellow"},"geometry":{"type":"MultiPolygon","coordinates":[[[[630319.7,5219296.2],[630319.7,5219300.3],[630320.4,5219301.6],[630319.7,5219302.9],[630319.8,5219304.4],[630325.9,5219312.0],[630334.0,5219306.2],[630340.6,5219300.3],[630329.4,5219286.4],[630327.7,5219285.5],[630325.9,5219286.1],[630319.9,5219291.6],[630319.7,5219293.3],[630320.5,5219294.8],[630319.7,5219296.2]]],[[[630341.1,5219330.6],[630342.8,5219331.4],[630344.3,5219330.9],[630345.6,5219331.4],[630347.1,5219331.0],[630348.6,5219331.4],[630349.9,5219330.8],[630351.3,5219331.4],[630352.9,5219331.0],[630354.9,5219331.3],[630358.2,5219328.9],[630360.2,5219325.8],[630359.8,5219323.9],[630352.5,5219314.9],[630353.5,5219313.6],[630353.4,5219312.0],[630349.2,5219306.7],[630349.7,5219305.2],[630349.3,5219303.8],[630347.4,5219301.4],[630346.1,5219300.7],[630344.4,5219300.9],[630336.0,5219308.5],[630327.8,5219314.4],[630341.1,5219330.6]]]]}},{"type":"Feature","properties":{"vineyard_id":"V02","status":"green"},"geometry":{"type":"MultiPolygon","coordinates":[[[[629250.4,5220733.5],[629251.8,5220729.7],[629251.5,5220728.3],[629250.3,5220727.2],[629251.7,5220723.8],[629251.7,5220722.4],[629250.2,5220720.8],[629247.2,5220719.6],[629245.5,5220719.9],[629244.2,5220719.5],[629242.9,5220718.3],[629243.3,5220716.2],[629242.0,5220714.4],[629243.2,5220710.7],[629241.8,5220708.7],[629238.1,5220707.4],[629234.0,5220707.8],[629232.8,5220707.4],[629231.3,5220707.8],[629227.2,5220707.4],[629225.8,5220707.8],[629224.3,5220707.4],[629223.0,5220707.8],[629221.8,5220707.4],[629220.2,5220707.8],[629216.1,5220707.4],[629214.7,5220707.8],[629213.1,5220707.4],[629211.8,5220707.8],[629210.6,5220707.4],[629203.9,5220707.8],[629202.5,5220707.4],[629201.2,5220707.8],[629199.6,5220707.4],[629250.8,5220733.7],[629250.4,5220733.5]]],[[[629301.3,5220762.6],[629300.6,5220760.4],[629296.9,5220758.7],[629293.2,5220758.6],[629291.6,5220759.7],[629288.0,5220758.6],[629299.2,5220767.1],[629299.2,5220767.9],[629301.3,5220762.6]]],[[[629117.3,5220808.9],[629130.4,5220771.2],[629115.5,5220807.1],[629117.3,5220808.9]]],[[[629097.3,5220850.7],[629097.9,5220852.8],[629116.2,5220812.0],[629114.3,5220810.1],[629097.3,5220850.7]]],[[[629100.3,5220854.6],[629105.5,5220858.2],[629105.2,5220859.6],[629105.5,5220860.7],[629106.7,5220861.9],[629107.2,5220863.8],[629108.7,5220864.8],[629109.2,5220866.1],[629110.3,5220867.0],[629108.2,5220871.6],[629108.5,5220873.0],[629109.3,5220874.0],[629112.9,5220875.6],[629114.1,5220875.4],[629115.2,5220874.7],[629116.8,5220875.0],[629122.6,5220878.0],[629124.7,5220877.9],[629126.5,5220878.6],[629134.6,5220882.8],[629135.4,5220883.8],[629139.1,5220885.7],[629145.3,5220889.8],[629146.2,5220890.7],[629149.7,5220892.2],[629150.6,5220893.8],[629156.1,5220897.4],[629159.5,5220900.5],[629159.3,5220901.9],[629159.8,5220903.3],[629161.2,5220904.1],[629161.7,5220905.4],[629163.2,5220906.4],[629163.9,5220907.6],[629165.0,5220908.3],[629165.6,5220909.6],[629166.9,5220910.5],[629167.5,5220911.9],[629168.7,5220912.7],[629170.0,5220914.7],[629175.4,5220916.9],[629179.9,5220916.7],[629183.6,5220918.2],[629185.2,5220917.8],[629186.6,5220918.2],[629187.9,5220917.9],[629189.3,5220918.2],[629193.4,5220918.0],[629193.0,5220919.5],[629193.4,5220920.9],[629196.7,5220922.7],[629193.6,5220930.4],[629193.7,5220931.8],[629194.4,5220932.8],[629197.0,5220934.7],[629200.7,5220936.0],[629202.5,5220935.3],[629203.7,5220932.8],[629206.4,5220934.0],[629207.8,5220934.0],[629209.1,5220933.2],[629210.0,5220931.3],[629213.3,5220932.8],[629218.6,5220937.0],[629218.4,5220938.4],[629218.8,5220939.5],[629223.0,5220943.8],[629226.4,5220945.4],[629228.2,5220945.3],[629229.8,5220945.9],[629231.1,5220947.4],[629230.2,5220949.9],[629231.0,5220951.7],[629238.5,5220955.7],[629238.0,5220958.1],[629239.3,5220959.9],[629238.8,5220961.7],[629239.7,5220963.4],[629243.7,5220965.0],[629245.1,5220964.7],[629246.0,5220963.9],[629248.0,5220963.9],[629249.2,5220962.8],[629251.8,5220956.1],[629251.3,5220954.7],[629250.3,5220953.8],[629251.8,5220949.7],[629251.4,5220948.3],[629250.2,5220947.4],[629251.7,5220943.8],[629251.7,5220942.6],[629250.2,5220940.8],[629251.8,5220936.2],[629251.2,5220934.9],[629250.1,5220934.1],[629251.8,5220929.7],[629251.3,5220928.3],[629250.3,5220927.4],[629251.8,5220923.3],[629251.4,5220921.9],[629250.4,5220921.1],[629251.7,5220918.0],[629251.7,5220916.8],[629250.2,5220915.0],[629251.8,5220910.9],[629251.4,5220909.5],[629250.3,5220908.6],[629251.7,5220905.4],[629251.7,5220904.2],[629250.2,5220902.3],[629251.8,5220898.0],[629251.2,5220896.6],[629250.1,5220895.8],[629251.8,5220891.3],[629251.4,5220889.9],[629250.1,5220888.9],[629251.8,5220884.5],[629251.4,5220883.1],[629250.1,5220882.2],[629251.7,5220878.3],[629251.5,5220876.6],[629250.4,5220875.5],[629251.8,5220871.6],[629251.2,5220870.2],[629249.9,5220869.4],[629251.7,5220864.6],[629251.3,5220863.2],[629250.3,5220862.3],[629251.8,5220858.0],[629251.3,5220856.6],[629250.2,5220855.7],[629251.8,5220851.4],[629251.4,5220850.0],[629250.2,5220849.1],[629251.8,5220844.8],[629251.4,5220843.4],[629250.1,5220842.4],[629251.8,5220837.9],[629251.4,5220836.5],[629250.2,5220835.5],[629251.8,5220831.0],[629251.4,5220829.6],[629250.3,5220828.8],[629251.8,5220824.6],[629251.4,5220823.2],[629250.2,5220822.2],[629251.8,5220818.1],[629251.5,5220816.7],[629250.6,5220815.8],[629252.4,5220815.4],[629253.6,5220815.8],[629255.2,5220815.4],[629259.2,5220815.8],[629260.6,5220815.4],[629264.2,5220815.8],[629265.6,5220815.4],[629267.2,5220815.8],[629268.6,5220815.4],[629269.8,5220815.8],[629274.0,5220815.4],[629275.5,5220815.8],[629276.8,5220815.4],[629278.3,5220815.8],[629280.0,5220815.1],[629286.6,5220799.2],[629289.4,5220784.5],[629292.9,5220776.6],[629297.1,5220773.1],[629297.5,5220772.1],[629279.8,5220758.6],[629276.4,5220759.0],[629274.7,5220758.6],[629273.6,5220759.0],[629272.1,5220758.6],[629270.7,5220759.0],[629269.4,5220758.6],[629267.8,5220759.0],[629266.6,5220758.6],[629262.6,5220759.0],[629260.9,5220758.6],[629259.2,5220759.5],[629258.1,5220761.9],[629257.5,5220760.6],[629256.6,5220759.8],[629253.5,5220758.7],[629251.2,5220758.8],[629251.7,5220756.3],[629250.2,5220754.5],[629251.8,5220749.9],[629251.2,5220748.6],[629250.2,5220747.8],[629251.8,5220743.1],[629251.3,5220741.8],[629250.0,5220740.8],[629250.6,5220739.4],[629188.3,5220707.4],[629184.7,5220707.8],[629183.3,5220707.4],[629182.0,5220707.8],[629180.6,5220707.4],[629179.2,5220707.8],[629177.8,5220707.4],[629176.4,5220707.8],[629175.0,5220707.4],[629173.6,5220707.8],[629171.9,5220707.4],[629170.0,5220708.6],[629166.9,5220707.4],[629162.6,5220707.8],[629158.7,5220707.5],[629150.1,5220726.1],[629132.6,5220773.9],[629119.9,5220811.1],[629129.9,5220817.9],[629181.7,5220835.3],[629204.5,5220852.7],[629232.2,5220858.2],[629248.0,5220865.6],[629248.0,5220868.9],[629231.3,5220861.0],[629203.3,5220855.5],[629180.4,5220838.0],[629128.8,5220820.6],[629118.6,5220813.9],[629107.7,5220838.9],[629100.3,5220854.6]]]]}},{"type":"Feature","properties":{"vineyard_id":"V15","status":"green"},"geometry":{"type":"MultiPolygon","coordinates":[[[[629609.4,5220092.7],[629607.1,5220093.4],[629603.2,5220098.5],[629602.8,5220099.9],[629603.3,5220101.3],[629609.4,5220092.7]]],[[[629592.7,5220116.2],[629557.5,5220162.2],[629559.7,5220162.9],[629592.7,5220116.2]]],[[[629551.7,5220170.1],[629551.7,5220171.6],[629552.7,5220172.8],[629557.9,5220165.5],[629555.6,5220164.8],[629551.7,5220170.1]]],[[[629551.7,5220184.5],[629551.7,5220185.9],[629552.6,5220187.3],[629555.5,5220189.4],[629557.8,5220189.0],[629572.2,5220170.0],[629560.9,5220166.4],[629551.8,5220179.3],[629551.7,5220181.1],[629553.0,5220182.6],[629551.7,5220184.5]]],[[[629563.2,5220196.9],[629563.6,5220199.0],[629566.6,5220201.4],[629568.2,5220201.7],[629569.5,5220201.1],[629589.2,5220175.3],[629581.3,5220172.8],[629563.2,5220196.9]]],[[[629602.9,5220180.7],[629604.1,5220182.1],[629602.8,5220184.5],[629603.1,5220185.9],[629604.1,5220186.9],[629602.8,5220189.3],[629603.1,5220190.7],[629604.1,5220191.7],[629602.8,5220194.1],[629603.0,5220195.3],[629603.9,5220196.3],[629603.6,5220198.1],[629604.3,5220199.4],[629607.6,5220201.7],[629608.8,5220201.7],[629610.0,5220201.0],[629612.2,5220201.7],[629613.6,5220201.0],[629615.3,5220201.7],[629617.2,5220201.0],[629618.6,5220201.7],[629620.6,5220201.2],[629622.3,5220201.7],[629624.0,5220200.9],[629625.8,5220201.7],[629627.7,5220201.0],[629629.4,5220201.7],[629631.3,5220201.1],[629632.6,5220201.7],[629634.7,5220201.1],[629636.5,5220201.7],[629638.2,5220201.0],[629639.9,5220201.7],[629641.8,5220201.0],[629643.2,5220201.7],[629645.2,5220201.1],[629646.9,5220201.8],[629648.7,5220201.0],[629650.9,5220201.7],[629652.4,5220201.0],[629655.9,5220196.4],[629602.8,5220179.6],[629602.9,5220180.7]]],[[[629660.3,5220086.9],[629661.2,5220084.6],[629659.8,5220082.6],[629661.1,5220080.6],[629661.0,5220078.9],[629657.6,5220076.0],[629655.4,5220076.0],[629648.7,5220084.4],[629660.7,5220087.4],[629660.3,5220086.9]]],[[[629712.4,5220099.1],[629711.9,5220097.5],[629709.5,5220095.0],[629706.0,5220092.7],[629703.9,5220093.4],[629702.1,5220092.7],[629700.5,5220093.3],[629698.5,5220092.7],[629697.1,5220093.4],[629695.5,5220092.7],[629693.5,5220093.5],[629691.8,5220092.7],[629689.8,5220093.5],[629688.0,5220092.7],[629686.2,5220093.3],[629684.8,5220092.7],[629683.3,5220093.0],[629712.1,5220100.2],[629712.4,5220099.1]]],[[[629763.1,5220106.7],[629763.5,5220104.6],[629762.3,5220102.9],[629763.6,5220100.4],[629762.6,5220098.3],[629762.9,5220096.1],[629762.0,5220094.9],[629758.7,5220092.7],[629756.5,5220093.4],[629754.8,5220092.7],[629753.0,5220093.3],[629751.0,5220092.7],[629749.6,5220093.4],[629747.7,5220092.7],[629746.0,5220093.5],[629744.1,5220092.7],[629742.3,5220093.3],[629740.8,5220092.7],[629739.0,5220093.2],[629737.6,5220092.7],[629735.9,5220093.2],[629734.5,5220092.7],[629732.8,5220093.2],[629730.9,5220092.7],[629729.6,5220093.3],[629727.8,5220095.6],[629724.3,5220092.8],[629722.9,5220092.7],[629721.7,5220093.4],[629719.6,5220092.7],[629718.1,5220093.5],[629712.8,5220100.4],[629762.6,5220112.9],[629759.9,5220110.9],[629763.1,5220106.7]]],[[[629587.2,5220149.8],[629589.3,5220150.5],[629590.8,5220149.8],[629592.6,5220150.6],[629594.3,5220149.8],[629596.0,5220150.5],[629598.0,5220149.8],[629598.5,5220150.1],[629583.2,5220170.3],[629591.1,5220172.8],[629603.6,5220156.4],[629603.9,5220156.6],[629602.8,5220159.0],[629603.7,5220160.8],[629602.8,5220163.0],[629603.1,5220164.1],[629604.0,5220165.1],[629603.0,5220166.4],[629602.8,5220167.9],[629603.4,5220169.2],[629605.5,5220170.8],[629602.9,5220174.4],[629603.2,5220176.6],[629682.8,5220201.7],[629683.9,5220201.1],[629686.0,5220201.7],[629687.4,5220201.1],[629689.5,5220201.7],[629691.0,5220200.9],[629692.8,5220201.7],[629694.6,5220201.2],[629696.5,5220201.7],[629698.0,5220201.0],[629699.6,5220201.7],[629701.4,5220201.1],[629703.4,5220201.7],[629704.9,5220201.0],[629706.5,5220201.7],[629708.3,5220201.1],[629710.4,5220201.7],[629711.8,5220201.0],[629713.2,5220201.7],[629715.3,5220201.1],[629716.3,5220201.6],[629726.1,5220188.0],[629734.7,5220179.0],[629745.6,5220164.8],[629761.3,5220147.3],[629760.8,5220147.0],[629763.3,5220143.7],[629763.5,5220141.8],[629762.0,5220140.1],[629763.6,5220137.2],[629763.4,5220136.0],[629762.5,5220135.0],[629763.6,5220132.8],[629763.4,5220131.6],[629762.5,5220130.6],[629763.4,5220129.2],[629763.6,5220128.0],[629762.5,5220126.2],[629763.4,5220124.8],[629763.6,5220123.6],[629762.2,5220121.7],[629763.6,5220119.4],[629763.4,5220118.0],[629762.6,5220117.0],[629763.2,5220116.1],[629669.7,5220092.7],[629668.6,5220093.3],[629667.5,5220092.8],[629666.0,5220092.8],[629664.1,5220094.7],[629661.1,5220092.7],[629660.1,5220091.2],[629660.6,5220090.5],[629646.7,5220087.0],[629641.9,5220093.3],[629640.2,5220092.7],[629638.6,5220093.3],[629636.8,5220092.7],[629635.1,5220093.5],[629633.0,5220092.7],[629631.3,5220093.5],[629629.3,5220092.7],[629627.6,5220093.4],[629625.9,5220092.7],[629624.1,5220093.3],[629622.8,5220092.7],[629620.8,5220093.3],[629619.0,5220092.6],[629617.2,5220093.5],[629615.7,5220092.7],[629613.7,5220093.3],[629612.9,5220092.8],[629562.7,5220163.9],[629574.1,5220167.4],[629587.2,5220149.8]]],[[[629735.7,5220185.2],[629737.6,5220184.3],[629756.8,5220159.8],[629749.4,5220168.1],[629738.6,5220182.2],[629735.7,5220185.2]]],[[[629656.2,5220197.6],[629657.0,5220199.4],[629660.3,5220201.7],[629662.6,5220201.2],[629664.0,5220201.7],[629665.7,5220201.2],[629667.6,5220201.7],[629669.3,5220200.8],[629670.7,5220201.7],[629672.4,5220201.6],[629656.5,5220196.5],[629656.2,5220197.6]]]]}},{"type":"Feature","properties":{"vineyard_id":"V42","status":"green"},"geometry":{"type":"MultiPolygon","coordinates":[[[[630271.0,5219239.7],[630271.2,5219237.5],[630269.0,5219234.5],[630267.4,5219233.7],[630259.7,5219227.0],[630258.6,5219226.6],[630255.2,5219223.4],[630252.9,5219223.3],[630247.3,5219227.6],[630262.0,5219246.9],[630271.0,5219239.7]]],[[[630162.6,5219279.5],[630164.3,5219280.4],[630166.6,5219279.5],[630166.9,5219279.8],[630166.2,5219281.6],[630167.1,5219283.3],[630166.4,5219284.4],[630166.3,5219285.6],[630181.6,5219305.8],[630216.1,5219278.9],[630218.2,5219280.4],[630219.6,5219280.1],[630221.6,5219278.6],[630222.8,5219279.8],[630228.5,5219275.0],[630227.7,5219273.6],[630259.7,5219248.8],[630244.9,5219229.4],[630242.3,5219231.4],[630237.9,5219227.0],[630236.5,5219226.5],[630235.1,5219226.9],[630232.1,5219223.7],[630230.3,5219223.4],[630228.6,5219222.1],[630227.1,5219222.2],[630225.9,5219223.0],[630224.1,5219222.0],[630223.5,5219220.7],[630224.2,5219218.7],[630223.3,5219217.0],[630223.2,5219215.0],[630216.7,5219207.7],[630215.1,5219207.3],[630213.6,5219208.0],[630212.6,5219207.1],[630211.5,5219206.8],[630209.1,5219207.9],[630207.2,5219206.7],[630205.0,5219207.6],[630203.5,5219206.7],[630201.4,5219207.3],[630200.1,5219206.6],[630198.9,5219206.7],[630188.0,5219215.6],[630187.3,5219217.1],[630187.6,5219218.7],[630180.3,5219224.8],[630180.0,5219227.2],[630181.9,5219230.0],[630167.7,5219241.7],[630167.3,5219243.1],[630167.7,5219244.4],[630166.2,5219246.5],[630166.8,5219248.4],[630166.3,5219250.4],[630167.0,5219251.9],[630166.1,5219252.6],[630164.3,5219250.4],[630162.5,5219249.8],[630161.3,5219250.2],[630158.6,5219252.4],[630157.9,5219253.3],[630157.7,5219254.8],[630159.7,5219257.8],[630149.9,5219265.7],[630161.8,5219279.9],[630162.6,5219279.5]]],[[[630143.5,5219274.1],[630142.9,5219275.5],[630143.1,5219276.7],[630146.2,5219280.2],[630147.9,5219280.3],[630149.5,5219279.2],[630150.5,5219280.1],[630151.6,5219280.4],[630153.9,5219279.3],[630155.7,5219280.4],[630157.7,5219279.7],[630147.6,5219267.6],[630144.8,5219269.9],[630144.4,5219271.3],[630144.9,5219272.9],[630143.5,5219274.1]]],[[[630166.3,5219291.5],[630166.9,5219293.5],[630166.2,5219295.4],[630166.9,5219297.0],[630166.3,5219298.4],[630166.9,5219300.4],[630166.3,5219301.8],[630166.9,5219303.8],[630166.2,5219305.7],[630167.0,5219307.3],[630166.3,5219309.5],[630168.8,5219313.2],[630170.9,5219313.8],[630179.3,5219307.7],[630166.5,5219290.8],[630166.3,5219291.5]]]]}},{"type":"Feature","properties":{"vineyard_id":"V17","status":"green"},"geometry":{"type":"MultiPolygon","coordinates":[[[[630019.2,5219746.9],[630019.6,5219745.3],[630018.8,5219743.7],[630016.0,5219741.6],[630013.9,5219741.5],[630011.9,5219740.4],[630010.0,5219741.0],[630007.5,5219744.3],[630003.8,5219742.4],[630002.6,5219742.3],[630001.3,5219742.8],[629999.2,5219745.4],[630010.0,5219758.7],[630019.2,5219746.9]]],[[[629973.2,5219791.4],[629975.6,5219792.1],[629976.9,5219791.4],[629979.0,5219792.1],[629980.6,5219791.3],[629982.7,5219792.2],[629984.2,5219791.6],[630008.1,5219761.1],[629999.0,5219749.8],[629999.4,5219752.0],[629998.5,5219754.2],[629968.2,5219790.4],[629970.7,5219792.1],[629971.9,5219792.1],[629973.2,5219791.4]]],[[[629889.9,5219894.3],[629891.4,5219894.5],[629892.9,5219893.8],[629895.0,5219894.5],[629896.6,5219893.7],[629898.5,5219894.6],[629900.4,5219893.7],[629902.4,5219894.6],[629904.3,5219893.7],[629905.6,5219894.5],[629906.8,5219894.5],[629908.1,5219893.8],[629912.9,5219887.5],[629914.5,5219888.3],[629916.3,5219887.7],[629950.9,5219843.3],[629952.4,5219842.4],[629954.1,5219843.3],[629955.8,5219843.0],[629959.2,5219838.9],[629959.6,5219840.5],[629921.8,5219889.0],[629921.4,5219890.6],[629922.1,5219892.1],[629925.2,5219894.4],[629927.5,5219894.1],[629967.9,5219842.6],[629968.4,5219841.0],[629967.9,5219837.1],[629964.9,5219834.5],[629962.7,5219834.4],[629967.9,5219827.8],[629968.4,5219826.4],[629968.1,5219825.0],[629966.8,5219823.8],[629968.4,5219821.0],[629968.0,5219819.6],[629966.9,5219818.5],[629968.4,5219816.0],[629968.1,5219814.6],[629967.0,5219813.5],[629968.4,5219811.1],[629968.1,5219809.7],[629967.1,5219808.7],[629968.4,5219806.4],[629968.1,5219804.9],[629967.0,5219803.9],[629968.4,5219801.5],[629968.2,5219800.3],[629967.2,5219799.2],[629968.4,5219797.1],[629968.1,5219795.6],[629967.0,5219794.6],[629968.3,5219792.7],[629968.0,5219790.7],[629882.9,5219892.5],[629885.7,5219894.5],[629887.4,5219894.4],[629888.6,5219893.3],[629889.9,5219894.3]]]]}},{"type":"Feature","properties":{"vineyard_id":"V06","status":"green"},"geometry":{"type":"MultiPolygon","coordinates":[[[[629239.8,5220560.2],[629240.9,5220558.8],[629240.9,5220557.4],[629239.3,5220554.2],[629238.1,5220553.3],[629236.5,5220553.2],[629234.3,5220554.2],[629233.2,5220553.3],[629231.8,5220553.1],[629225.7,5220556.2],[629224.8,5220554.4],[629220.9,5220570.1],[629239.8,5220560.2]]],[[[629142.5,5220596.5],[629142.9,5220598.4],[629142.5,5220602.5],[629143.9,5220605.5],[629143.6,5220607.5],[629145.4,5220610.8],[629146.9,5220611.7],[629148.1,5220611.6],[629150.1,5220610.6],[629152.0,5220611.7],[629154.8,5220610.7],[629155.8,5220611.5],[629157.0,5220611.7],[629159.4,5220610.7],[629160.5,5220611.5],[629161.7,5220611.7],[629164.2,5220610.6],[629165.2,5220611.4],[629166.6,5220611.7],[629172.7,5220608.7],[629174.2,5220611.2],[629176.0,5220611.7],[629186.9,5220606.3],[629187.0,5220607.7],[629188.6,5220610.6],[629190.2,5220611.7],[629191.6,5220611.5],[629193.8,5220610.4],[629194.9,5220611.4],[629196.6,5220611.7],[629199.0,5220610.5],[629201.6,5220610.7],[629202.9,5220609.6],[629207.8,5220610.7],[629215.9,5220578.0],[629214.2,5220578.2],[629211.8,5220579.5],[629211.0,5220580.5],[629208.8,5220581.1],[629208.2,5220582.1],[629207.3,5220585.6],[629203.4,5220584.4],[629201.6,5220584.9],[629200.7,5220586.1],[629199.9,5220589.5],[629199.7,5220581.3],[629217.3,5220572.0],[629222.0,5220553.1],[629219.2,5220554.5],[629218.3,5220553.5],[629217.2,5220553.1],[629214.6,5220554.0],[629213.6,5220553.3],[629212.1,5220553.1],[629209.9,5220554.2],[629208.3,5220553.1],[629207.1,5220553.2],[629205.2,5220554.0],[629204.3,5220553.3],[629203.1,5220553.1],[629200.1,5220554.4],[629198.6,5220553.2],[629196.9,5220553.3],[629143.7,5220582.2],[629142.4,5220584.2],[629142.8,5220590.7],[629142.4,5220592.0],[629142.8,5220593.3],[629142.5,5220596.5]]],[[[629210.9,5220610.8],[629212.8,5220610.3],[629213.7,5220609.2],[629220.4,5220581.7],[629220.1,5220579.8],[629218.8,5220578.8],[629210.9,5220610.8]]]]}},{"type":"Feature","properties":{"vineyard_id":"V22","status":"green"},"geometry":{"type":"MultiPolygon","coordinates":[[[[630258.3,5219636.9],[630258.4,5219635.5],[630257.8,5219634.2],[630254.1,5219632.1],[630252.0,5219632.6],[630250.4,5219632.0],[630248.7,5219632.6],[630247.1,5219632.0],[630245.4,5219632.6],[630243.7,5219632.0],[630242.1,5219632.6],[630240.4,5219632.0],[630239.0,5219632.4],[630245.4,5219659.8],[630258.3,5219636.9]]],[[[630181.8,5219740.7],[630183.0,5219740.7],[630184.2,5219740.2],[630185.6,5219740.8],[630187.4,5219740.3],[630189.2,5219740.8],[630190.5,5219740.2],[630192.4,5219740.8],[630193.8,5219740.2],[630195.2,5219740.8],[630197.0,5219740.2],[630198.6,5219740.8],[630200.2,5219740.2],[630201.8,5219740.8],[630203.6,5219740.1],[630224.2,5219703.7],[630224.3,5219701.6],[630222.8,5219700.1],[630224.5,5219696.8],[630224.2,5219695.3],[630223.0,5219694.2],[630224.4,5219691.4],[630224.1,5219689.6],[630225.6,5219689.0],[630227.6,5219689.5],[630229.2,5219688.5],[630243.2,5219663.7],[630235.9,5219632.4],[630234.7,5219634.1],[630231.2,5219632.1],[630230.0,5219632.1],[630228.7,5219632.8],[630217.3,5219652.2],[630217.1,5219653.6],[630217.8,5219654.9],[630221.7,5219657.1],[630217.1,5219665.6],[630217.5,5219667.2],[630218.6,5219668.2],[630217.1,5219671.3],[630217.4,5219672.7],[630218.6,5219673.9],[630217.1,5219677.3],[630217.6,5219678.7],[630218.8,5219679.6],[630216.6,5219683.8],[630215.2,5219683.3],[630213.5,5219683.7],[630211.9,5219683.3],[630210.5,5219683.8],[630208.6,5219683.2],[630206.6,5219684.5],[630177.8,5219735.9],[630177.6,5219737.1],[630178.2,5219738.5],[630181.8,5219740.7]]]]}},{"type":"Feature","properties":{"vineyard_id":"V41","status":"green"},"geometry":{"type":"MultiPolygon","coordinates":[[[[630264.0,5219243.2],[630262.0,5219242.5],[630259.6,5219243.8],[630262.2,5219247.1],[630265.1,5219244.6],[630264.0,5219243.2]]],[[[630248.8,5219252.2],[630248.3,5219254.3],[630250.0,5219257.1],[630259.8,5219249.0],[630257.2,5219245.6],[630248.8,5219252.2]]],[[[630265.4,5219279.4],[630267.0,5219280.1],[630268.6,5219279.7],[630269.0,5219280.3],[630301.5,5219330.2],[630304.3,5219327.4],[630313.5,5219320.9],[630285.1,5219278.0],[630286.5,5219279.6],[630287.9,5219280.1],[630289.5,5219279.6],[630291.3,5219280.1],[630292.5,5219279.6],[630294.3,5219280.1],[630295.7,5219279.5],[630297.2,5219280.1],[630298.8,5219279.7],[630300.0,5219280.1],[630301.2,5219279.9],[630304.3,5219277.7],[630305.0,5219276.2],[630304.7,5219274.8],[630301.6,5219270.4],[630308.2,5219279.4],[630310.3,5219280.1],[630312.2,5219279.1],[630313.7,5219280.1],[630320.1,5219289.7],[630321.3,5219290.6],[630322.7,5219290.6],[630325.9,5219288.6],[630326.7,5219287.4],[630326.7,5219285.7],[630324.5,5219282.2],[630325.6,5219281.0],[630325.7,5219279.5],[630322.5,5219274.6],[630321.1,5219273.6],[630316.6,5219267.4],[630315.0,5219266.8],[630313.3,5219267.5],[630310.2,5219263.2],[630309.2,5219262.6],[630307.8,5219262.5],[630306.2,5219263.4],[630303.1,5219259.1],[630301.8,5219258.3],[630300.1,5219258.4],[630297.3,5219260.5],[630296.5,5219261.7],[630296.5,5219263.1],[630283.6,5219244.7],[630282.3,5219244.2],[630280.8,5219244.5],[630278.8,5219243.6],[630275.2,5219245.6],[630274.1,5219244.7],[630272.6,5219244.6],[630268.9,5219247.1],[630268.4,5219248.2],[630268.6,5219249.6],[630266.8,5219247.1],[630251.8,5219259.6],[630265.4,5219279.4]]],[[[630249.0,5219276.2],[630248.5,5219277.5],[630248.9,5219278.9],[630269.3,5219310.8],[630268.5,5219311.8],[630268.3,5219313.0],[630270.0,5219316.1],[630268.4,5219318.1],[630268.4,5219319.3],[630269.2,5219320.7],[630268.5,5219321.8],[630268.4,5219323.0],[630273.0,5219330.3],[630274.9,5219331.3],[630276.2,5219330.9],[630278.0,5219331.2],[630279.4,5219330.5],[630280.9,5219331.2],[630282.7,5219330.8],[630283.9,5219331.3],[630285.6,5219330.8],[630287.2,5219331.3],[630288.9,5219330.6],[630290.8,5219331.3],[630294.5,5219329.2],[630295.4,5219327.5],[630295.0,5219325.9],[630261.2,5219274.5],[630259.5,5219273.6],[630257.8,5219274.0],[630256.2,5219273.6],[630254.9,5219274.1],[630252.9,5219273.6],[630249.0,5219276.2]]],[[[630305.2,5219330.7],[630307.7,5219331.1],[630309.9,5219329.7],[630311.4,5219331.1],[630313.3,5219331.1],[630316.6,5219328.8],[630317.2,5219327.5],[630317.0,5219326.3],[630315.1,5219323.4],[630306.3,5219329.7],[630305.2,5219330.7]]]]}},{"type":"Feature","properties":{"vineyard_id":"V27","status":"green"},"geometry":{"type":"Polygon","coordinates":[[[629913.2,5219555.3],[629910.4,5219559.7],[629910.8,5219561.3],[629931.9,5219587.1],[629933.3,5219587.4],[629934.9,5219586.7],[629936.9,5219587.4],[629938.4,5219586.7],[629939.8,5219587.4],[629941.7,5219586.8],[629943.3,5219587.4],[629944.9,5219586.8],[629946.5,5219587.4],[629948.2,5219586.7],[629949.9,5219587.4],[629951.7,5219586.7],[629953.6,5219587.4],[629955.0,5219586.8],[629957.7,5219584.3],[629958.0,5219582.9],[629957.5,5219581.5],[629925.7,5219543.1],[629923.4,5219543.1],[629918.5,5219546.7],[629917.7,5219548.3],[629915.0,5219550.6],[629914.7,5219552.7],[629913.6,5219553.7],[629913.2,5219555.3]]]}},{"type":"Feature","properties":{"vineyard_id":"V21","status":"green"},"geometry":{"type":"MultiPolygon","coordinates":[[[[629851.5,5219688.4],[629851.8,5219687.0],[629851.3,5219685.7],[629847.8,5219683.2],[629846.1,5219683.3],[629844.7,5219684.6],[629842.2,5219683.1],[629840.0,5219684.0],[629838.8,5219683.2],[629837.6,5219683.2],[629836.1,5219684.0],[629834.1,5219683.1],[629835.2,5219684.6],[629848.6,5219692.6],[629851.5,5219688.4]]],[[[629817.0,5219679.3],[629815.5,5219678.7],[629814.1,5219679.0],[629811.1,5219681.4],[629810.7,5219682.5],[629810.9,5219683.8],[629809.4,5219683.8],[629808.1,5219684.6],[629779.6,5219725.2],[629796.2,5219736.2],[629801.0,5219740.9],[629802.6,5219739.8],[629804.9,5219740.9],[629806.9,5219740.0],[629808.9,5219740.9],[629810.1,5219740.6],[629811.1,5219739.8],[629813.2,5219740.9],[629815.2,5219740.2],[629846.9,5219695.1],[629833.1,5219686.8],[629822.8,5219672.7],[629821.5,5219670.0],[629819.6,5219670.1],[629817.0,5219672.1],[629816.0,5219674.2],[629816.5,5219675.6],[629822.4,5219683.1],[629820.5,5219683.8],[629817.0,5219679.3]]],[[[629772.2,5219735.8],[629772.0,5219737.2],[629772.5,5219738.3],[629776.2,5219740.8],[629777.4,5219740.8],[629778.6,5219740.1],[629780.9,5219740.9],[629782.5,5219739.8],[629784.6,5219740.9],[629786.7,5219740.0],[629788.0,5219740.8],[629789.2,5219740.9],[629790.7,5219740.0],[629792.4,5219740.9],[629794.6,5219740.0],[629796.8,5219740.9],[629794.4,5219738.6],[629777.8,5219727.7],[629772.2,5219735.8]]]]}},{"type":"Feature","properties":{"vineyard_id":"V24","status":"green"},"geometry":{"type":"Polygon","coordinates":[[[630064.0,5219693.1],[630063.6,5219695.0],[630064.7,5219696.7],[630063.7,5219698.2],[630063.6,5219699.4],[630065.0,5219701.3],[630063.6,5219703.8],[630063.8,5219705.2],[630064.8,5219706.3],[630063.7,5219708.1],[630063.6,5219709.5],[630064.4,5219710.7],[630067.1,5219712.6],[630069.0,5219712.9],[630070.4,5219711.9],[630121.6,5219640.0],[630121.9,5219637.6],[630120.5,5219636.1],[630119.6,5219634.1],[630116.0,5219631.9],[630113.8,5219632.7],[630112.2,5219631.9],[630110.3,5219632.5],[630108.6,5219631.9],[630106.9,5219632.8],[630070.9,5219683.3],[630069.3,5219683.2],[630068.0,5219684.2],[630063.8,5219690.3],[630063.6,5219691.5],[630064.0,5219693.1]]]}},{"type":"Feature","properties":{"vineyard_id":"V25","status":"green"},"geometry":{"type":"MultiPolygon","coordinates":[[[[629866.1,5219631.8],[629862.1,5219632.8],[629859.3,5219635.3],[629858.9,5219636.7],[629859.3,5219638.1],[629885.6,5219666.4],[629889.2,5219663.4],[629896.8,5219660.3],[629871.1,5219632.4],[629869.3,5219631.8],[629867.8,5219632.5],[629866.1,5219631.8]]],[[[629907.0,5219689.2],[629908.5,5219689.9],[629910.1,5219689.4],[629911.9,5219689.8],[629913.1,5219689.3],[629915.9,5219686.5],[629917.1,5219683.6],[629916.6,5219681.8],[629899.0,5219662.6],[629890.7,5219666.0],[629887.7,5219668.6],[629907.0,5219689.2]]]]}},{"type":"Feature","properties":{"vineyard_id":"V29","status":"green"},"geometry":{"type":"Polygon","coordinates":[[[630091.9,5219529.9],[630089.6,5219529.6],[630086.5,5219531.9],[630085.8,5219533.4],[630086.2,5219535.0],[630115.3,5219572.5],[630116.7,5219573.4],[630118.6,5219573.1],[630121.4,5219570.9],[630122.0,5219569.6],[630121.2,5219567.3],[630121.9,5219566.3],[630122.0,5219565.0],[630120.8,5219563.0],[630122.0,5219561.1],[630121.8,5219559.9],[630120.9,5219558.6],[630121.9,5219557.0],[630121.6,5219555.1],[630102.1,5219530.1],[630100.6,5219529.5],[630098.8,5219530.2],[630097.1,5219529.5],[630095.2,5219530.2],[630093.8,5219529.5],[630091.9,5219529.9]]]}},{"type":"Feature","properties":{"vineyard_id":"V01","status":"green"},"geometry":{"type":"MultiPolygon","coordinates":[[[[629077.3,5220811.0],[629077.2,5220812.7],[629078.2,5220814.1],[629081.2,5220816.0],[629083.5,5220815.5],[629097.9,5220794.0],[629091.4,5220790.0],[629077.3,5220811.0]]],[[[629116.7,5220808.3],[629115.8,5220806.5],[629112.8,5220804.5],[629116.7,5220808.3]]],[[[629090.6,5220823.5],[629091.5,5220825.7],[629094.7,5220827.3],[629093.1,5220831.1],[629093.3,5220832.8],[629094.3,5220833.8],[629097.1,5220835.1],[629092.3,5220846.6],[629092.2,5220848.3],[629093.4,5220849.8],[629096.4,5220851.0],[629097.9,5220851.1],[629099.1,5220850.3],[629100.3,5220847.7],[629114.2,5220814.3],[629114.3,5220812.6],[629115.4,5220811.1],[629109.7,5220805.6],[629106.3,5220810.5],[629103.6,5220809.8],[629101.8,5220811.1],[629098.0,5220809.8],[629097.3,5220808.3],[629094.4,5220806.3],[629092.1,5220806.3],[629088.4,5220811.7],[629089.2,5220813.9],[629092.2,5220815.9],[629093.9,5220816.0],[629090.6,5220823.5]]]]}},{"type":"Feature","properties":{"vineyard_id":"V03","status":"green"},"geometry":{"type":"MultiPolygon","coordinates":[[[[629046.7,5220748.5],[629046.7,5220746.6],[629045.3,5220745.1],[629046.8,5220742.7],[629046.7,5220741.0],[629045.7,5220739.9],[629042.3,5220737.9],[629040.1,5220738.8],[629034.6,5220747.1],[629043.3,5220753.6],[629046.7,5220748.5]]],[[[629026.1,5220760.1],[629026.6,5220762.4],[629030.1,5220764.8],[629031.3,5220764.8],[629032.6,5220764.2],[629033.9,5220764.8],[629035.1,5220764.8],[629037.2,5220762.7],[629040.1,5220764.6],[629041.2,5220764.9],[629043.0,5220764.1],[629046.1,5220759.4],[629032.9,5220749.6],[629026.1,5220760.1]]],[[[629001.2,5220760.0],[629001.1,5220761.2],[629001.8,5220762.5],[629004.7,5220764.5],[629006.4,5220764.7],[629007.8,5220763.8],[629010.3,5220760.2],[629010.6,5220758.3],[629009.9,5220757.0],[629007.2,5220755.2],[629005.3,5220754.8],[629003.9,5220755.7],[629001.2,5220760.0]]],[[[629056.0,5220763.0],[629055.3,5220760.7],[629052.4,5220758.7],[629050.1,5220758.6],[629056.0,5220763.0]]],[[[629039.7,5220773.6],[629039.7,5220775.1],[629040.4,5220776.3],[629043.4,5220778.2],[629045.5,5220778.1],[629054.4,5220765.6],[629046.2,5220759.4],[629039.7,5220769.4],[629039.6,5220770.8],[629040.5,5220772.2],[629039.7,5220773.6]]]]}},{"type":"Feature","properties":{"vineyard_id":"V23","status":"green"},"geometry":{"type":"MultiPolygon","coordinates":[[[[629829.8,5219657.1],[629829.0,5219658.6],[629829.4,5219660.2],[629851.5,5219689.5],[629853.1,5219689.7],[629854.6,5219688.8],[629856.2,5219689.7],[629858.3,5219689.1],[629859.5,5219689.7],[629861.6,5219689.8],[629866.2,5219683.9],[629865.7,5219682.0],[629864.8,5219680.7],[629865.3,5219680.3],[629867.3,5219682.4],[629873.1,5219677.3],[629865.1,5219668.6],[629866.0,5219666.7],[629865.2,5219664.8],[629865.9,5219662.6],[629864.9,5219660.7],[629865.9,5219659.2],[629865.6,5219657.3],[629849.9,5219637.4],[629847.8,5219637.4],[629844.9,5219639.5],[629844.2,5219641.0],[629844.6,5219642.7],[629842.5,5219643.1],[629839.7,5219645.3],[629839.0,5219647.4],[629836.5,5219651.1],[629829.8,5219657.1]]],[[[629873.5,5219689.2],[629875.1,5219689.8],[629876.5,5219689.5],[629879.1,5219687.1],[629879.7,5219685.8],[629879.3,5219683.9],[629875.1,5219679.5],[629869.3,5219684.7],[629873.5,5219689.2]]]]}},{"type":"Feature","properties":{"vineyard_id":"V30","status":"green"},"geometry":{"type":"MultiPolygon","coordinates":[[[[629963.5,5219485.4],[629962.9,5219486.7],[629963.0,5219488.1],[629966.2,5219492.3],[629983.3,5219478.2],[629981.6,5219478.9],[629979.4,5219478.3],[629977.8,5219479.2],[629976.1,5219478.2],[629973.9,5219479.1],[629972.5,5219478.3],[629971.0,5219478.4],[629968.1,5219480.7],[629963.5,5219485.4]]],[[[630001.5,5219535.4],[630003.8,5219536.1],[630006.1,5219534.6],[630007.2,5219535.8],[630008.4,5219536.2],[630010.4,5219535.4],[630011.5,5219536.1],[630012.7,5219536.1],[630014.3,5219535.2],[630016.0,5219536.2],[630018.2,5219535.4],[630019.8,5219536.2],[630021.8,5219535.5],[630023.4,5219536.2],[630025.1,5219535.7],[630026.9,5219536.2],[630028.2,5219535.7],[630030.0,5219536.2],[630031.1,5219535.8],[630033.7,5219533.6],[630034.4,5219531.6],[630033.8,5219530.3],[629992.0,5219479.2],[629990.5,5219478.3],[629988.4,5219478.9],[629987.7,5219478.5],[629968.1,5219494.6],[630001.5,5219535.4]]]]}},{"type":"Feature","properties":{"vineyard_id":"V35","status":"green"},"geometry":{"type":"MultiPolygon","coordinates":[[[[630357.8,5219412.5],[630354.9,5219416.1],[630355.0,5219417.6],[630358.7,5219423.6],[630361.8,5219410.7],[630360.4,5219411.0],[630357.8,5219412.5]]],[[[630364.6,5219432.9],[630366.1,5219433.6],[630367.9,5219433.2],[630370.2,5219433.5],[630373.4,5219431.5],[630374.2,5219429.7],[630373.8,5219428.3],[630364.4,5219413.1],[630361.0,5219427.2],[630364.6,5219432.9]]],[[[630355.3,5219427.1],[630353.9,5219426.8],[630352.6,5219427.4],[630350.3,5219430.1],[630349.9,5219431.5],[630350.6,5219433.3],[630355.5,5219437.3],[630357.5,5219428.8],[630355.3,5219427.1]]],[[[630372.5,5219451.2],[630374.9,5219451.0],[630377.2,5219448.4],[630377.8,5219446.8],[630377.4,5219445.4],[630360.1,5219431.0],[630358.0,5219439.4],[630372.5,5219451.2]]]]}}]}