{"type": "FeatureCollection", "features": [{"type": "Feature", "properties": {"vineyard_id": "V02", "interrow_cover": "bare_soil", "tile": "siret3_r006_c004.tif", "area_m2": 15.724}, "geometry": {"type": "Polygon", "coordinates": [[[629243.6875, 5220915.2], [629248.0, 5220904.9275], [629248.0, 5220909.725000001], [629245.6525000001, 5220915.2], [629243.6875, 5220915.2]]]}}, {"type": "Feature", "properties": {"vineyard_id": "V02", "interrow_cover": "bare_soil", "tile": "siret3_r006_c004.tif", "area_m2": 30.097}, "geometry": {"type": "Polygon", "coordinates": [[[629240.87, 5220915.2], [629248.0, 5220898.525], [629248.0, 5220903.3775], [629243.035, 5220915.2], [629240.87, 5220915.2]]]}}, {"type": "Feature", "properties": {"vineyard_id": "V02", "interrow_cover": "bare_soil", "tile": "siret3_r006_c004.tif", "area_m2": 49.012}, "geometry": {"type": "Polygon", "coordinates": [[[629237.8425, 5220915.2], [629248.0, 5220891.605], [629248.0, 5220897.0], [629240.2175, 5220915.2], [629237.8425, 5220915.2]]]}}, {"type": "Feature", "properties": {"vineyard_id": "V02", "interrow_cover": "bare_soil", "tile": "siret3_r006_c004.tif", "area_m2": 57.557}, "geometry": {"type": "Polygon", "coordinates": [[[629235.27, 5220915.2], [629248.0, 5220884.827500001], [629248.0, 5220890.0875], [629237.1875, 5220915.2], [629235.27, 5220915.2]]]}}, {"type": "Feature", "properties": {"vineyard_id": "V02", "interrow_cover": "bare_soil", "tile": "siret3_r006_c004.tif", "area_m2": 72.689}, "geometry": {"type": "Polygon", "coordinates": [[[629232.5375000001, 5220915.2], [629248.0, 5220878.1675], [629248.0, 5220883.275], [629234.6175, 5220915.2], [629232.5375000001, 5220915.2]]]}}, {"type": "Feature", "properties": {"vineyard_id": "V02", "interrow_cover": "bare_soil", "tile": "siret3_r006_c004.tif", "area_m2": 86.176}, "geometry": {"type": "Polygon", "coordinates": [[[629229.5650000001, 5220915.2], [629248.0, 5220872.1225000005], [629248.0, 5220876.61], [629231.8875000001, 5220915.2], [629229.5650000001, 5220915.2]]]}}, {"type": "Feature", "properties": {"vineyard_id": "V02", "interrow_cover": "bare_soil", "tile": "siret3_r006_c004.tif", "area_m2": 107.236}, "geometry": {"type": "Polygon", "coordinates": [[[629226.7875000001, 5220915.2], [629248.0, 5220864.955], [629248.0, 5220870.5975], [629228.9125000001, 5220915.2], [629226.7875000001, 5220915.2]]]}}, {"type": "Feature", "properties": {"vineyard_id": "V02", "interrow_cover": "bare_soil", "tile": "siret3_r006_c004.tif", "area_m2": 101.952}, "geometry": {"type": "Polygon", "coordinates": [[[629224.14, 5220915.2], [629245.765, 5220864.0], [629247.7525000001, 5220864.0], [629226.135, 5220915.2], [629224.14, 5220915.2]]]}}, {"type": "Feature", "properties": {"vineyard_id": "V02", "interrow_cover": "bare_soil", "tile": "siret3_r006_c004.tif", "area_m2": 102.848}, "geometry": {"type": "Polygon", "coordinates": [[[629221.5900000001, 5220915.2], [629242.995, 5220864.0], [629245.115, 5220864.0], [629223.4875, 5220915.2], [629221.5900000001, 5220915.2]]]}}, {"type": "Feature", "properties": {"vineyard_id": "V02", "interrow_cover": "bare_soil", "tile": "siret3_r006_c004.tif", "area_m2": 120.768}, "geometry": {"type": "Polygon", "coordinates": [[[629218.5125000001, 5220915.2], [629240.055, 5220864.0], [629242.3450000001, 5220864.0], [629220.9400000001, 5220915.2], [629218.5125000001, 5220915.2]]]}}, {"type": "Feature", "properties": {"vineyard_id": "V02", "interrow_cover": "bare_soil", "tile": "siret3_r006_c004.tif", "area_m2": 104.576}, "geometry": {"type": "Polygon", "coordinates": [[[629215.8725, 5220915.2], [629237.3075, 5220864.0], [629239.405, 5220864.0], [629217.8600000001, 5220915.2], [629215.8725, 5220915.2]]]}}, {"type": "Feature", "properties": {"vineyard_id": "V02", "interrow_cover": "bare_soil", "tile": "siret3_r006_c004.tif", "area_m2": 109.248}, "geometry": {"type": "Polygon", "coordinates": [[[629213.0325000001, 5220915.2], [629234.5800000001, 5220864.0], [629236.6575000001, 5220864.0], [629215.2225, 5220915.2], [629213.0325000001, 5220915.2]]]}}, {"type": "Feature", "properties": {"vineyard_id": "V02", "interrow_cover": "bare_soil", "tile": "siret3_r006_c004.tif", "area_m2": 108.992}, "geometry": {"type": "Polygon", "coordinates": [[[629210.285, 5220915.2], [629231.7675000001, 5220864.0], [629233.9275, 5220864.0], [629212.3825000001, 5220915.2], [629210.285, 5220915.2]]]}}, {"type": "Feature", "properties": {"vineyard_id": "V02", "interrow_cover": "bare_soil", "tile": "siret3_r006_c004.tif", "area_m2": 112.512}, "geometry": {"type": "Polygon", "coordinates": [[[629207.3125, 5220915.2], [629229.0425000001, 5220864.0], [629231.1175, 5220864.0], [629209.6325000001, 5220915.2], [629207.3125, 5220915.2]]]}}, {"type": "Feature", "properties": {"vineyard_id": "V02", "interrow_cover": "mixed", "tile": "siret3_r006_c004.tif", "area_m2": 106.496}, "geometry": {"type": "Polygon", "coordinates": [[[629204.6000000001, 5220915.2], [629226.2925000001, 5220864.0], [629228.39, 5220864.0], [629206.6625000001, 5220915.2], [629204.6000000001, 5220915.2]]]}}, {"type": "Feature", "properties": {"vineyard_id": "V02", "interrow_cover": "mixed", "tile": "siret3_r006_c004.tif", "area_m2": 104.448}, "geometry": {"type": "Polygon", "coordinates": [[[629201.9675, 5220915.2], [629223.5425000001, 5220864.0], [629225.6425000001, 5220864.0], [629203.9475, 5220915.2], [629201.9675, 5220915.2]]]}}, {"type": "Feature", "properties": {"vineyard_id": "V02", "interrow_cover": "mixed", "tile": "siret3_r006_c004.tif", "area_m2": 109.888}, "geometry": {"type": "Polygon", "coordinates": [[[629199.1575000001, 5220915.2], [629220.7575000001, 5220864.0], [629222.8925000001, 5220864.0], [629201.3150000001, 5220915.2], [629199.1575000001, 5220915.2]]]}}, {"type": "Feature", "properties": {"vineyard_id": "V02", "interrow_cover": "mixed", "tile": "siret3_r006_c004.tif", "area_m2": 101.868}, "geometry": {"type": "Polygon", "coordinates": [[[629196.8, 5220915.2], [629196.8, 5220914.305000001], [629218.2075, 5220864.0], [629220.1075, 5220864.0], [629198.505, 5220915.2], [629196.8, 5220915.2]]]}}, {"type": "Feature", "properties": {"vineyard_id": "V02", "interrow_cover": "bare_soil", "tile": "siret3_r006_c004.tif", "area_m2": 102.467}, "geometry": {"type": "Polygon", "coordinates": [[[629196.8, 5220907.57], [629215.3325, 5220864.0], [629217.5575, 5220864.0], [629196.8, 5220912.7725], [629196.8, 5220907.57]]]}}, {"type": "Feature", "properties": {"vineyard_id": "V02", "interrow_cover": "bare_soil", "tile": "siret3_r006_c004.tif", "area_m2": 75.31}, "geometry": {"type": "Polygon", "coordinates": [[[629196.8, 5220901.5925], [629212.7875000001, 5220864.0], [629214.68, 5220864.0], [629196.8, 5220906.037500001], [629196.8, 5220901.5925]]]}}, {"type": "Feature", "properties": {"vineyard_id": "V02", "interrow_cover": "bare_soil", "tile": "siret3_r006_c004.tif", "area_m2": 66.918}, "geometry": {"type": "Polygon", "coordinates": [[[629196.8, 5220895.8075], [629209.9775, 5220864.0], [629212.135, 5220864.0], [629196.8, 5220900.0600000005], [629196.8, 5220895.8075]]]}}, {"type": "Feature", "properties": {"vineyard_id": "V02", "interrow_cover": "bare_soil", "tile": "siret3_r006_c004.tif", "area_m2": 64.215}, "geometry": {"type": "Polygon", "coordinates": [[[629196.8, 5220888.5325], [629207.01, 5220864.0], [629209.3300000001, 5220864.0], [629196.8, 5220894.24], [629196.8, 5220888.5325]]]}}, {"type": "Feature", "properties": {"vineyard_id": "V02", "interrow_cover": "bare_soil", "tile": "siret3_r006_c004.tif", "area_m2": 41.275}, "geometry": {"type": "Polygon", "coordinates": [[[629196.8, 5220882.1275], [629204.3600000001, 5220864.0], [629206.3600000001, 5220864.0], [629196.8, 5220886.97], [629196.8, 5220882.1275]]]}}, {"type": "Feature", "properties": {"vineyard_id": "V02", "interrow_cover": "bare_soil", "tile": "siret3_r006_c004.tif", "area_m2": 27.823}, "geometry": {"type": "Polygon", "coordinates": [[[629196.8, 5220875.88], [629201.7525000001, 5220864.0], [629203.7100000001, 5220864.0], [629196.8, 5220880.5675], [629196.8, 5220875.88]]]}}, {"type": "Feature", "properties": {"vineyard_id": "V02", "interrow_cover": "bare_soil", "tile": "siret3_r006_c004.tif", "area_m2": 16.266}, "geometry": {"type": "Polygon", "coordinates": [[[629196.8, 5220869.4325], [629198.9850000001, 5220864.0], [629201.1025, 5220864.0], [629196.8, 5220874.32], [629196.8, 5220869.4325]]]}}, {"type": "Feature", "properties": {"vineyard_id": "V01", "interrow_cover": "bare_soil", "tile": "siret3_r021_c012.tif", "area_m2": 7.464}, "geometry": {"type": "Polygon", "coordinates": [[[629657.6, 5220145.96], [629656.435, 5220147.2], [629653.9575, 5220147.2], [629657.6, 5220142.705], [629657.6, 5220145.96]]]}}, {"type": "Feature", "properties": {"vineyard_id": "V01", "interrow_cover": "bare_soil", "tile": "siret3_r021_c012.tif", "area_m2": 21.576}, "geometry": {"type": "Polygon", "coordinates": [[[629657.6, 5220141.7525], [629653.185, 5220147.2], [629650.3875000001, 5220147.2], [629657.6, 5220137.8825], [629657.6, 5220141.7525]]]}}, {"type": "Feature", "properties": {"vineyard_id": "V01", "interrow_cover": "bare_soil", "tile": "siret3_r021_c012.tif", "area_m2": 32.111}, "geometry": {"type": "Polygon", "coordinates": [[[629646.9450000001, 5220147.2], [629657.6, 5220133.47], [629657.6, 5220136.9025], [629649.63, 5220147.2], [629646.9450000001, 5220147.2]]]}}, {"type": "Feature", "properties": {"vineyard_id": "V01", "interrow_cover": "bare_soil", "tile": "siret3_r021_c012.tif", "area_m2": 51.742}, "geometry": {"type": "Polygon", "coordinates": [[[629643.125, 5220147.2], [629657.6, 5220128.452500001], [629657.6, 5220132.492500001], [629646.185, 5220147.2], [629643.125, 5220147.2]]]}}, {"type": "Feature", "properties": {"vineyard_id": "V01", "interrow_cover": "bare_soil", "tile": "siret3_r021_c012.tif", "area_m2": 60.561}, "geometry": {"type": "Polygon", "coordinates": [[[629639.6475000001, 5220147.2], [629657.6, 5220123.7125], [629657.6, 5220127.47], [629642.3675, 5220147.2], [629639.6475000001, 5220147.2]]]}}, {"type": "Feature", "properties": {"vineyard_id": "V01", "interrow_cover": "bare_soil", "tile": "siret3_r021_c012.tif", "area_m2": 74.666}, "geometry": {"type": "Polygon", "coordinates": [[[629636.005, 5220147.2], [629657.6, 5220119.0825000005], [629657.6, 5220122.725000001], [629638.8925000001, 5220147.2], [629636.005, 5220147.2]]]}}, {"type": "Feature", "properties": {"vineyard_id": "V01", "interrow_cover": "bare_soil", "tile": "siret3_r021_c012.tif", "area_m2": 95.676}, "geometry": {"type": "Polygon", "coordinates": [[[629632.0075000001, 5220147.2], [629657.6, 5220114.305000001], [629657.6, 5220118.0975], [629635.2475, 5220147.2], [629632.0075000001, 5220147.2]]]}}, {"type": "Feature", "properties": {"vineyard_id": "V01", "interrow_cover": "bare_soil", "tile": "siret3_r021_c012.tif", "area_m2": 98.408}, "geometry": {"type": "Polygon", "coordinates": [[[629628.49, 5220147.2], [629657.6, 5220109.775], [629657.6, 5220113.327500001], [629631.2475, 5220147.2], [629628.49, 5220147.2]]]}}, {"type": "Feature", "properties": {"vineyard_id": "V01", "interrow_cover": "bare_soil", "tile": "siret3_r021_c012.tif", "area_m2": 162.894}, "geometry": {"type": "Polygon", "coordinates": [[[629623.865, 5220147.2], [629657.6, 5220103.54], [629657.6, 5220108.7975], [629627.73, 5220147.2], [629623.865, 5220147.2]]]}}, {"type": "Feature", "properties": {"vineyard_id": "V01", "interrow_cover": "bare_soil", "tile": "siret3_r021_c012.tif", "area_m2": 179.489}, "geometry": {"type": "Polygon", "coordinates": [[[629619.3575, 5220147.2], [629657.6, 5220097.5475], [629657.6, 5220102.5600000005], [629623.105, 5220147.2], [629619.3575, 5220147.2]]]}}, {"type": "Feature", "properties": {"vineyard_id": "V01", "interrow_cover": "bare_soil", "tile": "siret3_r021_c012.tif", "area_m2": 122.25}, "geometry": {"type": "Polygon", "coordinates": [[[629616.225, 5220147.2], [629655.63, 5220096.0], [629657.6, 5220096.0], [629657.6, 5220096.565], [629618.6, 5220147.2], [629616.225, 5220147.2]]]}}, {"type": "Feature", "properties": {"vineyard_id": "V01", "interrow_cover": "bare_soil", "tile": "siret3_r021_c012.tif", "area_m2": 134.592}, "geometry": {"type": "Polygon", "coordinates": [[[629612.895, 5220147.2], [629652.1875, 5220096.0], [629654.8725, 5220096.0], [629615.4675, 5220147.2], [629612.895, 5220147.2]]]}}, {"type": "Feature", "properties": {"vineyard_id": "V01", "interrow_cover": "bare_soil", "tile": "siret3_r021_c012.tif", "area_m2": 139.264}, "geometry": {"type": "Polygon", "coordinates": [[[629609.5750000001, 5220147.2], [629648.5525, 5220096.0], [629651.43, 5220096.0], [629612.1375000001, 5220147.2], [629609.5750000001, 5220147.2]]]}}, {"type": "Feature", "properties": {"vineyard_id": "V01", "interrow_cover": "bare_soil", "tile": "siret3_r021_c012.tif", "area_m2": 131.78}, "geometry": {"type": "Polygon", "coordinates": [[[629606.4, 5220147.2], [629606.4, 5220146.92], [629645.285, 5220096.0], [629647.7975, 5220096.0], [629608.8225, 5220147.2], [629606.4, 5220147.2]]]}}, {"type": "Feature", "properties": {"vineyard_id": "V01", "interrow_cover": "bare_soil", "tile": "siret3_r021_c012.tif", "area_m2": 123.368}, "geometry": {"type": "Polygon", "coordinates": [[[629606.4, 5220142.6125], [629641.9525, 5220096.0], [629644.53, 5220096.0], [629606.4, 5220145.9325], [629606.4, 5220142.6125]]]}}, {"type": "Feature", "properties": {"vineyard_id": "V01", "interrow_cover": "bare_soil", "tile": "siret3_r021_c012.tif", "area_m2": 116.7}, "geometry": {"type": "Polygon", "coordinates": [[[629606.4, 5220138.1525], [629638.525, 5220096.0], [629641.1975, 5220096.0], [629606.4, 5220141.6225000005], [629606.4, 5220138.1525]]]}}, {"type": "Feature", "properties": {"vineyard_id": "V01", "interrow_cover": "bare_soil", "tile": "siret3_r021_c012.tif", "area_m2": 120.747}, "geometry": {"type": "Polygon", "coordinates": [[[629606.4, 5220133.065], [629634.7225, 5220096.0], [629637.77, 5220096.0], [629606.4, 5220137.162500001], [629606.4, 5220133.065]]]}}, {"type": "Feature", "properties": {"vineyard_id": "V01", "interrow_cover": "bare_soil", "tile": "siret3_r021_c012.tif", "area_m2": 101.881}, "geometry": {"type": "Polygon", "coordinates": [[[629606.4, 5220128.140000001], [629631.005, 5220096.0], [629633.9675, 5220096.0], [629606.4, 5220132.077500001], [629606.4, 5220128.140000001]]]}}, {"type": "Feature", "properties": {"vineyard_id": "V01", "interrow_cover": "bare_soil", "tile": "siret3_r021_c012.tif", "area_m2": 82.463}, "geometry": {"type": "Polygon", "coordinates": [[[629606.4, 5220123.5525], [629627.3775000001, 5220096.0], [629630.2475, 5220096.0], [629606.4, 5220127.1525], [629606.4, 5220123.5525]]]}}, {"type": "Feature", "properties": {"vineyard_id": "V01", "interrow_cover": "bare_soil", "tile": "siret3_r021_c012.tif", "area_m2": 66.2}, "geometry": {"type": "Polygon", "coordinates": [[[629606.4, 5220119.0600000005], [629623.9525, 5220096.0], [629626.6225, 5220096.0], [629606.4, 5220122.5625], [629606.4, 5220119.0600000005]]]}}, {"type": "Feature", "properties": {"vineyard_id": "V01", "interrow_cover": "bare_soil", "tile": "siret3_r021_c012.tif", "area_m2": 55.521}, "geometry": {"type": "Polygon", "coordinates": [[[629606.4, 5220114.265000001], [629620.615, 5220096.0], [629623.1975, 5220096.0], [629606.4, 5220118.0675], [629606.4, 5220114.265000001]]]}}, {"type": "Feature", "properties": {"vineyard_id": "V01", "interrow_cover": "bare_soil", "tile": "siret3_r021_c012.tif", "area_m2": 43.869}, "geometry": {"type": "Polygon", "coordinates": [[[629619.855, 5220096.0], [629606.4, 5220113.29], [629606.4, 5220109.8725000005], [629616.845, 5220096.0], [629619.855, 5220096.0]]]}}, {"type": "Feature", "properties": {"vineyard_id": "V01", "interrow_cover": "bare_soil", "tile": "siret3_r021_c012.tif", "area_m2": 28.114}, "geometry": {"type": "Polygon", "coordinates": [[[629606.4, 5220105.5725], [629613.5625, 5220096.0], [629616.0925, 5220096.0], [629606.4, 5220108.875], [629606.4, 5220105.5725]]]}}, {"type": "Feature", "properties": {"vineyard_id": "V01", "interrow_cover": "bare_soil", "tile": "siret3_r021_c012.tif", "area_m2": 16.696}, "geometry": {"type": "Polygon", "coordinates": [[[629606.4, 5220101.295], [629610.4725, 5220096.0], [629612.8125, 5220096.0], [629606.4, 5220104.57], [629606.4, 5220101.295]]]}}], "crs": {"type": "name", "properties": {"name": "urn:ogc:def:crs:EPSG::32635"}}}