{"type":"FeatureCollection","crs":{"type":"name","properties":{"name":"urn:ogc:def:crs:EPSG::32635"}},"demo":true,"generated":"2026-09-26","thresholds":{"min_rows":3,"min_area_ha":0.15,"a_min_ha":0.05,"a_min_share":0.1,"b_max_cover":0.1,"confidence":"Semnal, nu verdict: rândurile și conturul blocurilor vin din pre-adnotări AI (corectate parțial în Marcaj), iar parcelele și registrul sunt DEMO. Doar controlul pe teren confirmă."},"below_threshold":[{"vineyard_id":"V01","rows":6,"area_ha":0.055},{"vineyard_id":"V03","rows":6,"area_ha":0.024},{"vineyard_id":"V05","rows":11,"area_ha":0.137},{"vineyard_id":"V07","rows":9,"area_ha":0.074},{"vineyard_id":"V08","rows":15,"area_ha":0.134},{"vineyard_id":"V10","rows":5,"area_ha":0.043},{"vineyard_id":"V11","rows":4,"area_ha":0.016},{"vineyard_id":"V12","rows":5,"area_ha":0.069},{"vineyard_id":"V13","rows":3,"area_ha":0.031},{"vineyard_id":"V18","rows":4,"area_ha":0.06},{"vineyard_id":"V19","rows":9,"area_ha":0.114},{"vineyard_id":"V20","rows":3,"area_ha":0.013},{"vineyard_id":"V23","rows":11,"area_ha":0.087},{"vineyard_id":"V24","rows":5,"area_ha":0.088},{"vineyard_id":"V25","rows":3,"area_ha":0.046},{"vineyard_id":"V26","rows":11,"area_ha":0.118},{"vineyard_id":"V27","rows":7,"area_ha":0.074},{"vineyard_id":"V28","rows":11,"area_ha":0.13},{"vineyard_id":"V29","rows":4,"area_ha":0.04},{"vineyard_id":"V30","rows":8,"area_ha":0.137},{"vineyard_id":"V31","rows":17,"area_ha":0.121},{"vineyard_id":"V33","rows":10,"area_ha":0.117},{"vineyard_id":"V35","rows":3,"area_ha":0.017},{"vineyard_id":"V36","rows":9,"area_ha":0.073},{"vineyard_id":"V37","rows":3,"area_ha":0.018},{"vineyard_id":"V40","rows":8,"area_ha":0.053}],"features":[{"type":"Feature","geometry":{"type":"MultiPolygon","coordinates":[[[[629098.114024555,5220656.131262814],[629098.0453376712,5220657.029220052],[629105.4655527999,5220659.597295898],[629118.7476152134,5220666.89302431],[629125.688602301,5220656.51153159],[629124.9644327629,5220655.966492013],[629123.0081750451,5220656.647169768],[629121.1620166968,5220655.969852227],[629119.4997086787,5220656.657769453],[629117.6322041645,5220655.957582021],[629115.8945730788,5220656.706056285],[629114.0048325564,5220655.965325732],[629112.2890113374,5220656.6553413095],[629110.4439447107,5220655.970365977],[629108.6904046648,5220656.737528657],[629106.7302736903,5220655.954478616],[629105.0020361175,5220656.6593576595],[629103.1220057276,5220655.94393534],[629101.1738885224,5220656.931763249],[629099.576093876,5220656.069028769],[629098.114024555,5220656.131262814]]],[[[629002.4183088297,5220724.63729926],[629002.5646581285,5220725.333961922],[629023.5550312297,5220738.839016331],[629038.0209577722,5220749.616676322],[629038.6370780726,5220749.539094219],[629040.0004426312,5220747.494316801],[629041.2374547933,5220748.504874004],[629039.9313950423,5220750.522128575],[629040.0384749,5220751.119939477],[629056.3462996697,5220762.959235954],[629117.0045770507,5220669.5200286005],[629104.232381886,5220662.340102321],[629085.473141311,5220656.00820749],[629083.3252406988,5220656.5846758215],[629081.312474246,5220655.955201061],[629079.8624835729,5220656.637709248],[629077.8533054334,5220655.971772796],[629076.2963551559,5220656.713583561],[629074.6423736089,5220655.966714109],[629072.641519908,5220656.66822343],[629070.7593342405,5220655.951498856],[629068.92888494,5220656.796442125],[629066.8867033363,5220655.945162511],[629065.1339134465,5220656.658887931],[629063.3013537471,5220655.940120035],[629061.5000132693,5220656.6955786],[629059.8267625464,5220655.9747594865],[629057.876740256,5220656.692318378],[629056.197732945,5220655.948795578],[629054.374158492,5220656.528208696],[629053.0058321215,5220655.948619159],[629051.578939505,5220656.210877484],[629035.6305429011,5220679.250219814],[629033.993833935,5220678.698541455],[629032.4191522489,5220679.294599323],[629027.4889319487,5220686.623176641],[629024.024649668,5220684.4571538465],[629022.5802623278,5220684.593341868],[629021.4609203616,5220685.498255933],[629019.8505383766,5220688.605593488],[629020.2658955775,5220689.995658365],[629021.4064481658,5220691.00272677],[629002.1751453143,5220720.448942596],[629001.9486592753,5220722.163888246],[629003.0294472891,5220723.713794762],[629002.4183088297,5220724.63729926]]],[[[629039.5776995245,5220756.632970815],[629039.8244384407,5220758.298511963],[629041.1662890562,5220759.545138658],[629040.8145887473,5220760.820490039],[629041.1329861549,5220762.041573944],[629044.2982475956,5220764.4522145605],[629045.9497563534,5220764.83569637],[629047.449630462,5220764.09616148],[629049.6125815815,5220764.846685045],[629051.4741438102,5220763.953973539],[629051.3465654823,5220763.2918727975],[629040.7467152495,5220755.395229046],[629040.129267966,5220755.474362399],[629039.5776995245,5220756.632970815]]],[[[629002.2791545594,5220749.789538096],[629008.5567236296,5220754.0293478565],[629004.8481363896,5220759.687922706],[629004.6917535908,5220761.594105527],[629005.6856208749,5220762.910195875],[629009.4007984406,5220764.8691165615],[629011.0897979644,5220764.217647154],[629013.1156039318,5220764.853425854],[629014.662783669,5220764.069391268],[629016.4147699827,5220764.852520778],[629018.3480118682,5220764.163279127],[629019.9546891456,5220764.849302016],[629021.9060677221,5220764.141335956],[629023.5446771103,5220764.85004833],[629025.4199537319,5220764.214074175],[629026.7165981645,5220764.829864131],[629028.1581497595,5220764.666367992],[629029.2601673779,5220763.740434377],[629036.5691587549,5220752.570771541],[629021.8211396469,5220741.288116027],[629006.2415212974,5220731.338651168],[629005.7347917475,5220731.669350478],[629005.8267486965,5220732.582412662],[629007.1157287474,5220734.0906007],[629005.908046644,5220736.023149376],[629005.7309912468,5220737.224546437],[629006.1411769808,5220738.367547389],[629007.0992040882,5220739.233362789],[629001.6967458648,5220747.967783817],[629002.2791545594,5220749.789538096]]]]},"properties":{"id":"A01","type":"A","label":"Posibilă plantare neautorizată","legal":"Reg. (UE) 1308/2013 art. 62 și 71: plantarea viței de vie pentru vin se face doar cu autorizație, iar plantările neautorizate se defrișează. În Republica Moldova: Legea 57/2006 a viei și vinului, art. 21(1) — parcelele viticole > 0,15 ha se înregistrează în Registrul vitivinicol.","confidence":"Semnal, nu verdict: rândurile și conturul blocurilor vin din pre-adnotări AI (corectate parțial în Marcaj), iar parcelele și registrul sunt DEMO. Doar controlul pe teren confirmă.","visit":[629050.34,5220709.44],"visit_snap_m":0.0,"demo":true,"vineyard_id":"V04","cad_nr":["DEMO-0002","DEMO-0003","DEMO-0004"],"area_ha":0.7597,"area_m2":7597,"share_pct":49.8,"share_of":"bloc","reason":"parcelă fără autorizație / cod RVV","block_area_ha":1.353}},{"type":"Feature","geometry":{"type":"MultiPolygon","coordinates":[[[[629225.6969246463,5220556.192971099],[629224.838524177,5220555.3077789005],[629224.4379472458,5220555.681162737],[629221.1541851738,5220569.04117308],[629221.484884042,5220569.635933524],[629239.6385668,5220560.274245866],[629240.9178952642,5220558.548583467],[629240.7906241593,5220557.150596011],[629239.2655305286,5220554.235596562],[629237.6457350325,5220553.135891906],[629236.4329725716,5220553.198427675],[629234.3499844722,5220554.241227728],[629233.224529117,5220553.275291245],[629231.7348327,5220553.120871588],[629225.6969246463,5220556.192971099]]],[[[629142.4547693172,5220596.7206356535],[629142.8507921975,5220598.379763816],[629142.4586648492,5220602.549504812],[629143.851582942,5220605.510035791],[629143.6132010306,5220607.473107695],[629145.3907138992,5220610.80342656],[629146.8280173314,5220611.680390786],[629148.08828761,5220611.616035285],[629150.1064613961,5220610.583407812],[629151.9464330049,5220611.717895248],[629154.7555699736,5220610.701573721],[629155.7978052666,5220611.53381983],[629157.0460207239,5220611.719240982],[629159.4043863191,5220610.666375449],[629160.4757102703,5220611.53430464],[629161.6753828371,5220611.722690527],[629164.233115052,5220610.579752867],[629165.1864056345,5220611.451099371],[629166.6126325114,5220611.716954328],[629172.6790300581,5220608.664192548],[629174.1895000791,5220611.144266817],[629176.0591403028,5220611.72524288],[629186.8582711716,5220606.25278],[629186.988673725,5220607.707896943],[629188.4362980794,5220610.428350599],[629190.1270308665,5220611.680218998],[629191.3872302156,5220611.614489155],[629193.823359182,5220610.353982108],[629194.9080300779,5220611.450975299],[629196.5282196583,5220611.68801599],[629198.9564107737,5220610.477439826],[629201.5439424507,5220610.689266837],[629202.8675988183,5220609.599962915],[629207.6496220921,5220610.753063202],[629215.7188531371,5220578.350932079],[629215.3250508525,5220577.977059967],[629214.3786960872,5220578.126064363],[629211.7825081013,5220579.520567851],[629210.9879183464,5220580.507994425],[629208.8496184569,5220581.100500762],[629208.1532768187,5220582.15289381],[629207.3045519034,5220585.559359081],[629203.4065174009,5220584.410052479],[629201.5978097335,5220584.87359399],[629200.7284874016,5220586.035093305],[629199.8738523491,5220589.459651302],[629199.6902843902,5220581.250462626],[629217.2891353043,5220571.970056763],[629221.6953554419,5220553.778918641],[629221.1058175674,5220553.520469299],[629219.2084745296,5220554.510795305],[629217.460234946,5220553.131477356],[629216.199700782,5220553.19043873],[629214.5582325136,5220554.011859778],[629212.5866628964,5220553.088148483],[629209.8557176226,5220554.232352581],[629208.2427510865,5220553.119752215],[629207.029563518,5220553.1734125195],[629205.238414234,5220554.046597712],[629203.2746628007,5220553.067408645],[629200.0709247008,5220554.386612008],[629199.0896254316,5220553.396757219],[629197.8675735102,5220553.082095627],[629194.9975702156,5220554.270278698],[629143.3596896479,5220582.465564429],[629142.4444493586,5220584.196293462],[629142.785517125,5220590.722376565],[629142.4436874351,5220592.011553769],[629142.8216402902,5220593.31796725],[629142.4547693172,5220596.7206356535]]],[[[629211.0381249797,5220610.198438998],[629211.385933045,5220610.798435433],[629212.3946323779,5220610.592777726],[629213.7665732286,5220608.9108034065],[629220.4479507142,5220581.505943493],[629220.2194359546,5220580.02580099],[629219.2420258383,5220578.999546802],[629218.6177741861,5220579.360579992],[629211.0381249797,5220610.198438998]]]]},"properties":{"id":"A02","type":"A","label":"Posibilă plantare neautorizată","legal":"Reg. (UE) 1308/2013 art. 62 și 71: plantarea viței de vie pentru vin se face doar cu autorizație, iar plantările neautorizate se defrișează. În Republica Moldova: Legea 57/2006 a viei și vinului, art. 21(1) — parcelele viticole > 0,15 ha se înregistrează în Registrul vitivinicol.","confidence":"Semnal, nu verdict: rândurile și conturul blocurilor vin din pre-adnotări AI (corectate parțial în Marcaj), iar parcelele și registrul sunt DEMO. Doar controlul pe teren confirmă.","visit":[629171.68,5220582.42],"visit_snap_m":0.0,"demo":true,"vineyard_id":"V06","cad_nr":[],"area_ha":0.3488,"area_m2":3488,"share_pct":100.0,"share_of":"bloc","reason":"nicio parcelă înregistrată","block_area_ha":0.23}},{"type":"Feature","geometry":{"type":"MultiPolygon","coordinates":[[[[630159.7398659529,5219257.771979008],[630150.3290381134,5219265.380826616],[630150.1658058708,5219265.917708565],[630161.5763479837,5219279.571697235],[630162.5250765232,5219279.31995086],[630164.5843494887,5219280.3899520775],[630166.6054220612,5219279.474922265],[630166.8857981955,5219279.763632192],[630166.2752773131,5219281.828661274],[630166.9671610435,5219282.485692123],[630237.1866979573,5219227.426690608],[630237.3407346546,5219226.843889054],[630236.3081839565,5219226.485137855],[630235.0660039146,5219226.888349097],[630232.2909204749,5219223.8620116515],[630230.3321269829,5219223.42938398],[630228.829643303,5219222.163741452],[630227.3324856341,5219222.124247611],[630225.9252856051,5219222.987038841],[630224.1228294092,5219222.021448959],[630223.4897773244,5219220.66866019],[630224.1609459863,5219218.6684765695],[630223.3268261241,5219217.019106841],[630223.209678911,5219214.984031061],[630216.5168831485,5219207.597291921],[630214.9013022615,5219207.33064426],[630213.5709397864,5219207.992867044],[630212.6121814766,5219207.111835694],[630211.2396138911,5219206.817514293],[630209.1485550572,5219207.924195437],[630207.2378567499,5219206.735324277],[630205.0346849171,5219207.580682947],[630203.3145610864,5219206.62929953],[630201.3869134665,5219207.252763581],[630200.0995396373,5219206.598866863],[630198.7038855284,5219206.749586716],[630187.9979530909,5219215.568445033],[630187.2774355671,5219217.090207792],[630187.643606628,5219218.655657575],[630180.3038246729,5219224.864769511],[630179.9649679034,5219227.1523823375],[630181.9091872341,5219229.968197151],[630167.7434201489,5219241.672493618],[630167.305553623,5219243.0556331165],[630167.6853418645,5219244.408805189],[630166.650543211,5219245.386399933],[630166.2387638467,5219246.52882773],[630166.814062835,5219248.393614773],[630166.2749147216,5219250.387126607],[630167.0408301746,5219251.869582937],[630166.1376131163,5219252.5997639075],[630164.1086549828,5219250.236907778],[630162.4351852923,5219249.798919547],[630161.2915014251,5219250.207197323],[630158.2327784194,5219252.7192786895],[630157.7714713615,5219255.029635291],[630159.7398659529,5219257.771979008]]],[[[630143.3419693403,5219274.310592388],[630142.9184379592,5219275.499307651],[630143.1941461723,5219276.875734855],[630146.256630405,5219280.197746511],[630147.8922021496,5219280.275897991],[630149.5021700376,5219279.211821529],[630151.4059176526,5219280.3771666745],[630152.6069791547,5219280.197849104],[630153.886578063,5219279.297912463],[630155.6655224388,5219280.373812749],[630157.481158575,5219279.771681211],[630147.7213024305,5219267.821933825],[630144.83615008,5219269.970578573],[630144.4184263875,5219271.359934138],[630144.9317780356,5219272.869826837],[630143.3419693403,5219274.310592388]]]]},"properties":{"id":"A03","type":"A","label":"Posibilă plantare neautorizată","legal":"Reg. (UE) 1308/2013 art. 62 și 71: plantarea viței de vie pentru vin se face doar cu autorizație, iar plantările neautorizate se defrișează. În Republica Moldova: Legea 57/2006 a viei și vinului, art. 21(1) — parcelele viticole > 0,15 ha se înregistrează în Registrul vitivinicol.","confidence":"Semnal, nu verdict: rândurile și conturul blocurilor vin din pre-adnotări AI (corectate parțial în Marcaj), iar parcelele și registrul sunt DEMO. Doar controlul pe teren confirmă.","visit":[630191.23,5219244.47],"visit_snap_m":0.2,"demo":true,"vineyard_id":"V42","cad_nr":["DEMO-0018","DEMO-0019","DEMO-0020","DEMO-0021"],"area_ha":0.2979,"area_m2":2979,"share_pct":47.9,"share_of":"bloc","reason":"parcelă fără autorizație / cod RVV","block_area_ha":0.518}},{"type":"Feature","geometry":{"type":"MultiPolygon","coordinates":[[[[630144.0006516075,5219484.481920678],[630145.6663348038,5219484.9486476015],[630147.2974283517,5219484.201962626],[630149.2292530822,5219484.949771138],[630150.9105163277,5219484.204171769],[630152.8325040737,5219484.947823057],[630154.5262622599,5219484.197165802],[630156.0046892836,5219484.925266046],[630157.992670077,5219484.302989482],[630160.052922568,5219484.9154431],[630163.5776605918,5219482.5759103205],[630164.3590309999,5219481.084478896],[630163.8574530792,5219479.203225282],[630148.1512756019,5219459.051065848],[630132.2569705623,5219469.262249193],[630144.0006516075,5219484.481920678]]],[[[630100.82519568,5219433.300828956],[630102.0053127864,5219433.747758932],[630103.7652343882,5219433.2655164255],[630105.4646770726,5219433.749729609],[630107.3680364313,5219432.781443431],[630109.5274415027,5219433.759137167],[630111.5153055383,5219432.749729275],[630113.511959002,5219433.767502288],[630115.2807068512,5219433.0737263225],[630116.0907976378,5219434.133162157],[630115.0232640231,5219435.3129151575],[630114.8205362674,5219436.749474737],[630116.1405922408,5219438.974197822],[630115.1145751211,5219440.019960556],[630114.802617319,5219441.436817744],[630116.143560111,5219443.845300062],[630114.9156371334,5219445.34959204],[630115.0470068785,5219447.212126919],[630130.04489564,5219466.583563979],[630146.074275551,5219456.611882219],[630146.0353213559,5219456.060463498],[630121.9622708143,5219425.114190094],[630121.4395290096,5219423.893939912],[630094.6419761924,5219390.14550689],[630077.8519161162,5219404.304072602],[630100.82519568,5219433.300828956]]],[[[630064.6956665239,5219383.430947104],[630063.6599975505,5219384.9945114255],[630063.99048276,5219386.8321930375],[630075.8102238938,5219401.570003045],[630092.7143374436,5219387.549356683],[630084.4565644988,5219376.8068235535],[630082.8210748858,5219375.882254536],[630080.8428421473,5219376.481049497],[630078.8023966849,5219375.908766716],[630077.1831094918,5219376.785214606],[630075.5441103013,5219375.867184439],[630073.1954751635,5219376.767817437],[630071.0461395596,5219375.8646804625],[630068.9146915373,5219377.021870375],[630067.3840482031,5219377.123509566],[630063.806852479,5219380.181245866],[630063.6876481499,5219381.8143389085],[630064.6956665239,5219383.430947104]]]]},"properties":{"id":"A04","type":"A","label":"Posibilă plantare neautorizată","legal":"Reg. (UE) 1308/2013 art. 62 și 71: plantarea viței de vie pentru vin se face doar cu autorizație, iar plantările neautorizate se defrișează. În Republica Moldova: Legea 57/2006 a viei și vinului, art. 21(1) — parcelele viticole > 0,15 ha se înregistrează în Registrul vitivinicol.","confidence":"Semnal, nu verdict: rândurile și conturul blocurilor vin din pre-adnotări AI (corectate parțial în Marcaj), iar parcelele și registrul sunt DEMO. Doar controlul pe teren confirmă.","visit":[630112.34,5219430.4],"visit_snap_m":0.0,"demo":true,"vineyard_id":"V32","cad_nr":["DEMO-0015"],"area_ha":0.2589,"area_m2":2589,"share_pct":100.0,"share_of":"bloc","reason":"parcelă cu alt status în registru","block_area_ha":0.176}},{"type":"Feature","geometry":{"type":"Polygon","coordinates":[[[630332.3747687866,5219782.267932886],[630332.3747687866,5219826.267932886],[630402.3747687866,5219826.267932886],[630402.3747687866,5219782.267932886],[630332.3747687866,5219782.267932886]]]},"properties":{"id":"B01","type":"B","label":"Posibil defrișată / abandonată (registru de actualizat)","legal":"Reg. delegat (UE) 2018/273 art. 7 și art. 37(3): registrul viticol conține suprafețele plantate, defrișate și abandonate și se corectează după verificare; viță abandonată = necultivată regulat de peste 5 ani viticoli (art. 2).","confidence":"Semnal, nu verdict: rândurile și conturul blocurilor vin din pre-adnotări AI (corectate parțial în Marcaj), iar parcelele și registrul sunt DEMO. Doar controlul pe teren confirmă.","visit":[630277.14,5219772.76],"visit_snap_m":95.6,"demo":true,"cad_nr":["DEMO-0022"],"vineyard_id":null,"area_ha":0.308,"area_m2":3080,"share_pct":0.0,"share_of":"parcelă acoperită de vie detectată","reason":"fără vie pe imagine"}},{"type":"Feature","geometry":{"type":"Polygon","coordinates":[[[630601.1693695092,5219723.212745821],[630601.1693695092,5219767.212745821],[630671.1693695092,5219767.212745821],[630671.1693695092,5219723.212745821],[630601.1693695092,5219723.212745821]]]},"properties":{"id":"B02","type":"B","label":"Posibil defrișată / abandonată (registru de actualizat)","legal":"Reg. delegat (UE) 2018/273 art. 7 și art. 37(3): registrul viticol conține suprafețele plantate, defrișate și abandonate și se corectează după verificare; viță abandonată = necultivată regulat de peste 5 ani viticoli (art. 2).","confidence":"Semnal, nu verdict: rândurile și conturul blocurilor vin din pre-adnotări AI (corectate parțial în Marcaj), iar parcelele și registrul sunt DEMO. Doar controlul pe teren confirmă.","visit":[630646.11,5219718.89],"visit_snap_m":28.1,"demo":true,"cad_nr":["DEMO-0023"],"vineyard_id":null,"area_ha":0.308,"area_m2":3080,"share_pct":0.0,"share_of":"parcelă acoperită de vie detectată","reason":"fără vie pe imagine"}}]}