{"type": "FeatureCollection", "features": [{"type": "Feature", "properties": {"vineyard_id": "V02", "row_id": "V02-R01", "row_structure": "regular", "tile": "siret3_r006_c004.tif", "length_m": 5.13}, "geometry": {"type": "LineString", "coordinates": [[629248.0, 5220910.4875], [629245.9775, 5220915.2]]}}, {"type": "Feature", "properties": {"vineyard_id": "V02", "row_id": "V02-R02", "row_structure": "regular", "tile": "siret3_r006_c004.tif", "length_m": 11.98}, "geometry": {"type": "LineString", "coordinates": [[629248.0, 5220904.1525], [629243.3600000001, 5220915.2]]}}, {"type": "Feature", "properties": {"vineyard_id": "V02", "row_id": "V02-R03", "row_structure": "regular", "tile": "siret3_r006_c004.tif", "length_m": 18.97}, "geometry": {"type": "LineString", "coordinates": [[629248.0, 5220897.7625], [629240.5425000001, 5220915.2]]}}, {"type": "Feature", "properties": {"vineyard_id": "V02", "row_id": "V02-R04", "row_structure": "regular", "tile": "siret3_r006_c004.tif", "length_m": 26.52}, "geometry": {"type": "LineString", "coordinates": [[629248.0, 5220890.845], [629237.515, 5220915.2]]}}, {"type": "Feature", "properties": {"vineyard_id": "V02", "row_id": "V02-R05", "row_structure": "regular", "tile": "siret3_r006_c004.tif", "length_m": 33.77}, "geometry": {"type": "LineString", "coordinates": [[629248.0, 5220884.0525], [629234.9425, 5220915.2]]}}, {"type": "Feature", "properties": {"vineyard_id": "V02", "row_id": "V02-R06", "row_structure": "disrupted", "tile": "siret3_r006_c004.tif", "length_m": 40.98}, "geometry": {"type": "LineString", "coordinates": [[629248.0, 5220877.3875], [629232.2125, 5220915.2]]}}, {"type": "Feature", "properties": {"vineyard_id": "V02", "row_id": "V02-R07", "row_structure": "disrupted", "tile": "siret3_r006_c004.tif", "length_m": 47.69}, "geometry": {"type": "LineString", "coordinates": [[629248.0, 5220871.36], [629229.24, 5220915.2]]}}, {"type": "Feature", "properties": {"vineyard_id": "V02", "row_id": "V02-R08", "row_structure": "disrupted", "tile": "siret3_r006_c004.tif", "length_m": 55.38}, "geometry": {"type": "LineString", "coordinates": [[629248.0, 5220864.1825], [629226.4625, 5220915.2]]}}, {"type": "Feature", "properties": {"vineyard_id": "V02", "row_id": "V02-R09", "row_structure": "disrupted", "tile": "siret3_r006_c004.tif", "length_m": 55.58}, "geometry": {"type": "LineString", "coordinates": [[629245.4400000001, 5220864.0], [629223.8150000001, 5220915.2]]}}, {"type": "Feature", "properties": {"vineyard_id": "V02", "row_id": "V02-R10", "row_structure": "regular", "tile": "siret3_r006_c004.tif", "length_m": 55.49}, "geometry": {"type": "LineString", "coordinates": [[629242.67, 5220864.0], [629221.265, 5220915.2]]}}, {"type": "Feature", "properties": {"vineyard_id": "V02", "row_id": "V02-R11", "row_structure": "regular", "tile": "siret3_r006_c004.tif", "length_m": 55.55}, "geometry": {"type": "LineString", "coordinates": [[629239.7300000001, 5220864.0], [629218.185, 5220915.2]]}}, {"type": "Feature", "properties": {"vineyard_id": "V02", "row_id": "V02-R12", "row_structure": "regular", "tile": "siret3_r006_c004.tif", "length_m": 55.51}, "geometry": {"type": "LineString", "coordinates": [[629236.9825, 5220864.0], [629215.5475000001, 5220915.2]]}}, {"type": "Feature", "properties": {"vineyard_id": "V02", "row_id": "V02-R13", "row_structure": "regular", "tile": "siret3_r006_c004.tif", "length_m": 55.55}, "geometry": {"type": "LineString", "coordinates": [[629234.2525000001, 5220864.0], [629212.7075, 5220915.2]]}}, {"type": "Feature", "properties": {"vineyard_id": "V02", "row_id": "V02-R14", "row_structure": "regular", "tile": "siret3_r006_c004.tif", "length_m": 55.52}, "geometry": {"type": "LineString", "coordinates": [[629231.4425, 5220864.0], [629209.9600000001, 5220915.2]]}}, {"type": "Feature", "properties": {"vineyard_id": "V02", "row_id": "V02-R15", "row_structure": "regular", "tile": "siret3_r006_c004.tif", "length_m": 55.62}, "geometry": {"type": "LineString", "coordinates": [[629228.7150000001, 5220864.0], [629206.9875, 5220915.2]]}}, {"type": "Feature", "properties": {"vineyard_id": "V02", "row_id": "V02-R16", "row_structure": "regular", "tile": "siret3_r006_c004.tif", "length_m": 55.61}, "geometry": {"type": "LineString", "coordinates": [[629225.9675, 5220864.0], [629204.2725000001, 5220915.2]]}}, {"type": "Feature", "properties": {"vineyard_id": "V02", "row_id": "V02-R17", "row_structure": "regular", "tile": "siret3_r006_c004.tif", "length_m": 55.56}, "geometry": {"type": "LineString", "coordinates": [[629223.2175, 5220864.0], [629201.64, 5220915.2]]}}, {"type": "Feature", "properties": {"vineyard_id": "V02", "row_id": "V02-R18", "row_structure": "regular", "tile": "siret3_r006_c004.tif", "length_m": 55.57}, "geometry": {"type": "LineString", "coordinates": [[629220.4325, 5220864.0], [629198.8325, 5220915.2]]}}, {"type": "Feature", "properties": {"vineyard_id": "V02", "row_id": "V02-R19", "row_structure": "regular", "tile": "siret3_r006_c004.tif", "length_m": 53.84}, "geometry": {"type": "LineString", "coordinates": [[629217.8825000001, 5220864.0], [629196.8, 5220913.537500001]]}}, {"type": "Feature", "properties": {"vineyard_id": "V02", "row_id": "V02-R20", "row_structure": "regular", "tile": "siret3_r006_c004.tif", "length_m": 46.52}, "geometry": {"type": "LineString", "coordinates": [[629215.005, 5220864.0], [629196.8, 5220906.805000001]]}}, {"type": "Feature", "properties": {"vineyard_id": "V02", "row_id": "V02-R21", "row_structure": "regular", "tile": "siret3_r006_c004.tif", "length_m": 40.02}, "geometry": {"type": "LineString", "coordinates": [[629212.4600000001, 5220864.0], [629196.8, 5220900.827500001]]}}, {"type": "Feature", "properties": {"vineyard_id": "V02", "row_id": "V02-R22", "row_structure": "regular", "tile": "siret3_r006_c004.tif", "length_m": 33.58}, "geometry": {"type": "LineString", "coordinates": [[629209.655, 5220864.0], [629196.8, 5220895.0225]]}}, {"type": "Feature", "properties": {"vineyard_id": "V02", "row_id": "V02-R23", "row_structure": "disrupted", "tile": "siret3_r006_c004.tif", "length_m": 25.73}, "geometry": {"type": "LineString", "coordinates": [[629206.685, 5220864.0], [629196.8, 5220887.7525]]}}, {"type": "Feature", "properties": {"vineyard_id": "V02", "row_id": "V02-R24", "row_structure": "regular", "tile": "siret3_r006_c004.tif", "length_m": 18.8}, "geometry": {"type": "LineString", "coordinates": [[629204.035, 5220864.0], [629196.8, 5220881.3475]]}}, {"type": "Feature", "properties": {"vineyard_id": "V02", "row_id": "V02-R25", "row_structure": "regular", "tile": "siret3_r006_c004.tif", "length_m": 12.03}, "geometry": {"type": "LineString", "coordinates": [[629201.4275, 5220864.0], [629196.8, 5220875.100000001]]}}, {"type": "Feature", "properties": {"vineyard_id": "V02", "row_id": "V02-R26", "row_structure": "regular", "tile": "siret3_r006_c004.tif", "length_m": 4.99}, "geometry": {"type": "LineString", "coordinates": [[629198.6625000001, 5220864.0], [629196.8, 5220868.6275]]}}, {"type": "Feature", "properties": {"vineyard_id": "V01", "row_id": "V01-R01", "row_structure": "regular", "tile": "siret3_r021_c012.tif", "length_m": 1.1}, "geometry": {"type": "LineString", "coordinates": [[629657.6, 5220146.3975], [629656.845, 5220147.2]]}}, {"type": "Feature", "properties": {"vineyard_id": "V01", "row_id": "V01-R02", "row_structure": "regular", "tile": "siret3_r021_c012.tif", "length_m": 6.4}, "geometry": {"type": "LineString", "coordinates": [[629657.6, 5220142.23], [629653.5725, 5220147.2]]}}, {"type": "Feature", "properties": {"vineyard_id": "V01", "row_id": "V01-R03", "row_structure": "regular", "tile": "siret3_r021_c012.tif", "length_m": 12.4}, "geometry": {"type": "LineString", "coordinates": [[629657.6, 5220137.3925], [629650.0075000001, 5220147.2]]}}, {"type": "Feature", "properties": {"vineyard_id": "V01", "row_id": "V01-R04", "row_structure": "regular", "tile": "siret3_r021_c012.tif", "length_m": 18.0}, "geometry": {"type": "LineString", "coordinates": [[629657.6, 5220132.98], [629646.5650000001, 5220147.2]]}}, {"type": "Feature", "properties": {"vineyard_id": "V01", "row_id": "V01-R05", "row_structure": "regular", "tile": "siret3_r021_c012.tif", "length_m": 24.3}, "geometry": {"type": "LineString", "coordinates": [[629657.6, 5220127.9625], [629642.7475, 5220147.2]]}}, {"type": "Feature", "properties": {"vineyard_id": "V01", "row_id": "V01-R06", "row_structure": "regular", "tile": "siret3_r021_c012.tif", "length_m": 30.18}, "geometry": {"type": "LineString", "coordinates": [[629657.6, 5220123.22], [629639.27, 5220147.2]]}}, {"type": "Feature", "properties": {"vineyard_id": "V01", "row_id": "V01-R07", "row_structure": "regular", "tile": "siret3_r021_c012.tif", "length_m": 36.07}, "geometry": {"type": "LineString", "coordinates": [[629657.6, 5220118.59], [629635.6275000001, 5220147.2]]}}, {"type": "Feature", "properties": {"vineyard_id": "V01", "row_id": "V01-R08", "row_structure": "regular", "tile": "siret3_r021_c012.tif", "length_m": 42.3}, "geometry": {"type": "LineString", "coordinates": [[629657.6, 5220113.815], [629631.6275000001, 5220147.2]]}}, {"type": "Feature", "properties": {"vineyard_id": "V01", "row_id": "V01-R09", "row_structure": "regular", "tile": "siret3_r021_c012.tif", "length_m": 48.03}, "geometry": {"type": "LineString", "coordinates": [[629657.6, 5220109.285], [629628.11, 5220147.2]]}}, {"type": "Feature", "properties": {"vineyard_id": "V01", "row_id": "V01-R10", "row_structure": "regular", "tile": "siret3_r021_c012.tif", "length_m": 55.79}, "geometry": {"type": "LineString", "coordinates": [[629657.6, 5220103.05], [629623.485, 5220147.2]]}}, {"type": "Feature", "properties": {"vineyard_id": "V01", "row_id": "V01-R11", "row_structure": "regular", "tile": "siret3_r021_c012.tif", "length_m": 63.29}, "geometry": {"type": "LineString", "coordinates": [[629657.6, 5220097.055000001], [629618.9775, 5220147.2]]}}, {"type": "Feature", "properties": {"vineyard_id": "V01", "row_id": "V01-R12", "row_structure": "regular", "tile": "siret3_r021_c012.tif", "length_m": 64.61}, "geometry": {"type": "LineString", "coordinates": [[629655.2525000001, 5220096.0], [629615.845, 5220147.2]]}}, {"type": "Feature", "properties": {"vineyard_id": "V01", "row_id": "V01-R13", "row_structure": "regular", "tile": "siret3_r021_c012.tif", "length_m": 64.54}, "geometry": {"type": "LineString", "coordinates": [[629651.8075, 5220096.0], [629612.5175000001, 5220147.2]]}}, {"type": "Feature", "properties": {"vineyard_id": "V01", "row_id": "V01-R14", "row_structure": "regular", "tile": "siret3_r021_c012.tif", "length_m": 64.35}, "geometry": {"type": "LineString", "coordinates": [[629648.175, 5220096.0], [629609.1975, 5220147.2]]}}, {"type": "Feature", "properties": {"vineyard_id": "V01", "row_id": "V01-R15", "row_structure": "regular", "tile": "siret3_r021_c012.tif", "length_m": 63.45}, "geometry": {"type": "LineString", "coordinates": [[629644.9075, 5220096.0], [629606.4, 5220146.4275]]}}, {"type": "Feature", "properties": {"vineyard_id": "V01", "row_id": "V01-R16", "row_structure": "regular", "tile": "siret3_r021_c012.tif", "length_m": 58.0}, "geometry": {"type": "LineString", "coordinates": [[629641.5750000001, 5220096.0], [629606.4, 5220142.117500001]]}}, {"type": "Feature", "properties": {"vineyard_id": "V01", "row_id": "V01-R17", "row_structure": "regular", "tile": "siret3_r021_c012.tif", "length_m": 52.38}, "geometry": {"type": "LineString", "coordinates": [[629638.1475000001, 5220096.0], [629606.4, 5220137.6575]]}}, {"type": "Feature", "properties": {"vineyard_id": "V01", "row_id": "V01-R18", "row_structure": "regular", "tile": "siret3_r021_c012.tif", "length_m": 46.02}, "geometry": {"type": "LineString", "coordinates": [[629634.345, 5220096.0], [629606.4, 5220132.57]]}}, {"type": "Feature", "properties": {"vineyard_id": "V01", "row_id": "V01-R19", "row_structure": "regular", "tile": "siret3_r021_c012.tif", "length_m": 39.85}, "geometry": {"type": "LineString", "coordinates": [[629630.625, 5220096.0], [629606.4, 5220127.6450000005]]}}, {"type": "Feature", "properties": {"vineyard_id": "V01", "row_id": "V01-R20", "row_structure": "regular", "tile": "siret3_r021_c012.tif", "length_m": 34.01}, "geometry": {"type": "LineString", "coordinates": [[629627.0, 5220096.0], [629606.4, 5220123.0575]]}}, {"type": "Feature", "properties": {"vineyard_id": "V01", "row_id": "V01-R21", "row_structure": "regular", "tile": "siret3_r021_c012.tif", "length_m": 28.36}, "geometry": {"type": "LineString", "coordinates": [[629623.5750000001, 5220096.0], [629606.4, 5220118.565]]}}, {"type": "Feature", "properties": {"vineyard_id": "V01", "row_id": "V01-R22", "row_structure": "regular", "tile": "siret3_r021_c012.tif", "length_m": 22.53}, "geometry": {"type": "LineString", "coordinates": [[629620.235, 5220096.0], [629606.4, 5220113.7775]]}}, {"type": "Feature", "properties": {"vineyard_id": "V01", "row_id": "V01-R23", "row_structure": "regular", "tile": "siret3_r021_c012.tif", "length_m": 16.74}, "geometry": {"type": "LineString", "coordinates": [[629616.47, 5220096.0], [629606.4, 5220109.375]]}}, {"type": "Feature", "properties": {"vineyard_id": "V01", "row_id": "V01-R24", "row_structure": "regular", "tile": "siret3_r021_c012.tif", "length_m": 11.33}, "geometry": {"type": "LineString", "coordinates": [[629613.1875, 5220096.0], [629606.4, 5220105.07]]}}, {"type": "Feature", "properties": {"vineyard_id": "V01", "row_id": "V01-R25", "row_structure": "regular", "tile": "siret3_r021_c012.tif", "length_m": 6.06}, "geometry": {"type": "LineString", "coordinates": [[629610.095, 5220096.0], [629606.4, 5220100.8025]]}}], "crs": {"type": "name", "properties": {"name": "urn:ogc:def:crs:EPSG::32635"}}}