{"type":"FeatureCollection","crs":{"type":"name","properties":{"name":"urn:ogc:def:crs:EPSG::32635"}},"features":[{"type":"Feature","geometry":{"type":"Point","coordinates":[629108.99,5220814.25]},"properties":{"rank":1,"tile":"siret3_r007_c002.tif","kind":"white","score":3.0,"area_m2":0.122,"on_passage":false,"px":[576,1979,591,2001],"box":[629108.8,5220813.97,629109.18,5220814.53],"vineyard_id":"V01","block_dist_m":0.0,"thumb":"data/waste_cand/001_r007_c002.jpg"}},{"type":"Feature","geometry":{"type":"Point","coordinates":[629106.68,5220797.25]},"properties":{"rank":2,"tile":"siret3_r008_c002.tif","kind":"white","score":3.0,"area_m2":1.344,"on_passage":false,"px":[459,593,523,651],"box":[629105.88,5220796.52,629107.47,5220797.97],"vineyard_id":"V04","block_dist_m":0.0,"thumb":"data/waste_cand/002_r008_c002.jpg"}},{"type":"Feature","geometry":{"type":"Point","coordinates":[629274.95,5220745.41]},"properties":{"rank":3,"tile":"siret3_r009_c005.tif","kind":"white","score":3.0,"area_m2":0.162,"on_passage":false,"px":[1069,635,1087,660],"box":[629274.72,5220745.1,629275.18,5220745.72],"vineyard_id":"V05","block_dist_m":0.0,"thumb":"data/waste_cand/003_r009_c005.jpg"}},{"type":"Feature","geometry":{"type":"Point","coordinates":[629423.74,5220641.45]},"properties":{"rank":4,"tile":"siret3_r011_c008.tif","kind":"white","score":3.0,"area_m2":0.134,"on_passage":false,"px":[877,701,894,719],"box":[629423.53,5220641.23,629423.95,5220641.67],"vineyard_id":"V11","block_dist_m":0.0,"thumb":"data/waste_cand/004_r011_c008.jpg"}},{"type":"Feature","geometry":{"type":"Point","coordinates":[629242.79,5220557.92]},"properties":{"rank":5,"tile":"siret3_r012_c004.tif","kind":"white","score":3.0,"area_m2":0.194,"on_passage":false,"px":[1828,1991,1851,2015],"box":[629242.5,5220557.62,629243.08,5220558.22],"vineyard_id":"V10","block_dist_m":0.0,"thumb":"data/waste_cand/005_r012_c004.jpg"}},{"type":"Feature","geometry":{"type":"Point","coordinates":[629256.25,5220567.8]},"properties":{"rank":6,"tile":"siret3_r012_c005.tif","kind":"white","score":3.0,"area_m2":0.364,"on_passage":false,"px":[318,1591,342,1625],"box":[629255.95,5220567.38,629256.55,5220568.22],"vineyard_id":"V10","block_dist_m":5.2,"thumb":"data/waste_cand/006_r012_c005.jpg"}},{"type":"Feature","geometry":{"type":"Point","coordinates":[629252.04,5220567.15]},"properties":{"rank":7,"tile":"siret3_r012_c005.tif","kind":"white","score":3.0,"area_m2":0.104,"on_passage":false,"px":[151,1627,172,1641],"box":[629251.78,5220566.97,629252.3,5220567.33],"vineyard_id":"V10","block_dist_m":1.1,"thumb":"data/waste_cand/007_r012_c005.jpg"}},{"type":"Feature","geometry":{"type":"Point","coordinates":[629249.91,5220561.4]},"properties":{"rank":8,"tile":"siret3_r012_c005.tif","kind":"white","score":3.0,"area_m2":1.421,"on_passage":false,"px":[45,1836,108,1892],"box":[629249.12,5220560.7,629250.7,5220562.1],"vineyard_id":"V10","block_dist_m":0.0,"thumb":"data/waste_cand/008_r012_c005.jpg"}},{"type":"Feature","geometry":{"type":"Point","coordinates":[629426.57,5220595.62]},"properties":{"rank":9,"tile":"siret3_r012_c008.tif","kind":"white","score":3.0,"area_m2":0.168,"on_passage":false,"px":[988,486,1010,504],"box":[629426.3,5220595.4,629426.85,5220595.85],"vineyard_id":"V11","block_dist_m":0.0,"thumb":"data/waste_cand/009_r012_c008.jpg"}},{"type":"Feature","geometry":{"type":"Point","coordinates":[629472.19,5220575.36]},"properties":{"rank":10,"tile":"siret3_r012_c009.tif","kind":"white","score":3.0,"area_m2":1.116,"on_passage":false,"px":[746,1285,805,1326],"box":[629471.45,5220574.85,629472.93,5220575.88],"vineyard_id":"V11","block_dist_m":0.0,"thumb":"data/waste_cand/010_r012_c009.jpg"}},{"type":"Feature","geometry":{"type":"Point","coordinates":[629246.14,5220545.56]},"properties":{"rank":11,"tile":"siret3_r013_c004.tif","kind":"white","score":3.0,"area_m2":0.124,"on_passage":false,"px":[1964,443,1983,456],"box":[629245.9,5220545.4,629246.38,5220545.72],"vineyard_id":"V10","block_dist_m":0.0,"thumb":"data/waste_cand/011_r013_c004.jpg"}},{"type":"Feature","geometry":{"type":"Point","coordinates":[629504.34,5220300.27]},"properties":{"rank":12,"tile":"siret3_r018_c010.tif","kind":"white","score":3.0,"area_m2":0.539,"on_passage":false,"px":[0,0,27,42],"box":[629504.0,5220299.75,629504.68,5220300.8],"vineyard_id":"V21","block_dist_m":0.2,"thumb":"data/waste_cand/012_r018_c010.jpg"}},{"type":"Feature","geometry":{"type":"Point","coordinates":[629528.86,5220147.46]},"properties":{"rank":13,"tile":"siret3_r020_c010.tif","kind":"white","score":3.0,"area_m2":0.181,"on_passage":false,"px":[982,2027,1007,2048],"box":[629528.55,5220147.2,629529.18,5220147.73],"vineyard_id":"V28","block_dist_m":0.0,"thumb":"data/waste_cand/013_r020_c010.jpg"}},{"type":"Feature","geometry":{"type":"Point","coordinates":[629667.54,5220185.11]},"properties":{"rank":14,"tile":"siret3_r020_c013.tif","kind":"white","score":3.0,"area_m2":0.148,"on_passage":false,"px":[388,522,407,541],"box":[629667.3,5220184.88,629667.78,5220185.35],"vineyard_id":"V29","block_dist_m":0.0,"thumb":"data/waste_cand/014_r020_c013.jpg"}},{"type":"Feature","geometry":{"type":"Point","coordinates":[629692.64,5220030.79]},"properties":{"rank":15,"tile":"siret3_r023_c013.tif","kind":"white","score":3.0,"area_m2":0.105,"on_passage":false,"px":[1389,555,1414,566],"box":[629692.32,5220030.65,629692.95,5220030.92],"vineyard_id":"","block_dist_m":13.8,"thumb":"data/waste_cand/015_r023_c013.jpg"}},{"type":"Feature","geometry":{"type":"Point","coordinates":[629840.56,5220026.2]},"properties":{"rank":16,"tile":"siret3_r023_c016.tif","kind":"white","score":3.0,"area_m2":0.294,"on_passage":false,"px":[1161,731,1188,757],"box":[629840.22,5220025.88,629840.9,5220026.52],"vineyard_id":"V32","block_dist_m":0.0,"thumb":"data/waste_cand/016_r023_c016.jpg"}},{"type":"Feature","geometry":{"type":"Point","coordinates":[629757.2,5219969.22]},"properties":{"rank":17,"tile":"siret3_r024_c014.tif","kind":"white","score":3.0,"area_m2":0.103,"on_passage":false,"px":[1928,968,1944,982],"box":[629757.0,5219969.05,629757.4,5219969.4],"vineyard_id":"V32","block_dist_m":0.2,"thumb":"data/waste_cand/017_r024_c014.jpg"}},{"type":"Feature","geometry":{"type":"Point","coordinates":[629924.69,5219957.29]},"properties":{"rank":18,"tile":"siret3_r024_c018.tif","kind":"white","score":3.0,"area_m2":0.253,"on_passage":false,"px":[431,1441,456,1464],"box":[629924.38,5219957.0,629925.0,5219957.57],"vineyard_id":"V32","block_dist_m":9.8,"thumb":"data/waste_cand/018_r024_c018.jpg"}},{"type":"Feature","geometry":{"type":"Point","coordinates":[629922.3,5219916.68]},"properties":{"rank":19,"tile":"siret3_r025_c018.tif","kind":"white","score":3.0,"area_m2":0.108,"on_passage":false,"px":[340,1021,356,1037],"box":[629922.1,5219916.48,629922.5,5219916.88],"vineyard_id":"V32","block_dist_m":0.0,"thumb":"data/waste_cand/019_r025_c018.jpg"}},{"type":"Feature","geometry":{"type":"Point","coordinates":[629994.8,5219893.33]},"properties":{"rank":20,"tile":"siret3_r025_c019.tif","kind":"white","score":3.0,"area_m2":0.214,"on_passage":false,"px":[1187,1953,1213,1973],"box":[629994.48,5219893.08,629995.12,5219893.58],"vineyard_id":"V34","block_dist_m":0.0,"thumb":"data/waste_cand/020_r025_c019.jpg"}},{"type":"Feature","geometry":{"type":"Point","coordinates":[629981.06,5219888.99]},"properties":{"rank":21,"tile":"siret3_r026_c019.tif","kind":"white","score":3.0,"area_m2":1.709,"on_passage":false,"px":[611,53,690,124],"box":[629980.08,5219888.1,629982.05,5219889.88],"vineyard_id":"V34","block_dist_m":0.3,"thumb":"data/waste_cand/021_r026_c019.jpg"}},{"type":"Feature","geometry":{"type":"Point","coordinates":[629991.65,5219885.29]},"properties":{"rank":22,"tile":"siret3_r026_c019.tif","kind":"white","score":3.0,"area_m2":0.131,"on_passage":false,"px":[1064,227,1084,246],"box":[629991.4,5219885.05,629991.9,5219885.53],"vineyard_id":"V34","block_dist_m":2.4,"thumb":"data/waste_cand/022_r026_c019.jpg"}},{"type":"Feature","geometry":{"type":"Point","coordinates":[630029.43,5219823.96]},"properties":{"rank":23,"tile":"siret3_r027_c020.tif","kind":"white","score":3.0,"area_m2":0.135,"on_passage":false,"px":[528,633,546,650],"box":[630029.2,5219823.75,630029.65,5219824.17],"vineyard_id":"V32","block_dist_m":7.4,"thumb":"data/waste_cand/023_r027_c020.jpg"}},{"type":"Feature","geometry":{"type":"Point","coordinates":[630028.86,5219782.58]},"properties":{"rank":24,"tile":"siret3_r028_c020.tif","kind":"white","score":3.0,"area_m2":0.794,"on_passage":false,"px":[494,228,535,270],"box":[630028.35,5219782.05,630029.38,5219783.1],"vineyard_id":"V42","block_dist_m":0.0,"thumb":"data/waste_cand/024_r028_c020.jpg"}},{"type":"Feature","geometry":{"type":"Point","coordinates":[630428.96,5219764.74]},"properties":{"rank":25,"tile":"siret3_r028_c028.tif","kind":"white","score":3.0,"area_m2":0.135,"on_passage":false,"px":[126,954,143,971],"box":[630428.75,5219764.52,630429.17,5219764.95],"vineyard_id":"V43","block_dist_m":0.0,"thumb":"data/waste_cand/025_r028_c028.jpg"}},{"type":"Feature","geometry":{"type":"Point","coordinates":[630527.88,5219788.5]},"properties":{"rank":26,"tile":"siret3_r028_c029.tif","kind":"white","score":3.0,"area_m2":0.107,"on_passage":false,"px":[2038,0,2048,24],"box":[630527.75,5219788.2,630528.0,5219788.8],"vineyard_id":"","block_dist_m":14.4,"thumb":"data/waste_cand/026_r028_c029.jpg"}},{"type":"Feature","geometry":{"type":"Point","coordinates":[630500.88,5219784.22]},"properties":{"rank":27,"tile":"siret3_r028_c029.tif","kind":"white","score":3.0,"area_m2":0.118,"on_passage":false,"px":[954,174,972,192],"box":[630500.65,5219784.0,630501.1,5219784.45],"vineyard_id":"V40","block_dist_m":2.0,"thumb":"data/waste_cand/027_r028_c029.jpg"}},{"type":"Feature","geometry":{"type":"Point","coordinates":[630104.74,5219714.79]},"properties":{"rank":28,"tile":"siret3_r029_c021.tif","kind":"white","score":3.0,"area_m2":0.127,"on_passage":false,"px":[1496,898,1507,927],"box":[630104.6,5219714.42,630104.88,5219715.15],"vineyard_id":"V53","block_dist_m":0.0,"thumb":"data/waste_cand/028_r029_c021.jpg"}},{"type":"Feature","geometry":{"type":"Point","coordinates":[630175.55,5219705.89]},"properties":{"rank":29,"tile":"siret3_r029_c023.tif","kind":"white","score":3.0,"area_m2":0.492,"on_passage":false,"px":[219,1250,257,1287],"box":[630175.07,5219705.42,630176.03,5219706.35],"vineyard_id":"V57","block_dist_m":0.0,"thumb":"data/waste_cand/029_r029_c023.jpg"}},{"type":"Feature","geometry":{"type":"Point","coordinates":[629913.16,5219665.61]},"properties":{"rank":30,"tile":"siret3_r030_c017.tif","kind":"white","score":3.0,"area_m2":0.129,"on_passage":false,"px":[2022,823,2039,840],"box":[629912.95,5219665.4,629913.38,5219665.83],"vineyard_id":"V63","block_dist_m":0.0,"thumb":"data/waste_cand/030_r030_c017.jpg"}},{"type":"Feature","geometry":{"type":"Point","coordinates":[629936.82,5219649.54]},"properties":{"rank":31,"tile":"siret3_r030_c018.tif","kind":"white","score":3.0,"area_m2":0.151,"on_passage":false,"px":[919,1464,939,1485],"box":[629936.57,5219649.28,629937.07,5219649.8],"vineyard_id":"V63","block_dist_m":0.0,"thumb":"data/waste_cand/031_r030_c018.jpg"}},{"type":"Feature","geometry":{"type":"Point","coordinates":[629957.55,5219633.86]},"properties":{"rank":32,"tile":"siret3_r031_c018.tif","kind":"white","score":3.0,"area_m2":0.156,"on_passage":false,"px":[1749,42,1767,65],"box":[629957.32,5219633.58,629957.78,5219634.15],"vineyard_id":"V63","block_dist_m":0.0,"thumb":"data/waste_cand/032_r031_c018.jpg"}},{"type":"Feature","geometry":{"type":"Point","coordinates":[630109.56,5219590.24]},"properties":{"rank":33,"tile":"siret3_r031_c021.tif","kind":"white","score":3.0,"area_m2":0.125,"on_passage":false,"px":[1685,1790,1704,1807],"box":[630109.32,5219590.03,630109.8,5219590.45],"vineyard_id":"V57","block_dist_m":0.0,"thumb":"data/waste_cand/033_r031_c021.jpg"}},{"type":"Feature","geometry":{"type":"Point","coordinates":[630007.15,5219571.0]},"properties":{"rank":34,"tile":"siret3_r032_c019.tif","kind":"white","score":3.0,"area_m2":0.118,"on_passage":false,"px":[1686,511,1702,529],"box":[630006.95,5219570.78,630007.35,5219571.22],"vineyard_id":"V63","block_dist_m":6.5,"thumb":"data/waste_cand/034_r032_c019.jpg"}},{"type":"Feature","geometry":{"type":"Point","coordinates":[630049.1,5219558.49]},"properties":{"rank":35,"tile":"siret3_r032_c020.tif","kind":"white","score":3.0,"area_m2":0.114,"on_passage":false,"px":[1312,1012,1336,1029],"box":[630048.8,5219558.28,630049.4,5219558.7],"vineyard_id":"V63","block_dist_m":0.0,"thumb":"data/waste_cand/035_r032_c020.jpg"}},{"type":"Feature","geometry":{"type":"Point","coordinates":[630177.88,5219549.72]},"properties":{"rank":36,"tile":"siret3_r032_c023.tif","kind":"white","score":3.0,"area_m2":0.144,"on_passage":false,"px":[322,1361,340,1381],"box":[630177.65,5219549.47,630178.1,5219549.97],"vineyard_id":"V57","block_dist_m":0.0,"thumb":"data/waste_cand/036_r032_c023.jpg"}},{"type":"Feature","geometry":{"type":"Point","coordinates":[630410.78,5219430.01]},"properties":{"rank":37,"tile":"siret3_r035_c027.tif","kind":"white","score":3.0,"area_m2":0.131,"on_passage":false,"px":[1443,5,1467,26],"box":[630410.47,5219429.75,630411.08,5219430.28],"vineyard_id":"V65","block_dist_m":0.0,"thumb":"data/waste_cand/037_r035_c027.jpg"}},{"type":"Feature","geometry":{"type":"Point","coordinates":[630130.88,5219322.16]},"properties":{"rank":38,"tile":"siret3_r037_c022.tif","kind":"white","score":3.0,"area_m2":0.107,"on_passage":false,"px":[489,227,509,240],"box":[630130.62,5219322.0,630131.12,5219322.33],"vineyard_id":"V69","block_dist_m":4.6,"thumb":"data/waste_cand/038_r037_c022.jpg"}},{"type":"Feature","geometry":{"type":"Point","coordinates":[629878.56,5219672.21]},"properties":{"rank":39,"tile":"siret3_r030_c017.tif","kind":"white","score":2.97,"area_m2":0.243,"on_passage":false,"px":[636,555,657,580],"box":[629878.3,5219671.9,629878.83,5219672.53],"vineyard_id":"V52","block_dist_m":0.0,"thumb":"data/waste_cand/039_r030_c017.jpg"}},{"type":"Feature","geometry":{"type":"Point","coordinates":[629099.36,5220635.42]},"properties":{"rank":40,"tile":"siret3_r011_c002.tif","kind":"white","score":2.96,"area_m2":0.107,"on_passage":false,"px":[187,945,210,957],"box":[629099.08,5220635.28,629099.65,5220635.58],"vineyard_id":"V08","block_dist_m":0.0,"thumb":"data/waste_cand/040_r011_c002.jpg"}},{"type":"Feature","geometry":{"type":"Point","coordinates":[629395.34,5220350.04]},"properties":{"rank":41,"tile":"siret3_r017_c007.tif","kind":"white","score":2.96,"area_m2":0.162,"on_passage":false,"px":[1786,69,1809,88],"box":[629395.05,5220349.8,629395.62,5220350.28],"vineyard_id":"V18","block_dist_m":2.8,"thumb":"data/waste_cand/041_r017_c007.jpg"}},{"type":"Feature","geometry":{"type":"Point","coordinates":[629837.9,5220047.24]},"properties":{"rank":42,"tile":"siret3_r022_c016.tif","kind":"white","score":2.96,"area_m2":0.241,"on_passage":false,"px":[1055,1940,1081,1961],"box":[629837.57,5220046.97,629838.22,5220047.5],"vineyard_id":"V32","block_dist_m":0.0,"thumb":"data/waste_cand/042_r022_c016.jpg"}},{"type":"Feature","geometry":{"type":"Point","coordinates":[630023.25,5219832.03]},"properties":{"rank":43,"tile":"siret3_r027_c020.tif","kind":"white","score":2.95,"area_m2":0.166,"on_passage":false,"px":[278,306,302,332],"box":[630022.95,5219831.7,630023.55,5219832.35],"vineyard_id":"V32","block_dist_m":7.6,"thumb":"data/waste_cand/043_r027_c020.jpg"}},{"type":"Feature","geometry":{"type":"Point","coordinates":[629925.39,5219958.92]},"properties":{"rank":44,"tile":"siret3_r024_c018.tif","kind":"white","score":2.92,"area_m2":0.251,"on_passage":false,"px":[459,1368,484,1406],"box":[629925.07,5219958.45,629925.7,5219959.4],"vineyard_id":"","block_dist_m":11.2,"thumb":"data/waste_cand/044_r024_c018.jpg"}},{"type":"Feature","geometry":{"type":"Point","coordinates":[630004.14,5219654.28]},"properties":{"rank":45,"tile":"siret3_r030_c019.tif","kind":"white","score":2.92,"area_m2":0.106,"on_passage":false,"px":[1563,1279,1584,1291],"box":[630003.88,5219654.12,630004.4,5219654.43],"vineyard_id":"V63","block_dist_m":0.0,"thumb":"data/waste_cand/045_r030_c019.jpg"}},{"type":"Feature","geometry":{"type":"Point","coordinates":[630017.4,5219493.96]},"properties":{"rank":46,"tile":"siret3_r033_c020.tif","kind":"white","score":2.92,"area_m2":0.101,"on_passage":false,"px":[42,1549,70,1558],"box":[630017.05,5219493.85,630017.75,5219494.08],"vineyard_id":"V68","block_dist_m":0.0,"thumb":"data/waste_cand/046_r033_c020.jpg"}},{"type":"Feature","geometry":{"type":"Point","coordinates":[629862.78,5220067.61]},"properties":{"rank":47,"tile":"siret3_r022_c017.tif","kind":"white","score":2.91,"area_m2":0.309,"on_passage":false,"px":[0,1122,30,1149],"box":[629862.4,5220067.28,629863.15,5220067.95],"vineyard_id":"V31","block_dist_m":0.0,"thumb":"data/waste_cand/047_r022_c017.jpg"}},{"type":"Feature","geometry":{"type":"Point","coordinates":[629277.1,5220742.67]},"properties":{"rank":48,"tile":"siret3_r009_c005.tif","kind":"white","score":2.9,"area_m2":0.11,"on_passage":false,"px":[1154,748,1174,766],"box":[629276.85,5220742.45,629277.35,5220742.9],"vineyard_id":"V05","block_dist_m":0.0,"thumb":"data/waste_cand/048_r009_c005.jpg"}},{"type":"Feature","geometry":{"type":"Point","coordinates":[630167.68,5219804.1]},"properties":{"rank":49,"tile":"siret3_r027_c022.tif","kind":"white","score":2.9,"area_m2":0.105,"on_passage":false,"px":[1962,1428,1980,1444],"box":[630167.45,5219803.9,630167.9,5219804.3],"vineyard_id":"V42","block_dist_m":0.0,"thumb":"data/waste_cand/049_r027_c022.jpg"}},{"type":"Feature","geometry":{"type":"Point","coordinates":[629950.8,5219888.78]},"properties":{"rank":50,"tile":"siret3_r026_c018.tif","kind":"vivid","score":2.87,"area_m2":0.121,"on_passage":false,"px":[1479,86,1497,108],"box":[629950.57,5219888.5,629951.03,5219889.05],"vineyard_id":"V32","block_dist_m":0.3,"thumb":"data/waste_cand/050_r026_c018.jpg"}},{"type":"Feature","geometry":{"type":"Point","coordinates":[629251.47,5220540.97]},"properties":{"rank":51,"tile":"siret3_r013_c005.tif","kind":"white","score":2.86,"area_m2":0.292,"on_passage":false,"px":[128,613,150,653],"box":[629251.2,5220540.47,629251.75,5220541.47],"vineyard_id":"V10","block_dist_m":0.6,"thumb":"data/waste_cand/051_r013_c005.jpg"}},{"type":"Feature","geometry":{"type":"Point","coordinates":[629964.24,5219865.71]},"properties":{"rank":52,"tile":"siret3_r026_c018.tif","kind":"white","score":2.86,"area_m2":0.233,"on_passage":false,"px":[2014,1004,2037,1035],"box":[629963.95,5219865.33,629964.53,5219866.1],"vineyard_id":"V32","block_dist_m":0.0,"thumb":"data/waste_cand/052_r026_c018.jpg"}},{"type":"Feature","geometry":{"type":"Point","coordinates":[630032.19,5219475.9]},"properties":{"rank":53,"tile":"siret3_r034_c020.tif","kind":"white","score":2.85,"area_m2":0.131,"on_passage":false,"px":[639,216,656,240],"box":[630031.97,5219475.6,630032.4,5219476.2],"vineyard_id":"V68","block_dist_m":0.0,"thumb":"data/waste_cand/053_r034_c020.jpg"}},{"type":"Feature","geometry":{"type":"Point","coordinates":[629477.94,5220571.47]},"properties":{"rank":54,"tile":"siret3_r012_c009.tif","kind":"white","score":2.84,"area_m2":0.106,"on_passage":false,"px":[997,1451,1014,1471],"box":[629477.73,5220571.22,629478.15,5220571.72],"vineyard_id":"V11","block_dist_m":0.0,"thumb":"data/waste_cand/054_r012_c009.jpg"}},{"type":"Feature","geometry":{"type":"Point","coordinates":[630211.61,5219363.05]},"properties":{"rank":55,"tile":"siret3_r036_c023.tif","kind":"white","score":2.84,"area_m2":0.103,"on_passage":false,"px":[1671,639,1690,653],"box":[630211.38,5219362.88,630211.85,5219363.23],"vineyard_id":"V68","block_dist_m":0.0,"thumb":"data/waste_cand/055_r036_c023.jpg"}},{"type":"Feature","geometry":{"type":"Point","coordinates":[629425.95,5220593.75]},"properties":{"rank":56,"tile":"siret3_r012_c008.tif","kind":"white","score":2.83,"area_m2":0.425,"on_passage":false,"px":[954,557,994,583],"box":[629425.45,5220593.42,629426.45,5220594.08],"vineyard_id":"V11","block_dist_m":0.0,"thumb":"data/waste_cand/056_r012_c008.jpg"}},{"type":"Feature","geometry":{"type":"Point","coordinates":[629512.95,5220465.77]},"properties":{"rank":57,"tile":"siret3_r014_c010.tif","kind":"white","score":2.83,"area_m2":0.133,"on_passage":false,"px":[349,1582,367,1604],"box":[629512.72,5220465.5,629513.18,5220466.05],"vineyard_id":"V11","block_dist_m":6.4,"thumb":"data/waste_cand/057_r014_c010.jpg"}},{"type":"Feature","geometry":{"type":"Point","coordinates":[629783.24,5219930.1]},"properties":{"rank":58,"tile":"siret3_r025_c015.tif","kind":"white","score":2.82,"area_m2":0.117,"on_passage":false,"px":[919,483,940,501],"box":[629782.97,5219929.88,629783.5,5219930.33],"vineyard_id":"","block_dist_m":14.0,"thumb":"data/waste_cand/058_r025_c015.jpg"}},{"type":"Feature","geometry":{"type":"Point","coordinates":[630174.05,5219818.55]},"properties":{"rank":59,"tile":"siret3_r027_c023.tif","kind":"white","score":2.81,"area_m2":0.128,"on_passage":false,"px":[167,849,189,867],"box":[630173.78,5219818.33,630174.32,5219818.78],"vineyard_id":"V42","block_dist_m":0.0,"thumb":"data/waste_cand/059_r027_c023.jpg"}},{"type":"Feature","geometry":{"type":"Point","coordinates":[629106.61,5220659.51]},"properties":{"rank":60,"tile":"siret3_r010_c002.tif","kind":"white","score":2.8,"area_m2":0.198,"on_passage":false,"px":[472,2023,505,2048],"box":[629106.2,5220659.2,629107.03,5220659.83],"vineyard_id":"V08","block_dist_m":0.0,"thumb":"data/waste_cand/060_r010_c002.jpg"}},{"type":"Feature","geometry":{"type":"Point","coordinates":[629315.84,5220531.14]},"properties":{"rank":61,"tile":"siret3_r013_c006.tif","kind":"white","score":2.8,"area_m2":0.149,"on_passage":false,"px":[653,1017,678,1036],"box":[629315.52,5220530.9,629316.15,5220531.38],"vineyard_id":"V12","block_dist_m":0.0,"thumb":"data/waste_cand/061_r013_c006.jpg"}},{"type":"Feature","geometry":{"type":"Point","coordinates":[630073.75,5219619.25]},"properties":{"rank":62,"tile":"siret3_r031_c021.tif","kind":"white","score":2.79,"area_m2":0.115,"on_passage":false,"px":[253,630,271,646],"box":[630073.52,5219619.05,630073.97,5219619.45],"vineyard_id":"V53","block_dist_m":0.0,"thumb":"data/waste_cand/062_r031_c021.jpg"}},{"type":"Feature","geometry":{"type":"Point","coordinates":[629381.26,5220568.47]},"properties":{"rank":63,"tile":"siret3_r012_c007.tif","kind":"white","score":2.78,"area_m2":0.124,"on_passage":false,"px":[1227,1570,1242,1592],"box":[629381.08,5220568.2,629381.45,5220568.75],"vineyard_id":"V11","block_dist_m":2.1,"thumb":"data/waste_cand/063_r012_c007.jpg"}},{"type":"Feature","geometry":{"type":"Point","coordinates":[630059.89,5219486.08]},"properties":{"rank":64,"tile":"siret3_r033_c020.tif","kind":"white","score":2.78,"area_m2":0.111,"on_passage":false,"px":[1744,1862,1767,1876],"box":[630059.6,5219485.9,630060.18,5219486.25],"vineyard_id":"V68","block_dist_m":0.0,"thumb":"data/waste_cand/064_r033_c020.jpg"}},{"type":"Feature","geometry":{"type":"Point","coordinates":[629841.35,5220048.75]},"properties":{"rank":65,"tile":"siret3_r022_c016.tif","kind":"white","score":2.77,"area_m2":0.354,"on_passage":false,"px":[1180,1879,1232,1901],"box":[629840.7,5220048.47,629842.0,5220049.03],"vineyard_id":"V32","block_dist_m":0.8,"thumb":"data/waste_cand/065_r022_c016.jpg"}},{"type":"Feature","geometry":{"type":"Point","coordinates":[630061.21,5219524.19]},"properties":{"rank":66,"tile":"siret3_r033_c020.tif","kind":"white","score":2.77,"area_m2":0.184,"on_passage":false,"px":[1797,334,1820,355],"box":[630060.93,5219523.92,630061.5,5219524.45],"vineyard_id":"V68","block_dist_m":0.0,"thumb":"data/waste_cand/066_r033_c020.jpg"}},{"type":"Feature","geometry":{"type":"Point","coordinates":[630156.31,5219607.5]},"properties":{"rank":67,"tile":"siret3_r031_c022.tif","kind":"white","score":2.76,"area_m2":0.141,"on_passage":false,"px":[1506,1097,1527,1119],"box":[630156.05,5219607.23,630156.58,5219607.78],"vineyard_id":"V57","block_dist_m":0.0,"thumb":"data/waste_cand/067_r031_c022.jpg"}},{"type":"Feature","geometry":{"type":"Point","coordinates":[630374.1,5219551.42]},"properties":{"rank":68,"tile":"siret3_r032_c026.tif","kind":"white","score":2.76,"area_m2":0.181,"on_passage":false,"px":[2024,1293,2048,1313],"box":[630373.8,5219551.17,630374.4,5219551.67],"vineyard_id":"V65","block_dist_m":0.0,"thumb":"data/waste_cand/068_r032_c026.jpg"}},{"type":"Feature","geometry":{"type":"Point","coordinates":[629963.95,5219890.33]},"properties":{"rank":69,"tile":"siret3_r026_c018.tif","kind":"white","score":2.75,"area_m2":0.38,"on_passage":false,"px":[1997,16,2031,54],"box":[629963.53,5219889.85,629964.38,5219890.8],"vineyard_id":"V32","block_dist_m":0.0,"thumb":"data/waste_cand/069_r026_c018.jpg"}},{"type":"Feature","geometry":{"type":"Point","coordinates":[630342.99,5219614.96]},"properties":{"rank":70,"tile":"siret3_r031_c026.tif","kind":"white","score":2.75,"area_m2":0.131,"on_passage":false,"px":[783,796,800,823],"box":[630342.77,5219614.62,630343.2,5219615.3],"vineyard_id":"V65","block_dist_m":0.0,"thumb":"data/waste_cand/070_r031_c026.jpg"}},{"type":"Feature","geometry":{"type":"Point","coordinates":[629184.92,5220548.62]},"properties":{"rank":71,"tile":"siret3_r013_c003.tif","kind":"white","score":2.74,"area_m2":0.108,"on_passage":false,"px":[1566,317,1580,337],"box":[629184.75,5220548.38,629185.1,5220548.88],"vineyard_id":"V08","block_dist_m":0.0,"thumb":"data/waste_cand/071_r013_c003.jpg"}},{"type":"Feature","geometry":{"type":"Point","coordinates":[630496.81,5219809.45]},"properties":{"rank":72,"tile":"siret3_r027_c029.tif","kind":"white","score":2.74,"area_m2":0.243,"on_passage":false,"px":[786,1210,815,1234],"box":[630496.45,5219809.15,630497.18,5219809.75],"vineyard_id":"V40","block_dist_m":0.0,"thumb":"data/waste_cand/072_r027_c029.jpg"}},{"type":"Feature","geometry":{"type":"Point","coordinates":[630186.31,5219419.28]},"properties":{"rank":73,"tile":"siret3_r035_c023.tif","kind":"white","score":2.74,"area_m2":0.16,"on_passage":false,"px":[655,435,682,455],"box":[630185.97,5219419.03,630186.65,5219419.53],"vineyard_id":"V68","block_dist_m":0.0,"thumb":"data/waste_cand/073_r035_c023.jpg"}},{"type":"Feature","geometry":{"type":"Point","coordinates":[630130.47,5219323.97]},"properties":{"rank":74,"tile":"siret3_r037_c022.tif","kind":"white","score":2.74,"area_m2":0.101,"on_passage":false,"px":[473,152,493,170],"box":[630130.22,5219323.75,630130.72,5219324.2],"vineyard_id":"V69","block_dist_m":2.7,"thumb":"data/waste_cand/074_r037_c022.jpg"}},{"type":"Feature","geometry":{"type":"Point","coordinates":[629109.31,5220811.17]},"properties":{"rank":75,"tile":"siret3_r008_c002.tif","kind":"white","score":2.73,"area_m2":0.106,"on_passage":false,"px":[589,57,604,73],"box":[629109.12,5220810.97,629109.5,5220811.38],"vineyard_id":"V01","block_dist_m":0.0,"thumb":"data/waste_cand/075_r008_c002.jpg"}},{"type":"Feature","geometry":{"type":"Point","coordinates":[629257.11,5220567.22]},"properties":{"rank":76,"tile":"siret3_r012_c005.tif","kind":"white","score":2.73,"area_m2":1.284,"on_passage":false,"px":[339,1591,390,1671],"box":[629256.47,5220566.22,629257.75,5220568.22],"vineyard_id":"V10","block_dist_m":6.1,"thumb":"data/waste_cand/076_r012_c005.jpg"}},{"type":"Feature","geometry":{"type":"Point","coordinates":[629932.14,5219899.31]},"properties":{"rank":77,"tile":"siret3_r025_c018.tif","kind":"white","score":2.73,"area_m2":0.149,"on_passage":false,"px":[732,1714,751,1733],"box":[629931.9,5219899.08,629932.38,5219899.55],"vineyard_id":"V32","block_dist_m":0.4,"thumb":"data/waste_cand/077_r025_c018.jpg"}},{"type":"Feature","geometry":{"type":"Point","coordinates":[629982.76,5219796.91]},"properties":{"rank":78,"tile":"siret3_r027_c019.tif","kind":"white","score":2.73,"area_m2":0.476,"on_passage":false,"px":[692,1705,745,1742],"box":[629982.1,5219796.45,629983.43,5219797.38],"vineyard_id":"V32","block_dist_m":0.0,"thumb":"data/waste_cand/078_r027_c019.jpg"}},{"type":"Feature","geometry":{"type":"Point","coordinates":[630179.01,5219820.26]},"properties":{"rank":79,"tile":"siret3_r027_c023.tif","kind":"white","score":2.73,"area_m2":0.174,"on_passage":false,"px":[364,781,389,798],"box":[630178.7,5219820.05,630179.32,5219820.47],"vineyard_id":"V42","block_dist_m":0.0,"thumb":"data/waste_cand/079_r027_c023.jpg"}},{"type":"Feature","geometry":{"type":"Point","coordinates":[630276.71,5219594.11]},"properties":{"rank":80,"tile":"siret3_r031_c025.tif","kind":"white","score":2.73,"area_m2":0.111,"on_passage":false,"px":[176,1634,201,1653],"box":[630276.4,5219593.88,630277.03,5219594.35],"vineyard_id":"V62","block_dist_m":0.0,"thumb":"data/waste_cand/080_r031_c025.jpg"}},{"type":"Feature","geometry":{"type":"Point","coordinates":[630206.16,5219499.33]},"properties":{"rank":81,"tile":"siret3_r033_c023.tif","kind":"white","score":2.73,"area_m2":0.18,"on_passage":false,"px":[1446,1328,1479,1350],"box":[630205.75,5219499.05,630206.57,5219499.6],"vineyard_id":"V63","block_dist_m":0.0,"thumb":"data/waste_cand/081_r033_c023.jpg"}},{"type":"Feature","geometry":{"type":"Point","coordinates":[629092.94,5220842.75]},"properties":{"rank":82,"tile":"siret3_r007_c001.tif","kind":"white","score":2.72,"area_m2":0.109,"on_passage":false,"px":[1982,842,1997,858],"box":[629092.75,5220842.55,629093.12,5220842.95],"vineyard_id":"V01","block_dist_m":0.0,"thumb":"data/waste_cand/082_r007_c001.jpg"}},{"type":"Feature","geometry":{"type":"Point","coordinates":[630179.45,5219815.78]},"properties":{"rank":83,"tile":"siret3_r027_c023.tif","kind":"white","score":2.71,"area_m2":0.179,"on_passage":false,"px":[382,956,406,982],"box":[630179.15,5219815.45,630179.75,5219816.1],"vineyard_id":"V42","block_dist_m":0.0,"thumb":"data/waste_cand/083_r027_c023.jpg"}},{"type":"Feature","geometry":{"type":"Point","coordinates":[630229.61,5219379.89]},"properties":{"rank":84,"tile":"siret3_r035_c024.tif","kind":"white","score":2.71,"area_m2":0.117,"on_passage":false,"px":[343,2010,362,2031],"box":[630229.38,5219379.62,630229.85,5219380.15],"vineyard_id":"V68","block_dist_m":0.0,"thumb":"data/waste_cand/084_r035_c024.jpg"}},{"type":"Feature","geometry":{"type":"Point","coordinates":[630113.55,5219369.21]},"properties":{"rank":85,"tile":"siret3_r036_c021.tif","kind":"white","score":2.71,"area_m2":0.156,"on_passage":false,"px":[1845,390,1863,409],"box":[630113.32,5219368.98,630113.77,5219369.45],"vineyard_id":"V69","block_dist_m":0.0,"thumb":"data/waste_cand/085_r036_c021.jpg"}},{"type":"Feature","geometry":{"type":"Point","coordinates":[629208.65,5220626.19]},"properties":{"rank":86,"tile":"siret3_r011_c004.tif","kind":"white","score":2.7,"area_m2":0.693,"on_passage":false,"px":[452,1291,496,1350],"box":[629208.1,5220625.45,629209.2,5220626.92],"vineyard_id":"V07","block_dist_m":0.0,"thumb":"data/waste_cand/086_r011_c004.jpg"}},{"type":"Feature","geometry":{"type":"Point","coordinates":[629356.55,5220590.97]},"properties":{"rank":87,"tile":"siret3_r012_c007.tif","kind":"white","score":2.7,"area_m2":0.164,"on_passage":false,"px":[234,670,258,692],"box":[629356.25,5220590.7,629356.85,5220591.25],"vineyard_id":"V11","block_dist_m":0.0,"thumb":"data/waste_cand/087_r012_c007.jpg"}},{"type":"Feature","geometry":{"type":"Point","coordinates":[630082.25,5219603.14]},"properties":{"rank":88,"tile":"siret3_r031_c021.tif","kind":"white","score":2.7,"area_m2":0.19,"on_passage":false,"px":[591,1271,613,1294],"box":[630081.97,5219602.85,630082.52,5219603.42],"vineyard_id":"V63","block_dist_m":0.0,"thumb":"data/waste_cand/088_r031_c021.jpg"}},{"type":"Feature","geometry":{"type":"Point","coordinates":[630259.49,5219461.61]},"properties":{"rank":89,"tile":"siret3_r034_c024.tif","kind":"white","score":2.7,"area_m2":0.606,"on_passage":false,"px":[1529,774,1566,825],"box":[630259.03,5219460.97,630259.95,5219462.25],"vineyard_id":"V63","block_dist_m":0.0,"thumb":"data/waste_cand/089_r034_c024.jpg"}},{"type":"Feature","geometry":{"type":"Point","coordinates":[629258.7,5220570.31]},"properties":{"rank":90,"tile":"siret3_r012_c005.tif","kind":"white","score":2.69,"area_m2":0.199,"on_passage":false,"px":[417,1494,439,1521],"box":[629258.43,5220569.97,629258.97,5220570.65],"vineyard_id":"V10","block_dist_m":7.6,"thumb":"data/waste_cand/090_r012_c005.jpg"}},{"type":"Feature","geometry":{"type":"Point","coordinates":[630178.15,5219807.42]},"properties":{"rank":91,"tile":"siret3_r027_c023.tif","kind":"white","score":2.69,"area_m2":0.104,"on_passage":false,"px":[332,1295,352,1311],"box":[630177.9,5219807.22,630178.4,5219807.62],"vineyard_id":"V42","block_dist_m":0.0,"thumb":"data/waste_cand/091_r027_c023.jpg"}},{"type":"Feature","geometry":{"type":"Point","coordinates":[629976.93,5219654.65]},"properties":{"rank":92,"tile":"siret3_r030_c019.tif","kind":"white","score":2.69,"area_m2":0.139,"on_passage":false,"px":[475,1257,495,1283],"box":[629976.68,5219654.33,629977.18,5219654.98],"vineyard_id":"V63","block_dist_m":0.0,"thumb":"data/waste_cand/092_r030_c019.jpg"}},{"type":"Feature","geometry":{"type":"Point","coordinates":[630053.28,5219653.55]},"properties":{"rank":93,"tile":"siret3_r030_c020.tif","kind":"white","score":2.69,"area_m2":0.106,"on_passage":false,"px":[1481,1306,1501,1322],"box":[630053.03,5219653.35,630053.53,5219653.75],"vineyard_id":"V53","block_dist_m":0.0,"thumb":"data/waste_cand/093_r030_c020.jpg"}},{"type":"Feature","geometry":{"type":"Point","coordinates":[630182.84,5219661.51]},"properties":{"rank":94,"tile":"siret3_r030_c023.tif","kind":"white","score":2.69,"area_m2":0.299,"on_passage":false,"px":[514,982,545,1009],"box":[630182.45,5219661.18,630183.22,5219661.85],"vineyard_id":"V57","block_dist_m":2.7,"thumb":"data/waste_cand/094_r030_c023.jpg"}},{"type":"Feature","geometry":{"type":"Point","coordinates":[630008.06,5219595.62]},"properties":{"rank":95,"tile":"siret3_r031_c019.tif","kind":"white","score":2.69,"area_m2":0.139,"on_passage":false,"px":[1720,1569,1741,1597],"box":[630007.8,5219595.28,630008.33,5219595.98],"vineyard_id":"V63","block_dist_m":0.0,"thumb":"data/waste_cand/095_r031_c019.jpg"}},{"type":"Feature","geometry":{"type":"Point","coordinates":[630110.42,5219343.25]},"properties":{"rank":96,"tile":"siret3_r036_c021.tif","kind":"white","score":2.68,"area_m2":0.123,"on_passage":false,"px":[1721,1428,1737,1448],"box":[630110.22,5219343.0,630110.62,5219343.5],"vineyard_id":"V69","block_dist_m":0.0,"thumb":"data/waste_cand/096_r036_c021.jpg"}},{"type":"Feature","geometry":{"type":"Point","coordinates":[629971.21,5219829.94]},"properties":{"rank":97,"tile":"siret3_r027_c019.tif","kind":"white","score":2.67,"area_m2":1.662,"on_passage":false,"px":[218,362,295,443],"box":[629970.25,5219828.92,629972.18,5219830.95],"vineyard_id":"V32","block_dist_m":0.0,"thumb":"data/waste_cand/097_r027_c019.jpg"}},{"type":"Feature","geometry":{"type":"Point","coordinates":[630128.95,5219355.12]},"properties":{"rank":98,"tile":"siret3_r036_c022.tif","kind":"white","score":2.67,"area_m2":0.104,"on_passage":false,"px":[414,954,430,972],"box":[630128.75,5219354.9,630129.15,5219355.35],"vineyard_id":"V69","block_dist_m":0.0,"thumb":"data/waste_cand/098_r036_c022.jpg"}},{"type":"Feature","geometry":{"type":"Point","coordinates":[629241.78,5220555.92]},"properties":{"rank":99,"tile":"siret3_r013_c004.tif","kind":"white","score":2.66,"area_m2":0.942,"on_passage":false,"px":[1778,0,1820,70],"box":[629241.25,5220555.05,629242.3,5220556.8],"vineyard_id":"V10","block_dist_m":0.0,"thumb":"data/waste_cand/099_r013_c004.jpg"}},{"type":"Feature","geometry":{"type":"Point","coordinates":[629744.11,5220199.11]},"properties":{"rank":100,"tile":"siret3_r019_c014.tif","kind":"white","score":2.66,"area_m2":0.178,"on_passage":false,"px":[1401,2006,1424,2033],"box":[629743.83,5220198.77,629744.4,5220199.45],"vineyard_id":"V26","block_dist_m":0.0,"thumb":"data/waste_cand/100_r019_c014.jpg"}},{"type":"Feature","geometry":{"type":"Point","coordinates":[629870.8,5219840.23]},"properties":{"rank":101,"tile":"siret3_r026_c017.tif","kind":"white","score":2.66,"area_m2":0.112,"on_passage":false,"px":[327,2030,345,2048],"box":[629870.58,5219840.0,629871.03,5219840.45],"vineyard_id":"V39","block_dist_m":0.0,"thumb":"data/waste_cand/101_r026_c017.jpg"}},{"type":"Feature","geometry":{"type":"Point","coordinates":[630493.78,5219855.12]},"properties":{"rank":102,"tile":"siret3_r026_c029.tif","kind":"white","score":2.66,"area_m2":0.318,"on_passage":false,"px":[666,1429,692,1457],"box":[630493.45,5219854.78,630494.1,5219855.48],"vineyard_id":"","block_dist_m":13.2,"thumb":"data/waste_cand/102_r026_c029.jpg"}},{"type":"Feature","geometry":{"type":"Point","coordinates":[630053.78,5219494.39]},"properties":{"rank":103,"tile":"siret3_r033_c020.tif","kind":"white","score":2.66,"area_m2":0.123,"on_passage":false,"px":[1502,1523,1520,1550],"box":[630053.55,5219494.05,630054.0,5219494.72],"vineyard_id":"V68","block_dist_m":0.0,"thumb":"data/waste_cand/103_r033_c020.jpg"}},{"type":"Feature","geometry":{"type":"Point","coordinates":[630389.79,5219399.05]},"properties":{"rank":104,"tile":"siret3_r035_c027.tif","kind":"white","score":2.66,"area_m2":0.131,"on_passage":false,"px":[602,1247,629,1261],"box":[630389.45,5219398.88,630390.12,5219399.23],"vineyard_id":"V65","block_dist_m":0.0,"thumb":"data/waste_cand/104_r035_c027.jpg"}},{"type":"Feature","geometry":{"type":"Point","coordinates":[629212.01,5220608.92]},"properties":{"rank":105,"tile":"siret3_r011_c004.tif","kind":"white","score":2.65,"area_m2":0.138,"on_passage":false,"px":[601,2001,616,2021],"box":[629211.83,5220608.67,629212.2,5220609.17],"vineyard_id":"V08","block_dist_m":4.7,"thumb":"data/waste_cand/105_r011_c004.jpg"}},{"type":"Feature","geometry":{"type":"Point","coordinates":[629405.28,5220355.59]},"properties":{"rank":106,"tile":"siret3_r016_c008.tif","kind":"white","score":2.65,"area_m2":0.155,"on_passage":false,"px":[138,1891,156,1918],"box":[629405.05,5220355.25,629405.5,5220355.92],"vineyard_id":"V18","block_dist_m":0.7,"thumb":"data/waste_cand/106_r016_c008.jpg"}},{"type":"Feature","geometry":{"type":"Point","coordinates":[629997.73,5219891.93]},"properties":{"rank":107,"tile":"siret3_r025_c019.tif","kind":"white","score":2.65,"area_m2":0.916,"on_passage":false,"px":[1288,1990,1346,2048],"box":[629997.0,5219891.2,629998.45,5219892.65],"vineyard_id":"V34","block_dist_m":0.0,"thumb":"data/waste_cand/107_r025_c019.jpg"}},{"type":"Feature","geometry":{"type":"Point","coordinates":[630185.5,5219324.55]},"properties":{"rank":108,"tile":"siret3_r037_c023.tif","kind":"white","score":2.65,"area_m2":0.164,"on_passage":false,"px":[623,124,649,152],"box":[630185.17,5219324.2,630185.82,5219324.9],"vineyard_id":"V68","block_dist_m":0.0,"thumb":"data/waste_cand/108_r037_c023.jpg"}},{"type":"Feature","geometry":{"type":"Point","coordinates":[629922.79,5219899.64]},"properties":{"rank":109,"tile":"siret3_r025_c018.tif","kind":"white","score":2.64,"area_m2":0.379,"on_passage":false,"px":[346,1695,389,1726],"box":[629922.25,5219899.25,629923.32,5219900.03],"vineyard_id":"V32","block_dist_m":0.0,"thumb":"data/waste_cand/109_r025_c018.jpg"}},{"type":"Feature","geometry":{"type":"Point","coordinates":[630208.97,5219497.22]},"properties":{"rank":110,"tile":"siret3_r033_c023.tif","kind":"white","score":2.62,"area_m2":0.101,"on_passage":false,"px":[1565,1415,1585,1431],"box":[630208.72,5219497.02,630209.22,5219497.42],"vineyard_id":"V63","block_dist_m":0.0,"thumb":"data/waste_cand/110_r033_c023.jpg"}},{"type":"Feature","geometry":{"type":"Point","coordinates":[630235.64,5219466.64]},"properties":{"rank":111,"tile":"siret3_r034_c024.tif","kind":"white","score":2.62,"area_m2":0.108,"on_passage":false,"px":[583,589,604,608],"box":[630235.38,5219466.4,630235.9,5219466.88],"vineyard_id":"V63","block_dist_m":0.0,"thumb":"data/waste_cand/111_r034_c024.jpg"}},{"type":"Feature","geometry":{"type":"Point","coordinates":[630313.86,5219324.55]},"properties":{"rank":112,"tile":"siret3_r037_c025.tif","kind":"white","score":2.62,"area_m2":0.149,"on_passage":false,"px":[1664,126,1685,150],"box":[630313.6,5219324.25,630314.12,5219324.85],"vineyard_id":"V63","block_dist_m":0.0,"thumb":"data/waste_cand/112_r037_c025.jpg"}},{"type":"Feature","geometry":{"type":"Point","coordinates":[630444.26,5219511.75]},"properties":{"rank":113,"tile":"siret3_r033_c028.tif","kind":"white","score":2.61,"area_m2":0.169,"on_passage":false,"px":[734,830,759,854],"box":[630443.95,5219511.45,630444.57,5219512.05],"vineyard_id":"V66","block_dist_m":0.0,"thumb":"data/waste_cand/113_r033_c028.jpg"}},{"type":"Feature","geometry":{"type":"Point","coordinates":[629506.93,5220459.26]},"properties":{"rank":114,"tile":"siret3_r014_c010.tif","kind":"white","score":2.6,"area_m2":0.246,"on_passage":false,"px":[103,1841,131,1866],"box":[629506.57,5220458.95,629507.28,5220459.57],"vineyard_id":"V11","block_dist_m":4.2,"thumb":"data/waste_cand/114_r014_c010.jpg"}},{"type":"Feature","geometry":{"type":"Point","coordinates":[630255.58,5219370.04]},"properties":{"rank":115,"tile":"siret3_r036_c024.tif","kind":"white","score":2.6,"area_m2":0.18,"on_passage":false,"px":[1375,355,1407,378],"box":[630255.18,5219369.75,630255.98,5219370.33],"vineyard_id":"V68","block_dist_m":0.0,"thumb":"data/waste_cand/115_r036_c024.jpg"}},{"type":"Feature","geometry":{"type":"Point","coordinates":[630187.42,5219321.5]},"properties":{"rank":116,"tile":"siret3_r037_c023.tif","kind":"white","score":2.6,"area_m2":0.103,"on_passage":false,"px":[702,252,724,268],"box":[630187.15,5219321.3,630187.7,5219321.7],"vineyard_id":"V68","block_dist_m":0.0,"thumb":"data/waste_cand/116_r037_c023.jpg"}},{"type":"Feature","geometry":{"type":"Point","coordinates":[630323.0,5219313.95]},"properties":{"rank":117,"tile":"siret3_r037_c025.tif","kind":"white","score":2.6,"area_m2":0.163,"on_passage":false,"px":[2032,549,2048,575],"box":[630322.8,5219313.62,630323.2,5219314.28],"vineyard_id":"V68","block_dist_m":0.0,"thumb":"data/waste_cand/117_r037_c025.jpg"}},{"type":"Feature","geometry":{"type":"Point","coordinates":[630039.26,5219630.0]},"properties":{"rank":118,"tile":"siret3_r031_c020.tif","kind":"white","score":2.59,"area_m2":0.132,"on_passage":false,"px":[923,197,938,219],"box":[630039.07,5219629.73,630039.45,5219630.28],"vineyard_id":"V63","block_dist_m":0.0,"thumb":"data/waste_cand/118_r031_c020.jpg"}},{"type":"Feature","geometry":{"type":"Point","coordinates":[630157.06,5219643.44]},"properties":{"rank":119,"tile":"siret3_r030_c022.tif","kind":"white","score":2.58,"area_m2":0.111,"on_passage":false,"px":[1536,1711,1557,1726],"box":[630156.8,5219643.25,630157.33,5219643.62],"vineyard_id":"V57","block_dist_m":5.5,"thumb":"data/waste_cand/119_r030_c022.jpg"}},{"type":"Feature","geometry":{"type":"Point","coordinates":[630112.91,5219366.51]},"properties":{"rank":120,"tile":"siret3_r036_c021.tif","kind":"white","score":2.58,"area_m2":0.161,"on_passage":false,"px":[1820,496,1837,519],"box":[630112.7,5219366.23,630113.12,5219366.8],"vineyard_id":"V69","block_dist_m":0.0,"thumb":"data/waste_cand/120_r036_c021.jpg"}},{"type":"Feature","geometry":{"type":"Point","coordinates":[629720.59,5220010.65]},"properties":{"rank":121,"tile":"siret3_r023_c014.tif","kind":"white","score":2.57,"area_m2":0.148,"on_passage":false,"px":[461,1353,482,1379],"box":[629720.33,5220010.33,629720.85,5220010.97],"vineyard_id":"V32","block_dist_m":6.0,"thumb":"data/waste_cand/121_r023_c014.jpg"}},{"type":"Feature","geometry":{"type":"Point","coordinates":[629891.89,5219621.16]},"properties":{"rank":122,"tile":"siret3_r031_c017.tif","kind":"white","score":2.57,"area_m2":0.114,"on_passage":false,"px":[1170,554,1189,569],"box":[629891.65,5219620.98,629892.12,5219621.35],"vineyard_id":"","block_dist_m":11.6,"thumb":"data/waste_cand/122_r031_c017.jpg"}},{"type":"Feature","geometry":{"type":"Point","coordinates":[630189.22,5219496.19]},"properties":{"rank":123,"tile":"siret3_r033_c023.tif","kind":"white","score":2.57,"area_m2":0.114,"on_passage":false,"px":[778,1454,792,1475],"box":[630189.05,5219495.92,630189.4,5219496.45],"vineyard_id":"V63","block_dist_m":0.0,"thumb":"data/waste_cand/123_r033_c023.jpg"}},{"type":"Feature","geometry":{"type":"Point","coordinates":[630179.57,5219482.49]},"properties":{"rank":124,"tile":"siret3_r033_c023.tif","kind":"white","score":2.57,"area_m2":0.144,"on_passage":false,"px":[388,2003,410,2022],"box":[630179.3,5219482.25,630179.85,5219482.72],"vineyard_id":"V63","block_dist_m":0.0,"thumb":"data/waste_cand/124_r033_c023.jpg"}},{"type":"Feature","geometry":{"type":"Point","coordinates":[629262.53,5220558.45]},"properties":{"rank":125,"tile":"siret3_r012_c005.tif","kind":"white","score":2.56,"area_m2":0.137,"on_passage":false,"px":[570,1975,592,1989],"box":[629262.25,5220558.28,629262.8,5220558.62],"vineyard_id":"","block_dist_m":11.5,"thumb":"data/waste_cand/125_r012_c005.jpg"}},{"type":"Feature","geometry":{"type":"Point","coordinates":[629357.15,5220554.5]},"properties":{"rank":126,"tile":"siret3_r013_c007.tif","kind":"white","score":2.55,"area_m2":0.262,"on_passage":false,"px":[258,76,282,108],"box":[629356.85,5220554.1,629357.45,5220554.9],"vineyard_id":"V12","block_dist_m":0.0,"thumb":"data/waste_cand/126_r013_c007.jpg"}},{"type":"Feature","geometry":{"type":"Point","coordinates":[629843.72,5220032.54]},"properties":{"rank":127,"tile":"siret3_r023_c016.tif","kind":"white","score":2.55,"area_m2":0.173,"on_passage":false,"px":[1286,480,1316,501],"box":[629843.35,5220032.27,629844.1,5220032.8],"vineyard_id":"V32","block_dist_m":0.0,"thumb":"data/waste_cand/127_r023_c016.jpg"}},{"type":"Feature","geometry":{"type":"Point","coordinates":[629950.71,5219642.59]},"properties":{"rank":128,"tile":"siret3_r030_c018.tif","kind":"white","score":2.55,"area_m2":0.202,"on_passage":false,"px":[1476,1735,1493,1770],"box":[629950.5,5219642.15,629950.92,5219643.03],"vineyard_id":"V63","block_dist_m":0.0,"thumb":"data/waste_cand/128_r030_c018.jpg"}},{"type":"Feature","geometry":{"type":"Point","coordinates":[630167.16,5219562.55]},"properties":{"rank":129,"tile":"siret3_r032_c022.tif","kind":"white","score":2.55,"area_m2":0.151,"on_passage":false,"px":[1932,851,1969,865],"box":[630166.7,5219562.38,630167.62,5219562.72],"vineyard_id":"V57","block_dist_m":0.0,"thumb":"data/waste_cand/129_r032_c022.jpg"}},{"type":"Feature","geometry":{"type":"Point","coordinates":[630253.26,5219653.25]},"properties":{"rank":130,"tile":"siret3_r030_c024.tif","kind":"white","score":2.54,"area_m2":0.132,"on_passage":false,"px":[1287,1319,1310,1333],"box":[630252.98,5219653.08,630253.55,5219653.43],"vineyard_id":"","block_dist_m":12.1,"thumb":"data/waste_cand/130_r030_c024.jpg"}},{"type":"Feature","geometry":{"type":"Point","coordinates":[630351.41,5219519.11]},"properties":{"rank":131,"tile":"siret3_r033_c026.tif","kind":"white","score":2.54,"area_m2":0.128,"on_passage":false,"px":[1123,532,1134,563],"box":[630351.27,5219518.72,630351.55,5219519.5],"vineyard_id":"V65","block_dist_m":0.0,"thumb":"data/waste_cand/131_r033_c026.jpg"}},{"type":"Feature","geometry":{"type":"Point","coordinates":[630030.28,5219447.94]},"properties":{"rank":132,"tile":"siret3_r034_c020.tif","kind":"white","score":2.54,"area_m2":0.103,"on_passage":false,"px":[560,1341,582,1352],"box":[630030.0,5219447.8,630030.55,5219448.07],"vineyard_id":"V68","block_dist_m":0.0,"thumb":"data/waste_cand/132_r034_c020.jpg"}},{"type":"Feature","geometry":{"type":"Point","coordinates":[629785.21,5220113.26]},"properties":{"rank":133,"tile":"siret3_r021_c015.tif","kind":"white","score":2.53,"area_m2":0.29,"on_passage":false,"px":[993,1345,1024,1370],"box":[629784.82,5220112.95,629785.6,5220113.58],"vineyard_id":"V32","block_dist_m":0.0,"thumb":"data/waste_cand/133_r021_c015.jpg"}},{"type":"Feature","geometry":{"type":"Point","coordinates":[630508.93,5219787.86]},"properties":{"rank":134,"tile":"siret3_r028_c029.tif","kind":"white","score":2.53,"area_m2":0.721,"on_passage":false,"px":[1262,17,1308,58],"box":[630508.35,5219787.35,630509.5,5219788.38],"vineyard_id":"V40","block_dist_m":2.9,"thumb":"data/waste_cand/134_r028_c029.jpg"}},{"type":"Feature","geometry":{"type":"Point","coordinates":[629975.75,5219658.2]},"properties":{"rank":135,"tile":"siret3_r030_c019.tif","kind":"white","score":2.53,"area_m2":0.105,"on_passage":false,"px":[430,1118,446,1138],"box":[629975.55,5219657.95,629975.95,5219658.45],"vineyard_id":"V63","block_dist_m":0.0,"thumb":"data/waste_cand/135_r030_c019.jpg"}},{"type":"Feature","geometry":{"type":"Point","coordinates":[630208.21,5219497.81]},"properties":{"rank":136,"tile":"siret3_r033_c023.tif","kind":"white","score":2.53,"area_m2":0.119,"on_passage":false,"px":[1532,1390,1557,1409],"box":[630207.9,5219497.58,630208.53,5219498.05],"vineyard_id":"V63","block_dist_m":0.0,"thumb":"data/waste_cand/136_r033_c023.jpg"}},{"type":"Feature","geometry":{"type":"Point","coordinates":[630111.07,5219817.84]},"properties":{"rank":137,"tile":"siret3_r027_c021.tif","kind":"white","score":2.52,"area_m2":0.478,"on_passage":false,"px":[1742,860,1768,913],"box":[630110.75,5219817.17,630111.4,5219818.5],"vineyard_id":"V42","block_dist_m":0.0,"thumb":"data/waste_cand/137_r027_c021.jpg"}},{"type":"Feature","geometry":{"type":"Point","coordinates":[630442.56,5219755.56]},"properties":{"rank":138,"tile":"siret3_r028_c028.tif","kind":"white","score":2.52,"area_m2":0.118,"on_passage":false,"px":[672,1319,685,1340],"box":[630442.4,5219755.3,630442.72,5219755.83],"vineyard_id":"V43","block_dist_m":0.0,"thumb":"data/waste_cand/138_r028_c028.jpg"}},{"type":"Feature","geometry":{"type":"Point","coordinates":[630470.74,5219456.47]},"properties":{"rank":139,"tile":"siret3_r034_c028.tif","kind":"white","score":2.52,"area_m2":0.123,"on_passage":false,"px":[1795,996,1816,1014],"box":[630470.47,5219456.25,630471.0,5219456.7],"vineyard_id":"V66","block_dist_m":0.0,"thumb":"data/waste_cand/139_r034_c028.jpg"}},{"type":"Feature","geometry":{"type":"Point","coordinates":[630166.29,5219467.61]},"properties":{"rank":140,"tile":"siret3_r034_c022.tif","kind":"white","score":2.51,"area_m2":0.108,"on_passage":false,"px":[1904,553,1927,566],"box":[630166.0,5219467.45,630166.58,5219467.77],"vineyard_id":"V63","block_dist_m":0.0,"thumb":"data/waste_cand/140_r034_c022.jpg"}},{"type":"Feature","geometry":{"type":"Point","coordinates":[629705.4,5219876.36]},"properties":{"rank":141,"tile":"siret3_r026_c013.tif","kind":"white","score":2.5,"area_m2":0.112,"on_passage":false,"px":[1901,587,1923,600],"box":[629705.12,5219876.2,629705.67,5219876.53],"vineyard_id":"","block_dist_m":14.3,"thumb":"data/waste_cand/141_r026_c013.jpg"}},{"type":"Feature","geometry":{"type":"Point","coordinates":[629844.7,5219699.6]},"properties":{"rank":142,"tile":"siret3_r029_c016.tif","kind":"white","score":2.5,"area_m2":0.352,"on_passage":false,"px":[1322,1503,1358,1537],"box":[629844.25,5219699.17,629845.15,5219700.02],"vineyard_id":"V46","block_dist_m":0.8,"thumb":"data/waste_cand/142_r029_c016.jpg"}},{"type":"Feature","geometry":{"type":"Point","coordinates":[629780.8,5219742.14]},"properties":{"rank":143,"tile":"siret3_r028_c015.tif","kind":"white","score":2.49,"area_m2":0.403,"on_passage":false,"px":[812,1849,852,1884],"box":[629780.3,5219741.7,629781.3,5219742.58],"vineyard_id":"","block_dist_m":13.4,"thumb":"data/waste_cand/143_r028_c015.jpg"}},{"type":"Feature","geometry":{"type":"Point","coordinates":[630195.84,5219496.01]},"properties":{"rank":144,"tile":"siret3_r033_c023.tif","kind":"white","score":2.49,"area_m2":0.14,"on_passage":false,"px":[1039,1461,1060,1482],"box":[630195.57,5219495.75,630196.1,5219496.27],"vineyard_id":"V63","block_dist_m":0.0,"thumb":"data/waste_cand/144_r033_c023.jpg"}},{"type":"Feature","geometry":{"type":"Point","coordinates":[630206.79,5219435.17]},"properties":{"rank":145,"tile":"siret3_r034_c023.tif","kind":"white","score":2.49,"area_m2":0.121,"on_passage":false,"px":[1481,1845,1494,1869],"box":[630206.62,5219434.88,630206.95,5219435.47],"vineyard_id":"V63","block_dist_m":0.0,"thumb":"data/waste_cand/145_r034_c023.jpg"}},{"type":"Feature","geometry":{"type":"Point","coordinates":[629300.26,5220734.74]},"properties":{"rank":146,"tile":"siret3_r009_c006.tif","kind":"white","score":2.48,"area_m2":0.117,"on_passage":false,"px":[36,1063,49,1086],"box":[629300.1,5220734.45,629300.42,5220735.02],"vineyard_id":"V05","block_dist_m":0.0,"thumb":"data/waste_cand/146_r009_c006.jpg"}},{"type":"Feature","geometry":{"type":"Point","coordinates":[629242.94,5220566.34]},"properties":{"rank":147,"tile":"siret3_r012_c004.tif","kind":"white","score":2.48,"area_m2":0.12,"on_passage":false,"px":[1836,1655,1855,1678],"box":[629242.7,5220566.05,629243.18,5220566.62],"vineyard_id":"V10","block_dist_m":0.0,"thumb":"data/waste_cand/147_r012_c004.jpg"}},{"type":"Feature","geometry":{"type":"Point","coordinates":[629876.56,5220047.09]},"properties":{"rank":148,"tile":"siret3_r022_c017.tif","kind":"white","score":2.48,"area_m2":0.327,"on_passage":false,"px":[553,1941,580,1972],"box":[629876.22,5220046.7,629876.9,5220047.47],"vineyard_id":"","block_dist_m":11.0,"thumb":"data/waste_cand/148_r022_c017.jpg"}},{"type":"Feature","geometry":{"type":"Point","coordinates":[630002.8,5219609.81]},"properties":{"rank":149,"tile":"siret3_r031_c019.tif","kind":"white","score":2.48,"area_m2":0.101,"on_passage":false,"px":[1514,1005,1526,1026],"box":[630002.65,5219609.55,630002.95,5219610.08],"vineyard_id":"V63","block_dist_m":0.0,"thumb":"data/waste_cand/149_r031_c019.jpg"}},{"type":"Feature","geometry":{"type":"Point","coordinates":[630410.96,5219485.46]},"properties":{"rank":150,"tile":"siret3_r033_c027.tif","kind":"white","score":2.48,"area_m2":0.119,"on_passage":false,"px":[1452,1885,1473,1902],"box":[630410.7,5219485.25,630411.22,5219485.67],"vineyard_id":"V66","block_dist_m":0.0,"thumb":"data/waste_cand/150_r033_c027.jpg"}},{"type":"Feature","geometry":{"type":"Point","coordinates":[629876.31,5220048.35]},"properties":{"rank":151,"tile":"siret3_r022_c017.tif","kind":"white","score":2.47,"area_m2":0.38,"on_passage":false,"px":[541,1889,572,1923],"box":[629875.93,5220047.92,629876.7,5220048.78],"vineyard_id":"","block_dist_m":10.7,"thumb":"data/waste_cand/151_r022_c017.jpg"}},{"type":"Feature","geometry":{"type":"Point","coordinates":[629844.95,5220033.66]},"properties":{"rank":152,"tile":"siret3_r023_c016.tif","kind":"white","score":2.47,"area_m2":1.053,"on_passage":false,"px":[1313,420,1387,471],"box":[629844.02,5220033.02,629845.88,5220034.3],"vineyard_id":"V32","block_dist_m":0.0,"thumb":"data/waste_cand/152_r023_c016.jpg"}},{"type":"Feature","geometry":{"type":"Point","coordinates":[629997.14,5219892.58]},"properties":{"rank":153,"tile":"siret3_r025_c019.tif","kind":"white","score":2.47,"area_m2":0.342,"on_passage":false,"px":[1279,1971,1308,2015],"box":[629996.78,5219892.03,629997.5,5219893.12],"vineyard_id":"V34","block_dist_m":0.0,"thumb":"data/waste_cand/153_r025_c019.jpg"}},{"type":"Feature","geometry":{"type":"Point","coordinates":[630154.58,5219848.28]},"properties":{"rank":154,"tile":"siret3_r026_c022.tif","kind":"white","score":2.47,"area_m2":0.331,"on_passage":false,"px":[1428,1701,1466,1733],"box":[630154.1,5219847.88,630155.05,5219848.67],"vineyard_id":"V42","block_dist_m":0.0,"thumb":"data/waste_cand/154_r026_c022.jpg"}},{"type":"Feature","geometry":{"type":"Point","coordinates":[630007.28,5219454.46]},"properties":{"rank":155,"tile":"siret3_r034_c019.tif","kind":"white","score":2.47,"area_m2":0.274,"on_passage":false,"px":[1677,1072,1721,1099],"box":[630006.73,5219454.12,630007.83,5219454.8],"vineyard_id":"V67","block_dist_m":1.5,"thumb":"data/waste_cand/155_r034_c019.jpg"}},{"type":"Feature","geometry":{"type":"Point","coordinates":[629036.51,5220753.56]},"properties":{"rank":156,"tile":"siret3_r009_c000.tif","kind":"white","score":2.46,"area_m2":0.196,"on_passage":false,"px":[1772,305,1789,338],"box":[629036.3,5220753.15,629036.72,5220753.97],"vineyard_id":"V03","block_dist_m":0.0,"thumb":"data/waste_cand/156_r009_c000.jpg"}},{"type":"Feature","geometry":{"type":"Point","coordinates":[629312.1,5220735.76]},"properties":{"rank":157,"tile":"siret3_r009_c006.tif","kind":"white","score":2.46,"area_m2":0.796,"on_passage":false,"px":[492,1000,540,1067],"box":[629311.5,5220734.92,629312.7,5220736.6],"vineyard_id":"","block_dist_m":10.5,"thumb":"data/waste_cand/157_r009_c006.jpg"}},{"type":"Feature","geometry":{"type":"Point","coordinates":[629153.21,5220671.09]},"properties":{"rank":158,"tile":"siret3_r010_c003.tif","kind":"white","score":2.46,"area_m2":0.108,"on_passage":false,"px":[297,1565,312,1580],"box":[629153.03,5220670.9,629153.4,5220671.28],"vineyard_id":"V08","block_dist_m":0.0,"thumb":"data/waste_cand/158_r010_c003.jpg"}},{"type":"Feature","geometry":{"type":"Point","coordinates":[629530.1,5220147.44]},"properties":{"rank":159,"tile":"siret3_r020_c010.tif","kind":"white","score":2.46,"area_m2":0.214,"on_passage":false,"px":[1029,2029,1059,2048],"box":[629529.72,5220147.2,629530.47,5220147.68],"vineyard_id":"V28","block_dist_m":0.0,"thumb":"data/waste_cand/159_r020_c010.jpg"}},{"type":"Feature","geometry":{"type":"Point","coordinates":[629866.49,5220069.59]},"properties":{"rank":160,"tile":"siret3_r022_c017.tif","kind":"white","score":2.46,"area_m2":0.148,"on_passage":false,"px":[154,1045,173,1068],"box":[629866.25,5220069.3,629866.72,5220069.88],"vineyard_id":"V31","block_dist_m":2.0,"thumb":"data/waste_cand/160_r022_c017.jpg"}},{"type":"Feature","geometry":{"type":"Point","coordinates":[630046.8,5219756.99]},"properties":{"rank":161,"tile":"siret3_r028_c020.tif","kind":"white","score":2.46,"area_m2":0.353,"on_passage":false,"px":[1217,1254,1247,1291],"box":[630046.43,5219756.52,630047.18,5219757.45],"vineyard_id":"V42","block_dist_m":0.0,"thumb":"data/waste_cand/161_r028_c020.jpg"}},{"type":"Feature","geometry":{"type":"Point","coordinates":[630053.28,5219652.31]},"properties":{"rank":162,"tile":"siret3_r030_c020.tif","kind":"white","score":2.46,"area_m2":0.138,"on_passage":false,"px":[1479,1355,1503,1372],"box":[630052.97,5219652.1,630053.57,5219652.53],"vineyard_id":"V53","block_dist_m":0.0,"thumb":"data/waste_cand/162_r030_c020.jpg"}},{"type":"Feature","geometry":{"type":"Point","coordinates":[630256.1,5219446.27]},"properties":{"rank":163,"tile":"siret3_r034_c024.tif","kind":"white","score":2.46,"area_m2":0.103,"on_passage":false,"px":[1405,1403,1419,1423],"box":[630255.93,5219446.02,630256.28,5219446.52],"vineyard_id":"V63","block_dist_m":0.0,"thumb":"data/waste_cand/163_r034_c024.jpg"}},{"type":"Feature","geometry":{"type":"Point","coordinates":[630147.93,5219337.33]},"properties":{"rank":164,"tile":"siret3_r036_c022.tif","kind":"white","score":2.46,"area_m2":0.143,"on_passage":false,"px":[1167,1666,1195,1684],"box":[630147.58,5219337.1,630148.28,5219337.55],"vineyard_id":"V69","block_dist_m":0.0,"thumb":"data/waste_cand/164_r036_c022.jpg"}},{"type":"Feature","geometry":{"type":"Point","coordinates":[629733.04,5219985.99]},"properties":{"rank":165,"tile":"siret3_r024_c014.tif","kind":"white","score":2.45,"area_m2":0.298,"on_passage":false,"px":[957,289,982,320],"box":[629732.73,5219985.6,629733.35,5219986.38],"vineyard_id":"","block_dist_m":10.9,"thumb":"data/waste_cand/165_r024_c014.jpg"}},{"type":"Feature","geometry":{"type":"Point","coordinates":[629744.14,5219970.99]},"properties":{"rank":166,"tile":"siret3_r024_c014.tif","kind":"white","score":2.45,"area_m2":0.108,"on_passage":false,"px":[1407,894,1420,915],"box":[629743.98,5219970.72,629744.3,5219971.25],"vineyard_id":"","block_dist_m":13.2,"thumb":"data/waste_cand/166_r024_c014.jpg"}},{"type":"Feature","geometry":{"type":"Point","coordinates":[629979.3,5219887.66]},"properties":{"rank":167,"tile":"siret3_r026_c019.tif","kind":"white","score":2.45,"area_m2":0.296,"on_passage":false,"px":[563,128,597,155],"box":[629978.88,5219887.33,629979.73,5219888.0],"vineyard_id":"V34","block_dist_m":2.4,"thumb":"data/waste_cand/167_r026_c019.jpg"}},{"type":"Feature","geometry":{"type":"Point","coordinates":[629970.12,5219871.62]},"properties":{"rank":168,"tile":"siret3_r026_c019.tif","kind":"white","score":2.45,"area_m2":0.304,"on_passage":false,"px":[194,769,232,797],"box":[629969.65,5219871.28,629970.6,5219871.98],"vineyard_id":"V32","block_dist_m":3.2,"thumb":"data/waste_cand/168_r026_c019.jpg"}},{"type":"Feature","geometry":{"type":"Point","coordinates":[630016.36,5219793.3]},"properties":{"rank":169,"tile":"siret3_r027_c020.tif","kind":"white","score":2.45,"area_m2":0.472,"on_passage":false,"px":[0,1843,29,1893],"box":[630016.0,5219792.67,630016.72,5219793.92],"vineyard_id":"V32","block_dist_m":0.0,"thumb":"data/waste_cand/169_r027_c020.jpg"}},{"type":"Feature","geometry":{"type":"Point","coordinates":[629912.96,5219592.67]},"properties":{"rank":170,"tile":"siret3_r031_c017.tif","kind":"white","score":2.45,"area_m2":0.111,"on_passage":false,"px":[2012,1688,2033,1714],"box":[629912.7,5219592.35,629913.22,5219593.0],"vineyard_id":"V58","block_dist_m":5.4,"thumb":"data/waste_cand/170_r031_c017.jpg"}},{"type":"Feature","geometry":{"type":"Point","coordinates":[630099.44,5219453.24]},"properties":{"rank":171,"tile":"siret3_r034_c021.tif","kind":"white","score":2.45,"area_m2":0.24,"on_passage":false,"px":[1278,1113,1301,1156],"box":[630099.15,5219452.7,630099.72,5219453.77],"vineyard_id":"V68","block_dist_m":0.0,"thumb":"data/waste_cand/171_r034_c021.jpg"}},{"type":"Feature","geometry":{"type":"Point","coordinates":[630451.55,5219478.99]},"properties":{"rank":172,"tile":"siret3_r034_c028.tif","kind":"white","score":2.45,"area_m2":0.189,"on_passage":false,"px":[1019,95,1057,114],"box":[630451.07,5219478.75,630452.03,5219479.22],"vineyard_id":"V66","block_dist_m":0.0,"thumb":"data/waste_cand/172_r034_c028.jpg"}},{"type":"Feature","geometry":{"type":"Point","coordinates":[630162.49,5219339.7]},"properties":{"rank":173,"tile":"siret3_r036_c022.tif","kind":"white","score":2.45,"area_m2":0.131,"on_passage":false,"px":[1753,1571,1774,1589],"box":[630162.22,5219339.48,630162.75,5219339.92],"vineyard_id":"V68","block_dist_m":0.0,"thumb":"data/waste_cand/173_r036_c022.jpg"}},{"type":"Feature","geometry":{"type":"Point","coordinates":[629426.01,5220597.95]},"properties":{"rank":174,"tile":"siret3_r012_c008.tif","kind":"white","score":2.44,"area_m2":0.1,"on_passage":false,"px":[969,395,984,409],"box":[629425.82,5220597.78,629426.2,5220598.12],"vineyard_id":"V11","block_dist_m":0.0,"thumb":"data/waste_cand/174_r012_c008.jpg"}},{"type":"Feature","geometry":{"type":"Point","coordinates":[629986.46,5219736.7]},"properties":{"rank":175,"tile":"siret3_r029_c019.tif","kind":"white","score":2.44,"area_m2":0.19,"on_passage":false,"px":[858,21,875,51],"box":[629986.25,5219736.32,629986.68,5219737.07],"vineyard_id":"V39","block_dist_m":0.0,"thumb":"data/waste_cand/175_r029_c019.jpg"}},{"type":"Feature","geometry":{"type":"Point","coordinates":[629964.53,5219620.15]},"properties":{"rank":176,"tile":"siret3_r031_c018.tif","kind":"white","score":2.44,"area_m2":0.254,"on_passage":false,"px":[2026,588,2048,616],"box":[629964.25,5219619.8,629964.8,5219620.5],"vineyard_id":"V63","block_dist_m":0.0,"thumb":"data/waste_cand/176_r031_c018.jpg"}},{"type":"Feature","geometry":{"type":"Point","coordinates":[630162.66,5219541.08]},"properties":{"rank":177,"tile":"siret3_r032_c022.tif","kind":"white","score":2.44,"area_m2":0.179,"on_passage":false,"px":[1758,1706,1783,1728],"box":[630162.35,5219540.8,630162.97,5219541.35],"vineyard_id":"V57","block_dist_m":0.0,"thumb":"data/waste_cand/177_r032_c022.jpg"}},{"type":"Feature","geometry":{"type":"Point","coordinates":[630237.12,5219468.54]},"properties":{"rank":178,"tile":"siret3_r034_c024.tif","kind":"white","score":2.44,"area_m2":0.177,"on_passage":false,"px":[643,508,663,537],"box":[630236.88,5219468.17,630237.38,5219468.9],"vineyard_id":"V63","block_dist_m":0.0,"thumb":"data/waste_cand/178_r034_c024.jpg"}},{"type":"Feature","geometry":{"type":"Point","coordinates":[630102.01,5219538.8]},"properties":{"rank":179,"tile":"siret3_r032_c021.tif","kind":"white","score":2.43,"area_m2":0.573,"on_passage":false,"px":[1372,1791,1413,1825],"box":[630101.5,5219538.38,630102.52,5219539.22],"vineyard_id":"V63","block_dist_m":0.0,"thumb":"data/waste_cand/179_r032_c021.jpg"}},{"type":"Feature","geometry":{"type":"Point","coordinates":[630440.38,5219464.45]},"properties":{"rank":180,"tile":"siret3_r034_c028.tif","kind":"white","score":2.43,"area_m2":0.186,"on_passage":false,"px":[581,671,601,701],"box":[630440.12,5219464.07,630440.62,5219464.82],"vineyard_id":"V66","block_dist_m":0.0,"thumb":"data/waste_cand/180_r034_c028.jpg"}},{"type":"Feature","geometry":{"type":"Point","coordinates":[630192.25,5219299.39]},"properties":{"rank":181,"tile":"siret3_r037_c023.tif","kind":"white","score":2.43,"area_m2":0.101,"on_passage":false,"px":[897,1134,915,1155],"box":[630192.03,5219299.12,630192.47,5219299.65],"vineyard_id":"V70","block_dist_m":0.0,"thumb":"data/waste_cand/181_r037_c023.jpg"}},{"type":"Feature","geometry":{"type":"Point","coordinates":[629225.73,5220561.75]},"properties":{"rank":182,"tile":"siret3_r012_c004.tif","kind":"white","score":2.42,"area_m2":0.208,"on_passage":false,"px":[1148,1836,1166,1864],"box":[629225.5,5220561.4,629225.95,5220562.1],"vineyard_id":"V10","block_dist_m":0.0,"thumb":"data/waste_cand/182_r012_c004.jpg"}},{"type":"Feature","geometry":{"type":"Point","coordinates":[629424.2,5220607.59]},"properties":{"rank":183,"tile":"siret3_r012_c008.tif","kind":"white","score":2.42,"area_m2":0.333,"on_passage":false,"px":[892,0,916,33],"box":[629423.9,5220607.17,629424.5,5220608.0],"vineyard_id":"V11","block_dist_m":0.0,"thumb":"data/waste_cand/183_r012_c008.jpg"}},{"type":"Feature","geometry":{"type":"Point","coordinates":[630054.82,5219751.94]},"properties":{"rank":184,"tile":"siret3_r028_c020.tif","kind":"white","score":2.42,"area_m2":0.109,"on_passage":false,"px":[1539,1468,1567,1481],"box":[630054.47,5219751.77,630055.18,5219752.1],"vineyard_id":"V42","block_dist_m":0.0,"thumb":"data/waste_cand/184_r028_c020.jpg"}},{"type":"Feature","geometry":{"type":"Point","coordinates":[630070.19,5219448.26]},"properties":{"rank":185,"tile":"siret3_r034_c021.tif","kind":"white","score":2.42,"area_m2":0.111,"on_passage":false,"px":[109,1326,130,1341],"box":[630069.92,5219448.07,630070.45,5219448.45],"vineyard_id":"V68","block_dist_m":0.0,"thumb":"data/waste_cand/185_r034_c021.jpg"}},{"type":"Feature","geometry":{"type":"Point","coordinates":[630221.15,5219466.75]},"properties":{"rank":186,"tile":"siret3_r034_c024.tif","kind":"white","score":2.42,"area_m2":0.143,"on_passage":false,"px":[4,585,24,603],"box":[630220.9,5219466.52,630221.4,5219466.97],"vineyard_id":"V63","block_dist_m":0.0,"thumb":"data/waste_cand/186_r034_c024.jpg"}},{"type":"Feature","geometry":{"type":"Point","coordinates":[630373.21,5219413.88]},"properties":{"rank":187,"tile":"siret3_r035_c026.tif","kind":"white","score":2.42,"area_m2":0.415,"on_passage":false,"px":[1980,645,2021,677],"box":[630372.7,5219413.48,630373.72,5219414.28],"vineyard_id":"V65","block_dist_m":0.0,"thumb":"data/waste_cand/187_r035_c026.jpg"}},{"type":"Feature","geometry":{"type":"Point","coordinates":[629130.93,5220648.11]},"properties":{"rank":188,"tile":"siret3_r011_c002.tif","kind":"white","score":2.41,"area_m2":0.241,"on_passage":false,"px":[1449,433,1473,454],"box":[629130.62,5220647.85,629131.22,5220648.38],"vineyard_id":"V08","block_dist_m":0.0,"thumb":"data/waste_cand/188_r011_c002.jpg"}},{"type":"Feature","geometry":{"type":"Point","coordinates":[629996.41,5219892.9]},"properties":{"rank":189,"tile":"siret3_r025_c019.tif","kind":"white","score":2.41,"area_m2":0.153,"on_passage":false,"px":[1255,1970,1274,1990],"box":[629996.18,5219892.65,629996.65,5219893.15],"vineyard_id":"V34","block_dist_m":0.0,"thumb":"data/waste_cand/189_r025_c019.jpg"}},{"type":"Feature","geometry":{"type":"Point","coordinates":[629934.14,5219806.59]},"properties":{"rank":190,"tile":"siret3_r027_c018.tif","kind":"white","score":2.41,"area_m2":0.165,"on_passage":false,"px":[810,1329,833,1344],"box":[629933.85,5219806.4,629934.42,5219806.78],"vineyard_id":"V39","block_dist_m":0.0,"thumb":"data/waste_cand/190_r027_c018.jpg"}},{"type":"Feature","geometry":{"type":"Point","coordinates":[630192.12,5219814.25]},"properties":{"rank":191,"tile":"siret3_r027_c023.tif","kind":"white","score":2.41,"area_m2":0.133,"on_passage":false,"px":[889,1021,913,1039],"box":[630191.82,5219814.03,630192.42,5219814.47],"vineyard_id":"V42","block_dist_m":0.0,"thumb":"data/waste_cand/191_r027_c023.jpg"}},{"type":"Feature","geometry":{"type":"Point","coordinates":[629918.8,5219783.69]},"properties":{"rank":192,"tile":"siret3_r028_c018.tif","kind":"white","score":2.41,"area_m2":0.399,"on_passage":false,"px":[188,190,228,219],"box":[629918.3,5219783.33,629919.3,5219784.05],"vineyard_id":"V39","block_dist_m":2.1,"thumb":"data/waste_cand/192_r028_c018.jpg"}},{"type":"Feature","geometry":{"type":"Point","coordinates":[630386.44,5219492.88]},"properties":{"rank":193,"tile":"siret3_r033_c027.tif","kind":"white","score":2.41,"area_m2":0.111,"on_passage":false,"px":[471,1589,492,1605],"box":[630386.18,5219492.67,630386.7,5219493.08],"vineyard_id":"V65","block_dist_m":0.0,"thumb":"data/waste_cand/193_r033_c027.jpg"}},{"type":"Feature","geometry":{"type":"Point","coordinates":[630088.7,5219362.09]},"properties":{"rank":194,"tile":"siret3_r036_c021.tif","kind":"white","score":2.41,"area_m2":0.108,"on_passage":false,"px":[848,677,872,692],"box":[630088.4,5219361.9,630089.0,5219362.28],"vineyard_id":"V67","block_dist_m":0.0,"thumb":"data/waste_cand/194_r036_c021.jpg"}},{"type":"Feature","geometry":{"type":"Point","coordinates":[629249.0,5220547.94]},"properties":{"rank":195,"tile":"siret3_r013_c005.tif","kind":"dark","score":2.4,"area_m2":1.108,"on_passage":false,"px":[17,326,63,383],"box":[629248.43,5220547.22,629249.57,5220548.65],"vineyard_id":"V10","block_dist_m":0.0,"thumb":"data/waste_cand/195_r013_c005.jpg"}},{"type":"Feature","geometry":{"type":"Point","coordinates":[629926.84,5219918.53]},"properties":{"rank":196,"tile":"siret3_r025_c018.tif","kind":"white","score":2.4,"area_m2":0.106,"on_passage":false,"px":[520,946,539,964],"box":[629926.6,5219918.3,629927.07,5219918.75],"vineyard_id":"V32","block_dist_m":0.0,"thumb":"data/waste_cand/196_r025_c018.jpg"}},{"type":"Feature","geometry":{"type":"Point","coordinates":[629936.86,5219890.46]},"properties":{"rank":197,"tile":"siret3_r026_c018.tif","kind":"dark","score":2.4,"area_m2":0.231,"on_passage":false,"px":[918,18,943,41],"box":[629936.55,5219890.17,629937.17,5219890.75],"vineyard_id":"V32","block_dist_m":0.0,"thumb":"data/waste_cand/197_r026_c018.jpg"}},{"type":"Feature","geometry":{"type":"Point","coordinates":[629898.03,5219805.66]},"properties":{"rank":198,"tile":"siret3_r027_c017.tif","kind":"white","score":2.4,"area_m2":0.116,"on_passage":false,"px":[1418,1364,1432,1383],"box":[629897.85,5219805.42,629898.2,5219805.9],"vineyard_id":"V39","block_dist_m":0.0,"thumb":"data/waste_cand/198_r027_c017.jpg"}},{"type":"Feature","geometry":{"type":"Point","coordinates":[630060.15,5219732.84]},"properties":{"rank":199,"tile":"siret3_r029_c020.tif","kind":"dark","score":2.4,"area_m2":0.213,"on_passage":false,"px":[1756,178,1776,203],"box":[630059.9,5219732.52,630060.4,5219733.15],"vineyard_id":"V42","block_dist_m":4.2,"thumb":"data/waste_cand/199_r029_c020.jpg"}},{"type":"Feature","geometry":{"type":"Point","coordinates":[629966.46,5219680.05]},"properties":{"rank":200,"tile":"siret3_r030_c019.tif","kind":"dark","score":2.4,"area_m2":0.176,"on_passage":false,"px":[54,245,79,263],"box":[629966.15,5219679.83,629966.78,5219680.28],"vineyard_id":"V63","block_dist_m":0.0,"thumb":"data/waste_cand/200_r030_c019.jpg"}}]}