{"type":"FeatureCollection","crs":{"type":"name","properties":{"name":"urn:ogc:def:crs:EPSG::32635"}},"features":[{"type":"Feature","properties":{"vineyard_id":"V63","status":"red"},"geometry":{"type":"Polygon","coordinates":[[[629961.7,5219682.8],[629961.2,5219684.3],[629961.7,5219685.7],[629964.7,5219689.1],[629966.2,5219689.8],[629967.7,5219689.5],[629970.1,5219687.4],[629971.9,5219689.3],[629973.1,5219689.8],[629975.0,5219689.3],[629976.9,5219689.8],[629978.5,5219688.9],[629980.2,5219689.8],[629982.3,5219689.0],[629984.4,5219689.8],[629986.0,5219688.9],[629988.2,5219689.8],[629991.7,5219687.4],[629992.5,5219685.9],[629991.9,5219683.8],[629967.5,5219655.7],[629967.5,5219652.6],[629996.0,5219685.5],[630001.2,5219679.6],[629967.4,5219640.6],[629967.5,5219640.0],[630001.6,5219679.3],[630018.8,5219659.4],[630025.8,5219652.0],[630043.1,5219636.2],[630130.6,5219564.3],[630210.5,5219496.0],[630209.2,5219484.8],[630210.6,5219485.1],[630212.0,5219484.6],[630213.7,5219485.1],[630215.3,5219484.4],[630217.2,5219485.1],[630218.9,5219484.3],[630222.1,5219485.4],[630226.8,5219483.6],[630227.4,5219484.6],[630254.7,5219466.1],[630272.8,5219458.9],[630297.1,5219441.3],[630351.1,5219385.7],[630359.1,5219376.1],[630357.5,5219375.9],[630356.1,5219376.6],[630355.5,5219376.1],[630326.6,5219341.2],[630325.0,5219338.5],[630326.5,5219337.1],[630326.8,5219335.5],[630323.4,5219329.9],[630324.7,5219329.4],[630325.5,5219328.2],[630325.7,5219321.7],[630329.9,5219326.9],[630329.0,5219328.7],[630329.5,5219330.5],[630363.1,5219371.3],[630373.2,5219359.2],[630383.0,5219351.3],[630383.1,5219347.7],[630382.4,5219346.7],[630381.2,5219346.1],[630381.0,5219344.3],[630378.6,5219341.0],[630378.5,5219339.8],[630377.8,5219338.8],[630373.5,5219337.4],[630371.3,5219338.4],[630369.9,5219338.1],[630366.7,5219339.0],[630358.3,5219328.7],[630360.0,5219326.2],[630360.0,5219324.3],[630352.5,5219314.9],[630353.5,5219313.6],[630353.4,5219312.0],[630349.2,5219306.7],[630349.6,5219304.5],[630347.4,5219301.4],[630346.1,5219300.7],[630344.4,5219300.9],[630335.9,5219308.6],[630306.3,5219329.7],[630261.7,5219373.8],[630244.4,5219380.4],[630202.1,5219412.1],[630167.6,5219446.5],[630127.5,5219472.1],[630125.0,5219474.5],[630128.5,5219479.0],[630127.4,5219479.2],[630124.3,5219475.2],[630114.0,5219485.5],[630115.0,5219488.5],[630113.3,5219486.2],[630086.4,5219512.8],[630079.7,5219517.9],[630088.7,5219530.2],[630086.1,5219532.4],[630085.8,5219533.9],[630086.2,5219535.0],[630115.8,5219573.0],[630115.8,5219574.9],[630083.9,5219533.8],[630084.6,5219532.3],[630084.3,5219530.7],[630076.5,5219520.2],[630060.3,5219532.4],[630064.3,5219538.4],[630063.9,5219539.1],[630059.3,5219533.2],[630040.7,5219547.6],[630064.4,5219578.1],[630064.1,5219578.4],[630040.4,5219547.7],[630013.8,5219569.5],[630015.7,5219571.9],[630012.5,5219574.8],[630012.5,5219576.2],[630013.3,5219577.7],[630012.4,5219579.3],[630012.8,5219581.0],[630012.2,5219581.5],[630010.3,5219580.6],[630008.6,5219581.3],[630007.3,5219580.7],[630005.3,5219581.1],[630003.8,5219580.6],[630002.2,5219581.3],[630000.1,5219580.6],[629962.9,5219610.4],[629964.0,5219611.6],[629961.8,5219613.6],[629961.2,5219614.9],[629962.3,5219617.2],[629961.4,5219618.3],[629961.3,5219619.8],[629962.4,5219621.6],[629961.2,5219623.6],[629961.5,5219624.8],[629962.4,5219626.0],[629961.3,5219627.7],[629961.9,5219629.8],[629961.3,5219631.1],[629961.5,5219632.7],[629953.0,5219631.3],[629950.9,5219632.3],[629945.1,5219631.3],[629944.0,5219631.8],[629943.1,5219632.9],[629936.4,5219631.6],[629910.9,5219653.4],[629911.1,5219664.3],[629914.8,5219668.4],[629923.2,5219675.3],[629961.7,5219682.8]],[[630275.4,5219368.4],[630275.9,5219360.7],[630285.8,5219376.7],[630280.4,5219376.7],[630275.4,5219368.4]]]}},{"type":"Feature","properties":{"vineyard_id":"V32","status":"red"},"geometry":{"type":"Polygon","coordinates":[[[629800.8,5220102.3],[629801.3,5220100.5],[629799.9,5220098.4],[629800.5,5220096.9],[629800.1,5220094.2],[629802.0,5220094.4],[629802.0,5220096.6],[629803.2,5220098.0],[629807.8,5220098.5],[629825.1,5220076.8],[629823.4,5220047.9],[629824.0,5220047.6],[629825.7,5220048.1],[629827.1,5220047.6],[629829.0,5220048.1],[629831.0,5220046.7],[629832.6,5220047.9],[629834.1,5220048.1],[629835.2,5220047.7],[629836.2,5220046.5],[629838.8,5220048.1],[629840.9,5220047.5],[629842.9,5220048.1],[629844.5,5220047.3],[629845.6,5220048.0],[629847.0,5220048.0],[629865.9,5220022.6],[629865.9,5220021.2],[629865.2,5220019.9],[629858.5,5220015.4],[629856.6,5220015.1],[629855.2,5220016.0],[629846.0,5220028.0],[629845.3,5220027.5],[629865.6,5220000.5],[629866.0,5219998.8],[629865.3,5219997.5],[629866.0,5219995.9],[629872.5,5219997.4],[629874.1,5219996.3],[629875.0,5219993.4],[629885.0,5219996.4],[629916.4,5219952.2],[629915.9,5219951.4],[629916.5,5219949.0],[629915.7,5219947.5],[629916.4,5219944.0],[629922.6,5219943.4],[629949.3,5219911.9],[629959.6,5219898.1],[629957.5,5219897.2],[629916.2,5219901.3],[629916.2,5219900.4],[629961.3,5219895.8],[629966.8,5219888.9],[629965.8,5219887.9],[629964.4,5219887.7],[629916.4,5219892.5],[629917.5,5219885.1],[629953.8,5219885.5],[629954.8,5219884.8],[629955.4,5219883.5],[629955.4,5219880.2],[629954.8,5219878.7],[629965.7,5219878.7],[629967.1,5219877.1],[629967.3,5219873.4],[629966.6,5219871.8],[629965.1,5219871.1],[629914.4,5219870.2],[629914.5,5219869.3],[629965.4,5219870.3],[629966.8,5219869.4],[629967.2,5219868.0],[629967.3,5219842.6],[629973.5,5219842.2],[629975.0,5219842.7],[629980.6,5219842.3],[629981.9,5219842.7],[629995.8,5219842.7],[629999.1,5219842.3],[630000.3,5219841.6],[630001.0,5219840.3],[630000.6,5219834.3],[630001.7,5219841.4],[630002.9,5219842.5],[630005.1,5219842.5],[630008.9,5219837.8],[630003.1,5219791.3],[630005.5,5219792.1],[630007.5,5219790.6],[630012.1,5219829.3],[630013.3,5219831.1],[630014.0,5219831.4],[630025.7,5219816.8],[630027.8,5219815.6],[630031.2,5219810.9],[630031.6,5219805.6],[630024.3,5219790.4],[630022.1,5219790.9],[630022.4,5219789.4],[630024.0,5219789.7],[630013.0,5219767.2],[629999.0,5219749.8],[629999.4,5219752.0],[629998.5,5219754.2],[629873.6,5219903.7],[629911.0,5219908.9],[629911.4,5219911.9],[629911.0,5219913.1],[629911.0,5219917.4],[629867.2,5219911.3],[629805.1,5219985.8],[629808.7,5219985.3],[629807.6,5219987.7],[629807.9,5219988.9],[629808.9,5219989.9],[629807.8,5219991.7],[629807.6,5219993.1],[629805.4,5219990.5],[629803.7,5219990.4],[629802.3,5219991.1],[629801.2,5219990.4],[629781.1,5220014.6],[629779.1,5220015.8],[629777.2,5220015.9],[629775.1,5220014.8],[629774.1,5220012.7],[629774.3,5220010.4],[629790.9,5219990.3],[629789.2,5219990.8],[629787.3,5219990.3],[629785.6,5219991.2],[629784.4,5219990.4],[629783.0,5219990.4],[629779.7,5219992.7],[629778.3,5219990.9],[629777.0,5219990.3],[629775.8,5219990.4],[629774.3,5219991.4],[629772.5,5219990.3],[629770.7,5219990.7],[629768.9,5219990.3],[629767.4,5219991.1],[629766.6,5219990.5],[629793.5,5219987.2],[629800.8,5219978.5],[629794.7,5219979.2],[629795.5,5219978.2],[629795.8,5219976.8],[629802.9,5219975.9],[629833.2,5219939.6],[629831.5,5219939.1],[629829.8,5219939.9],[629813.6,5219961.0],[629813.2,5219959.4],[629812.1,5219958.4],[629810.9,5219958.1],[629807.2,5219958.6],[629806.3,5219957.0],[629804.7,5219956.5],[629758.6,5219962.4],[629757.6,5219963.5],[629757.3,5219964.6],[629757.3,5219978.8],[629757.9,5219982.3],[629759.2,5219983.6],[629758.0,5219984.3],[629757.4,5219985.6],[629757.7,5219989.3],[629758.2,5219990.3],[629757.0,5219991.0],[629755.1,5219990.3],[629753.4,5219991.1],[629751.6,5219990.3],[629749.8,5219991.0],[629748.1,5219990.3],[629746.4,5219990.9],[629744.3,5219990.3],[629743.0,5219990.9],[629715.5,5220027.4],[629735.9,5220006.9],[629736.8,5220006.5],[629780.4,5220018.6],[629781.5,5220019.7],[629781.0,5220021.1],[629779.6,5220021.4],[629737.4,5220009.7],[629700.6,5220046.4],[629689.9,5220044.3],[629687.7,5220047.1],[629687.1,5220046.7],[629687.1,5220044.6],[629686.0,5220043.4],[629678.2,5220041.7],[629677.5,5220042.2],[629675.3,5220041.5],[629673.9,5220042.1],[629671.8,5220041.5],[629670.3,5220042.3],[629668.4,5220041.5],[629666.6,5220042.2],[629664.5,5220041.5],[629663.1,5220042.2],[629661.6,5220041.5],[629659.5,5220042.2],[629657.6,5220041.5],[629655.9,5220042.3],[629654.2,5220044.5],[629654.0,5220045.8],[629651.5,5220048.7],[629652.8,5220046.7],[629652.9,5220045.0],[629652.3,5220043.9],[629649.2,5220041.6],[629623.5,5220077.9],[629787.2,5220119.0],[629800.8,5220102.3]],[[629653.5,5220063.6],[629653.4,5220062.8],[629654.6,5220061.4],[629655.1,5220061.9],[629653.5,5220063.6]],[[629653.3,5220079.1],[629652.2,5220078.6],[629650.7,5220078.7],[629654.2,5220074.6],[629655.1,5220075.7],[629653.3,5220079.1]],[[629762.9,5220076.9],[629760.2,5220074.8],[629758.6,5220074.5],[629763.6,5220067.5],[629763.3,5220065.8],[629762.1,5220064.7],[629763.6,5220062.2],[629763.4,5220060.8],[629762.4,5220059.6],[629763.3,5220058.3],[629763.6,5220056.8],[629763.0,5220055.5],[629761.3,5220054.2],[629763.6,5220050.5],[629763.4,5220049.3],[629762.5,5220048.3],[629763.4,5220046.9],[629763.6,5220045.7],[629762.4,5220043.6],[629765.9,5220047.8],[629762.9,5220076.9]],[[629859.9,5219990.5],[629859.7,5219990.4],[629860.1,5219989.9],[629859.9,5219990.5]],[[629865.4,5219983.3],[629865.9,5219981.2],[629864.5,5219979.3],[629872.1,5219981.6],[629871.7,5219983.2],[629872.0,5219984.3],[629868.0,5219983.1],[629866.8,5219983.2],[629865.3,5219984.4],[629864.4,5219987.4],[629862.4,5219987.1],[629865.4,5219983.3]],[[630013.2,5219771.4],[630013.5,5219773.0],[630012.2,5219772.7],[630013.2,5219771.4]],[[630017.4,5219779.9],[630017.3,5219780.5],[630016.2,5219779.7],[630017.4,5219779.9]],[[630015.5,5219791.9],[630016.6,5219792.1],[630015.6,5219792.4],[630015.5,5219791.9]]]}},{"type":"Feature","properties":{"vineyard_id":"V68","status":"red"},"geometry":{"type":"Polygon","coordinates":[[[630329.4,5219286.4],[630327.5,5219285.5],[630325.7,5219286.2],[630325.7,5219282.9],[630324.6,5219281.3],[630324.4,5219278.8],[630323.4,5219277.5],[630323.1,5219274.8],[630322.3,5219273.9],[630321.0,5219273.5],[630316.6,5219267.4],[630315.0,5219266.8],[630313.3,5219267.5],[630310.2,5219263.2],[630309.2,5219262.6],[630307.8,5219262.5],[630306.2,5219263.4],[630302.9,5219258.9],[630301.6,5219258.3],[630300.1,5219258.5],[630297.1,5219254.8],[630295.4,5219254.5],[630293.9,5219255.4],[630289.0,5219248.5],[630287.7,5219247.8],[630286.1,5219248.1],[630283.4,5219244.6],[630282.0,5219244.2],[630280.8,5219244.5],[630279.7,5219243.8],[630278.5,5219243.6],[630275.2,5219245.6],[630274.3,5219244.8],[630274.2,5219243.3],[630273.2,5219241.8],[630227.1,5219280.1],[630228.9,5219280.3],[630230.7,5219279.2],[630232.5,5219280.4],[630233.7,5219280.2],[630234.9,5219279.4],[630236.6,5219280.4],[630238.9,5219279.5],[630241.0,5219280.4],[630243.0,5219279.3],[630244.8,5219280.4],[630247.1,5219279.5],[630249.2,5219280.4],[630252.8,5219278.2],[630255.0,5219280.3],[630256.6,5219280.2],[630258.3,5219279.1],[630259.2,5219280.1],[630260.7,5219280.4],[630261.8,5219280.0],[630265.4,5219277.3],[630267.5,5219279.9],[630269.5,5219280.4],[630269.5,5219325.5],[630230.8,5219325.4],[630229.4,5219325.8],[630228.5,5219327.0],[630227.0,5219325.7],[630223.2,5219325.4],[630222.1,5219325.9],[630221.2,5219327.0],[630220.7,5219332.2],[630219.3,5219331.5],[630217.2,5219331.6],[630216.8,5219327.1],[630215.0,5219325.5],[630202.6,5219325.6],[630201.4,5219326.0],[630200.5,5219327.0],[630199.4,5219325.8],[630218.3,5219311.1],[630219.0,5219310.1],[630219.0,5219308.6],[630223.8,5219304.6],[630224.1,5219303.0],[630223.3,5219301.5],[630224.0,5219300.5],[630224.0,5219299.0],[630221.3,5219295.4],[630223.3,5219293.7],[630224.1,5219292.5],[630224.1,5219289.3],[630223.7,5219288.1],[630224.1,5219286.9],[630224.1,5219284.4],[630223.6,5219283.0],[630023.7,5219448.8],[630064.4,5219444.4],[630067.3,5219448.0],[630018.3,5219453.3],[630013.5,5219457.3],[630014.1,5219460.3],[630016.2,5219461.4],[630067.6,5219455.7],[630068.9,5219455.2],[630069.7,5219454.2],[630069.6,5219450.9],[630091.6,5219478.4],[630090.3,5219479.1],[630088.0,5219478.3],[630086.3,5219479.2],[630084.5,5219478.3],[630083.1,5219478.6],[630081.5,5219478.3],[630080.0,5219479.1],[630078.3,5219478.3],[630076.2,5219479.1],[630074.7,5219478.3],[630073.2,5219478.6],[630069.6,5219474.2],[630069.1,5219472.6],[630069.8,5219471.1],[630069.5,5219467.6],[630068.8,5219466.3],[630067.5,5219465.6],[630018.5,5219470.8],[630019.4,5219469.0],[630019.2,5219467.3],[630016.6,5219464.6],[630015.0,5219464.0],[630013.2,5219464.7],[629999.0,5219478.8],[629998.4,5219480.1],[629998.6,5219481.8],[630001.6,5219484.8],[630003.9,5219484.8],[630013.0,5219495.7],[630014.7,5219496.5],[630016.1,5219496.3],[630018.6,5219494.2],[630019.5,5219492.3],[630019.1,5219490.9],[630015.1,5219486.0],[630017.4,5219484.7],[630020.6,5219484.4],[630058.3,5219530.1],[630074.8,5219517.8],[630070.0,5219511.4],[630068.9,5219510.8],[630067.5,5219510.9],[630070.5,5219508.2],[630070.8,5219507.0],[630070.3,5219505.7],[630052.3,5219483.7],[630055.4,5219483.3],[630063.9,5219493.9],[630063.6,5219495.3],[630063.9,5219496.4],[630077.9,5219515.4],[630084.3,5219510.6],[630122.5,5219472.8],[630120.3,5219469.6],[630120.9,5219469.1],[630123.2,5219472.1],[630125.8,5219469.6],[630165.7,5219444.1],[630200.2,5219409.7],[630242.9,5219377.8],[630260.0,5219371.3],[630273.7,5219357.8],[630273.7,5219357.2],[630273.9,5219357.5],[630304.3,5219327.4],[630334.0,5219306.2],[630340.6,5219300.3],[630329.4,5219286.4]],[[630081.6,5219433.7],[630116.0,5219477.2],[630115.4,5219477.7],[630079.9,5219433.4],[630081.6,5219433.7]],[[630096.0,5219433.7],[630097.2,5219433.0],[630098.9,5219433.8],[630100.6,5219433.1],[630102.0,5219433.7],[630103.5,5219433.4],[630115.5,5219448.3],[630114.9,5219449.5],[630115.0,5219450.9],[630118.9,5219456.2],[630115.8,5219458.4],[630096.0,5219433.7]],[[630066.8,5219511.2],[630064.4,5219513.0],[630063.6,5219514.3],[630063.7,5219515.7],[630064.7,5219517.3],[630063.8,5219518.4],[630063.6,5219519.8],[630064.8,5219521.9],[630063.9,5219522.8],[630063.6,5219524.2],[630029.9,5219483.4],[630031.9,5219483.1],[630032.6,5219484.8],[630034.1,5219485.5],[630043.0,5219484.6],[630064.2,5219510.4],[630065.4,5219511.2],[630066.8,5219511.2]]]}},{"type":"Feature","properties":{"vineyard_id":"V66","status":"red"},"geometry":{"type":"Polygon","coordinates":[[[630387.8,5219571.1],[630389.8,5219570.5],[630390.6,5219568.8],[630392.6,5219568.0],[630393.2,5219566.4],[630413.8,5219568.7],[630415.1,5219568.3],[630416.0,5219567.3],[630425.4,5219568.3],[630426.9,5219567.8],[630428.9,5219568.6],[630430.2,5219570.1],[630432.3,5219570.2],[630433.5,5219573.5],[630434.8,5219574.3],[630436.1,5219574.2],[630437.5,5219575.9],[630438.7,5219576.1],[630440.9,5219575.6],[630441.8,5219576.8],[630443.2,5219577.3],[630449.3,5219576.3],[630450.0,5219578.7],[630450.9,5219579.7],[630452.4,5219580.1],[630455.6,5219579.2],[630456.2,5219580.7],[630457.6,5219581.6],[630462.4,5219580.4],[630463.3,5219579.0],[630463.2,5219577.5],[630463.9,5219577.3],[630465.6,5219578.1],[630467.6,5219577.6],[630469.9,5219585.7],[630471.5,5219586.8],[630474.0,5219586.8],[630473.7,5219588.3],[630474.4,5219590.0],[630473.7,5219591.8],[630474.4,5219593.8],[630473.7,5219595.5],[630474.3,5219597.5],[630473.7,5219599.1],[630474.1,5219600.6],[630473.7,5219602.3],[630474.2,5219603.6],[630473.7,5219605.3],[630474.4,5219607.1],[630473.7,5219608.9],[630475.0,5219612.1],[630484.7,5219583.6],[630494.8,5219532.1],[630511.2,5219483.6],[630510.1,5219483.0],[630508.7,5219479.4],[630507.2,5219478.8],[630505.8,5219477.5],[630503.9,5219477.5],[630503.2,5219475.3],[630501.8,5219474.4],[630501.9,5219473.2],[630501.1,5219469.8],[630499.5,5219468.4],[630478.2,5219473.1],[630478.1,5219472.2],[630490.8,5219469.2],[630491.6,5219467.2],[630490.7,5219463.3],[630489.0,5219462.1],[630486.2,5219462.5],[630485.6,5219460.7],[630483.9,5219459.7],[630483.1,5219457.5],[630481.4,5219456.6],[630481.4,5219455.2],[630480.3,5219451.4],[630478.5,5219450.5],[630475.5,5219451.2],[630474.7,5219446.8],[630473.1,5219445.8],[630470.5,5219446.0],[630469.9,5219442.7],[630468.8,5219441.7],[630467.3,5219441.4],[630466.3,5219439.4],[630461.5,5219438.2],[630461.1,5219436.4],[630459.8,5219435.3],[630455.3,5219435.2],[630454.6,5219429.5],[630453.9,5219428.4],[630451.5,5219426.8],[630452.0,5219425.1],[630451.4,5219423.5],[630440.3,5219416.1],[630442.3,5219415.3],[630444.9,5219416.8],[630446.7,5219416.4],[630449.2,5219413.0],[630449.0,5219410.7],[630432.9,5219399.4],[630410.4,5219474.4],[630396.9,5219527.3],[630384.9,5219570.8],[630387.8,5219571.1]],[[630443.9,5219479.0],[630438.5,5219434.1],[630444.0,5219479.0],[630443.9,5219479.0]],[[630489.3,5219529.7],[630487.7,5219530.3],[630487.3,5219530.2],[630489.3,5219529.7]]]}},{"type":"Feature","properties":{"vineyard_id":"V11","status":"red"},"geometry":{"type":"Polygon","coordinates":[[[629401.2,5220567.8],[629402.0,5220570.1],[629398.5,5220571.5],[629397.8,5220572.8],[629397.9,5220574.2],[629362.5,5220571.7],[629347.9,5220582.5],[629347.9,5220589.2],[629348.6,5220590.4],[629349.9,5220591.1],[629390.7,5220594.0],[629392.4,5220593.2],[629393.1,5220591.5],[629398.7,5220591.9],[629404.0,5220609.2],[629405.2,5220610.6],[629405.2,5220613.2],[629406.6,5220614.5],[629410.1,5220615.1],[629408.6,5220616.8],[629408.1,5220620.0],[629408.3,5220621.2],[629409.4,5220622.4],[629411.3,5220622.8],[629410.1,5220624.4],[629404.1,5220623.4],[629404.1,5220613.3],[629402.8,5220611.8],[629400.1,5220611.4],[629399.9,5220610.2],[629399.1,5220609.2],[629399.0,5220607.4],[629398.2,5220606.2],[629398.2,5220604.3],[629397.2,5220603.0],[629396.4,5220598.9],[629395.5,5220597.7],[629395.5,5220595.9],[629394.2,5220594.5],[629350.7,5220591.2],[629349.1,5220591.7],[629348.1,5220593.1],[629347.8,5220596.6],[629347.8,5220604.8],[629348.3,5220606.2],[629347.8,5220610.1],[629347.8,5220653.0],[629348.5,5220654.7],[629348.0,5220655.8],[629347.8,5220660.5],[629348.2,5220661.9],[629349.2,5220662.7],[629352.0,5220663.0],[629353.7,5220661.8],[629372.2,5220663.0],[629373.9,5220661.5],[629374.3,5220657.4],[629398.9,5220659.4],[629399.5,5220660.7],[629400.7,5220661.4],[629411.1,5220663.1],[629413.3,5220662.1],[629413.9,5220659.7],[629435.2,5220663.1],[629436.6,5220662.7],[629437.6,5220661.6],[629441.1,5220661.9],[629442.3,5220661.0],[629442.8,5220659.8],[629444.8,5220660.0],[629446.3,5220659.3],[629447.0,5220657.3],[629448.7,5220655.8],[629449.6,5220650.9],[629452.6,5220651.4],[629454.0,5220650.9],[629454.9,5220649.7],[629455.5,5220646.5],[629454.9,5220644.5],[629455.5,5220641.1],[629455.2,5220638.3],[629455.5,5220631.4],[629455.2,5220630.3],[629453.6,5220629.1],[629443.0,5220627.4],[629444.2,5220625.9],[629444.7,5220622.6],[629444.4,5220621.2],[629443.1,5220620.1],[629438.5,5220619.3],[629439.9,5220618.1],[629441.2,5220613.2],[629452.4,5220614.8],[629453.8,5220614.5],[629454.7,5220613.6],[629455.4,5220609.9],[629455.4,5220607.5],[629454.4,5220606.1],[629452.5,5220605.5],[629450.2,5220598.0],[629451.7,5220600.7],[629453.2,5220601.4],[629454.4,5220601.2],[629459.3,5220598.7],[629459.7,5220599.4],[629459.2,5220601.4],[629460.7,5220604.9],[629459.9,5220606.0],[629459.9,5220607.4],[629461.6,5220610.8],[629463.1,5220611.7],[629464.5,5220611.6],[629467.9,5220609.8],[629469.0,5220611.3],[629470.9,5220611.7],[629475.5,5220609.4],[629476.4,5220611.0],[629477.7,5220611.7],[629479.1,5220611.6],[629482.5,5220609.9],[629483.5,5220611.3],[629485.2,5220611.7],[629490.1,5220609.4],[629491.2,5220611.2],[629493.0,5220611.7],[629500.0,5220608.1],[629500.6,5220606.3],[629499.9,5220604.4],[629502.6,5220602.5],[629502.9,5220601.1],[629502.4,5220599.5],[629506.2,5220597.5],[629507.1,5220595.6],[629505.6,5220591.9],[629504.7,5220590.9],[629506.5,5220589.8],[629507.1,5220588.2],[629506.4,5220586.1],[629507.1,5220584.7],[629506.8,5220583.1],[629507.1,5220581.6],[629506.1,5220579.3],[629506.9,5220578.3],[629507.1,5220577.1],[629506.0,5220574.6],[629507.1,5220572.9],[629506.5,5220570.9],[629507.1,5220569.1],[629506.5,5220567.4],[629507.1,5220565.5],[629504.9,5220561.3],[629506.5,5220560.2],[629507.1,5220558.6],[629506.5,5220556.7],[629506.4,5220553.0],[629506.5,5220480.1],[629506.2,5220476.7],[629506.5,5220465.2],[629505.9,5220463.7],[629504.2,5220462.8],[629464.1,5220460.9],[629458.0,5220468.0],[629455.9,5220478.4],[629451.0,5220531.1],[629447.7,5220544.1],[629449.0,5220550.6],[629449.8,5220552.1],[629452.4,5220553.6],[629462.9,5220553.3],[629463.3,5220558.1],[629460.9,5220559.4],[629460.2,5220561.2],[629461.9,5220565.0],[629463.2,5220566.0],[629465.1,5220565.9],[629476.0,5220560.2],[629477.0,5220558.9],[629479.2,5220558.8],[629457.8,5220570.0],[629457.2,5220572.0],[629458.5,5220575.4],[629460.0,5220578.3],[629461.3,5220579.3],[629462.7,5220581.5],[629450.2,5220588.1],[629449.7,5220589.4],[629450.2,5220591.5],[629449.7,5220593.3],[629450.3,5220594.8],[629449.7,5220596.4],[629441.2,5220569.1],[629437.5,5220583.4],[629444.0,5220604.3],[629443.3,5220604.2],[629437.1,5220584.5],[629417.7,5220659.2],[629407.6,5220659.2],[629413.3,5220656.1],[629434.3,5220575.5],[629429.4,5220559.5],[629430.1,5220559.6],[629434.6,5220574.3],[629438.4,5220560.0],[629438.1,5220559.1],[629438.6,5220559.0],[629440.1,5220553.5],[629433.4,5220519.4],[629425.9,5220527.2],[629398.7,5220545.1],[629400.2,5220552.9],[629398.3,5220553.7],[629397.6,5220555.5],[629385.7,5220554.7],[629370.8,5220565.6],[629401.2,5220567.8]],[[629421.2,5220559.5],[629427.1,5220578.6],[629421.2,5220559.5],[629421.2,5220559.5]]]}},{"type":"Feature","properties":{"vineyard_id":"V62","status":"red"},"geometry":{"type":"Polygon","coordinates":[[[630259.9,5219536.3],[630260.8,5219536.2],[630253.6,5219581.2],[630256.4,5219586.4],[630258.4,5219586.7],[630260.2,5219586.1],[630261.0,5219584.6],[630268.8,5219535.7],[630270.2,5219536.6],[630272.3,5219536.6],[630321.0,5219532.5],[630320.3,5219534.9],[630320.9,5219536.8],[630320.3,5219538.9],[630320.4,5219542.1],[630321.6,5219543.6],[630325.7,5219544.9],[630324.3,5219551.0],[630325.2,5219552.7],[630327.0,5219553.4],[630326.9,5219555.0],[630323.9,5219554.1],[630322.0,5219554.6],[630321.3,5219555.6],[630320.3,5219558.8],[630320.3,5219562.0],[630321.0,5219563.3],[630320.3,5219566.7],[630320.9,5219567.8],[630321.9,5219568.5],[630320.3,5219572.8],[630320.8,5219574.6],[630320.3,5219576.5],[630320.3,5219581.3],[630272.8,5219585.5],[630275.9,5219565.6],[630274.4,5219563.7],[630270.5,5219563.1],[630268.9,5219563.7],[630268.2,5219565.0],[630265.4,5219583.7],[630265.8,5219585.1],[630266.7,5219585.9],[630269.9,5219586.6],[630269.4,5219588.1],[630269.4,5219600.6],[630269.7,5219603.9],[630270.2,5219605.0],[630269.4,5219606.6],[630269.5,5219611.8],[630290.1,5219640.4],[630303.4,5219653.7],[630311.8,5219654.4],[630314.9,5219633.0],[630344.2,5219543.4],[630349.5,5219484.4],[630324.8,5219482.7],[630323.3,5219482.0],[630320.9,5219482.2],[630321.5,5219480.6],[630321.1,5219479.3],[630322.1,5219477.6],[630321.8,5219476.1],[630315.4,5219470.2],[630316.2,5219468.9],[630316.3,5219467.4],[630315.7,5219466.4],[630312.2,5219463.3],[630312.9,5219461.7],[630312.4,5219460.1],[630301.6,5219450.5],[630302.8,5219448.9],[630303.0,5219447.5],[630302.5,5219446.3],[630300.9,5219444.8],[630301.4,5219444.0],[630303.4,5219443.6],[630305.9,5219440.8],[630307.5,5219440.1],[630350.3,5219476.2],[630352.8,5219448.8],[630334.2,5219433.3],[630334.6,5219433.0],[630336.6,5219433.8],[630338.2,5219433.0],[630340.4,5219433.8],[630353.7,5219444.8],[630365.0,5219397.6],[630382.1,5219358.6],[630382.4,5219355.6],[630375.3,5219361.3],[630365.0,5219373.7],[630367.0,5219376.1],[630366.4,5219376.6],[630364.4,5219375.8],[630362.7,5219376.5],[630353.3,5219387.7],[630299.2,5219443.5],[630278.2,5219458.7],[630276.9,5219462.3],[630294.4,5219477.8],[630277.5,5219479.1],[630274.6,5219476.2],[630275.0,5219474.8],[630274.5,5219473.2],[630275.0,5219471.7],[630274.5,5219470.0],[630275.0,5219468.0],[630246.6,5219550.7],[630242.0,5219554.7],[630245.9,5219568.1],[630253.0,5219580.1],[630259.9,5219536.3]],[[630297.5,5219484.1],[630297.6,5219480.6],[630298.9,5219481.3],[630300.6,5219481.1],[630303.7,5219477.6],[630309.9,5219483.1],[630297.5,5219484.1]],[[630317.4,5219519.9],[630317.3,5219516.6],[630320.6,5219516.3],[630320.7,5219518.4],[630321.4,5219519.6],[630317.4,5219519.9]],[[630326.5,5219520.6],[630326.7,5219524.1],[630326.0,5219530.6],[630325.5,5219521.8],[630325.0,5219520.5],[630326.5,5219520.6]],[[630335.6,5219533.6],[630335.1,5219533.4],[630335.7,5219533.5],[630335.6,5219533.6]],[[630321.8,5219426.9],[630322.0,5219426.1],[630322.6,5219426.6],[630322.3,5219426.9],[630321.8,5219426.9]]]}},{"type":"Feature","properties":{"vineyard_id":"V57","status":"red"},"geometry":{"type":"Polygon","coordinates":[[[630132.5,5219637.7],[630166.2,5219637.8],[630165.9,5219639.4],[630166.8,5219640.9],[630165.9,5219642.7],[630166.0,5219644.2],[630166.7,5219645.2],[630169.1,5219646.5],[630166.1,5219652.1],[630165.9,5219653.6],[630167.0,5219655.1],[630170.8,5219656.9],[630172.9,5219655.8],[630183.0,5219637.1],[630183.3,5219634.7],[630182.8,5219632.5],[630185.9,5219631.6],[630187.3,5219636.7],[630188.7,5219637.9],[630191.5,5219638.1],[630194.5,5219637.3],[630196.0,5219638.0],[630198.9,5219638.1],[630173.8,5219683.3],[630171.7,5219683.8],[630169.9,5219683.3],[630168.7,5219683.7],[630166.0,5219688.5],[630166.1,5219690.2],[630167.2,5219691.4],[630166.0,5219693.7],[630165.9,5219695.0],[630166.4,5219696.1],[630167.6,5219697.0],[630166.1,5219699.8],[630165.9,5219701.2],[630166.6,5219702.5],[630168.0,5219703.4],[630165.9,5219707.3],[630166.3,5219709.2],[630167.9,5219710.4],[630166.3,5219713.3],[630168.1,5219717.3],[630170.3,5219718.4],[630172.0,5219718.2],[630173.0,5219717.2],[630178.5,5219707.4],[630180.2,5219707.8],[630181.9,5219706.8],[630192.9,5219688.4],[630193.2,5219686.5],[630192.1,5219685.1],[630218.2,5219638.0],[630222.3,5219637.1],[630223.7,5219635.2],[630210.9,5219586.7],[630214.2,5219586.0],[630215.1,5219584.9],[630215.2,5219583.3],[630215.7,5219583.2],[630215.4,5219584.5],[630216.2,5219587.6],[630215.2,5219588.7],[630213.2,5219589.6],[630212.5,5219591.4],[630217.0,5219609.2],[630217.8,5219610.4],[630219.1,5219611.1],[630223.2,5219610.2],[630224.3,5219609.2],[630224.6,5219608.0],[630222.5,5219599.1],[630223.8,5219598.4],[630224.6,5219596.9],[630223.4,5219591.6],[630224.6,5219589.8],[630223.9,5219586.4],[630226.3,5219586.7],[630225.2,5219577.8],[630212.1,5219559.3],[630200.8,5219508.2],[630132.5,5219566.6],[630094.4,5219597.9],[630104.2,5219609.2],[630132.5,5219637.7]],[[630221.2,5219579.4],[630221.2,5219581.2],[630217.7,5219581.9],[630217.8,5219579.8],[630221.2,5219579.4]]]}},{"type":"Feature","properties":{"vineyard_id":"V65","status":"red"},"geometry":{"type":"Polygon","coordinates":[[[630314.9,5219654.5],[630316.7,5219653.0],[630320.2,5219639.5],[630321.3,5219638.1],[630324.2,5219637.7],[630325.5,5219636.5],[630326.9,5219637.4],[630330.2,5219637.9],[630335.7,5219637.6],[630350.6,5219637.9],[630351.9,5219637.5],[630354.8,5219637.9],[630356.5,5219637.1],[630360.7,5219637.9],[630362.1,5219637.4],[630363.0,5219636.3],[630370.3,5219588.2],[630368.8,5219586.7],[630365.0,5219586.1],[630365.2,5219583.7],[630363.9,5219582.0],[630360.1,5219581.3],[630357.9,5219581.4],[630356.7,5219582.0],[630353.9,5219581.5],[630352.5,5219580.3],[630338.8,5219576.1],[630339.1,5219573.6],[630340.5,5219573.2],[630341.5,5219572.0],[630344.9,5219563.1],[630344.6,5219561.0],[630345.7,5219560.1],[630347.3,5219557.0],[630348.8,5219552.1],[630348.9,5219550.8],[630349.5,5219549.9],[630351.7,5219549.2],[630352.7,5219547.0],[630371.8,5219552.9],[630372.0,5219554.8],[630373.5,5219556.0],[630383.7,5219557.3],[630382.0,5219558.9],[630380.8,5219562.3],[630380.4,5219568.5],[630380.9,5219569.6],[630381.9,5219570.3],[630394.0,5219526.6],[630407.5,5219473.6],[630430.3,5219397.7],[630427.4,5219395.8],[630425.9,5219395.6],[630418.7,5219389.0],[630417.4,5219388.5],[630415.2,5219386.4],[630413.2,5219386.5],[630410.9,5219388.4],[630409.4,5219387.4],[630407.3,5219387.8],[630405.7,5219386.5],[630403.9,5219386.7],[630402.3,5219385.5],[630400.8,5219385.6],[630399.3,5219384.9],[630397.8,5219385.3],[630396.3,5219384.2],[630394.6,5219384.4],[630392.8,5219383.0],[630391.6,5219382.9],[630390.3,5219383.7],[630389.0,5219382.6],[630387.5,5219382.5],[630386.0,5219381.2],[630384.0,5219381.4],[630382.0,5219380.3],[630380.4,5219380.7],[630377.8,5219383.0],[630377.9,5219381.4],[630376.9,5219380.1],[630377.9,5219378.5],[630377.5,5219376.6],[630367.9,5219398.5],[630356.2,5219446.9],[630372.4,5219460.1],[630372.6,5219463.5],[630371.3,5219464.1],[630355.6,5219451.1],[630347.1,5219544.0],[630317.7,5219633.8],[630314.9,5219654.5]],[[630422.5,5219410.7],[630422.6,5219413.6],[630406.3,5219427.9],[630402.7,5219427.9],[630422.5,5219410.7]],[[630372.2,5219426.7],[630371.2,5219428.1],[630370.7,5219430.4],[630371.0,5219436.5],[630363.4,5219430.1],[630371.1,5219421.2],[630371.9,5219422.4],[630371.0,5219424.4],[630372.2,5219426.7]]]}},{"type":"Feature","properties":{"vineyard_id":"V39","status":"red"},"geometry":{"type":"Polygon","coordinates":[[[629986.6,5219734.5],[629985.0,5219734.3],[629983.7,5219735.0],[629982.2,5219734.3],[629980.2,5219734.9],[629978.5,5219734.3],[629976.9,5219734.9],[629961.5,5219754.4],[629961.2,5219755.6],[629961.6,5219756.9],[629965.0,5219759.8],[629966.0,5219761.5],[629964.1,5219764.4],[629964.3,5219765.8],[629965.1,5219766.8],[629961.2,5219772.3],[629961.7,5219774.2],[629964.3,5219776.3],[629961.3,5219780.4],[629961.3,5219781.9],[629962.3,5219783.1],[629961.4,5219784.5],[629961.3,5219786.0],[629947.4,5219784.9],[629945.7,5219785.9],[629945.1,5219788.0],[629913.7,5219785.4],[629911.8,5219786.3],[629910.4,5219786.4],[629880.1,5219786.2],[629876.1,5219786.8],[629874.8,5219786.2],[629870.9,5219786.2],[629867.6,5219786.6],[629866.4,5219787.3],[629865.8,5219789.2],[629870.0,5219837.6],[629868.1,5219837.4],[629866.1,5219813.5],[629864.3,5219812.0],[629860.3,5219812.2],[629859.1,5219813.0],[629858.5,5219814.6],[629860.5,5219840.3],[629810.0,5219856.2],[629808.5,5219857.7],[629808.3,5219859.1],[629809.4,5219862.5],[629810.5,5219863.5],[629812.1,5219863.7],[629864.3,5219847.2],[629863.4,5219854.3],[629861.2,5219853.9],[629810.0,5219870.0],[629808.7,5219871.0],[629808.4,5219873.1],[629809.4,5219876.3],[629810.4,5219877.3],[629809.0,5219878.0],[629808.3,5219879.5],[629808.6,5219886.9],[629808.3,5219888.4],[629809.4,5219892.0],[629814.0,5219895.0],[629820.8,5219893.2],[629807.5,5219919.4],[629807.8,5219921.3],[629809.2,5219922.5],[629807.5,5219925.8],[629807.7,5219927.5],[629808.6,5219928.6],[629811.8,5219930.1],[629807.5,5219938.7],[629807.5,5219939.9],[629808.2,5219941.1],[629771.8,5219945.6],[629772.5,5219943.8],[629772.2,5219940.5],[629771.5,5219939.2],[629769.7,5219938.5],[629762.7,5219939.2],[629762.8,5219937.2],[629761.7,5219933.8],[629760.7,5219932.8],[629759.3,5219932.6],[629739.1,5219939.0],[629738.0,5219941.1],[629739.4,5219945.3],[629741.6,5219946.2],[629747.2,5219944.5],[629748.2,5219945.8],[629749.9,5219946.2],[629756.6,5219944.2],[629757.2,5219945.3],[629759.3,5219947.1],[629758.0,5219947.9],[629757.4,5219949.2],[629757.7,5219957.7],[629758.8,5219959.3],[629760.5,5219959.6],[629812.1,5219953.2],[629813.7,5219951.5],[629813.7,5219947.9],[629816.4,5219944.6],[629817.4,5219942.7],[629818.3,5219943.9],[629821.3,5219945.4],[629823.6,5219945.1],[629829.6,5219934.0],[629830.9,5219935.7],[629833.9,5219937.2],[629835.2,5219937.2],[629838.5,5219932.5],[629838.4,5219933.4],[629992.3,5219749.0],[629993.5,5219748.1],[629995.0,5219747.6],[629997.9,5219748.5],[629986.6,5219734.5]],[[629864.8,5219842.5],[629864.8,5219843.1],[629864.6,5219842.5],[629864.8,5219842.5]],[[629865.3,5219890.3],[629865.2,5219886.9],[629866.6,5219886.4],[629867.5,5219885.0],[629872.7,5219842.6],[629873.5,5219842.6],[629867.6,5219890.7],[629865.3,5219890.3]]]}},{"type":"Feature","properties":{"vineyard_id":"V04","status":"red"},"geometry":{"type":"Polygon","coordinates":[[[629002.2,5220724.9],[629023.6,5220738.8],[629074.3,5220776.6],[629099.1,5220791.0],[629117.3,5220808.9],[629129.7,5220772.9],[629147.3,5220725.0],[629161.8,5220693.8],[629104.2,5220662.3],[629085.2,5220656.0],[629083.3,5220656.6],[629081.3,5220656.0],[629079.9,5220656.6],[629077.8,5220656.0],[629076.3,5220656.7],[629074.6,5220656.0],[629072.6,5220656.7],[629070.8,5220656.0],[629068.9,5220656.8],[629067.1,5220656.0],[629065.1,5220656.7],[629063.0,5220656.0],[629061.5,5220656.7],[629059.9,5220656.0],[629057.9,5220656.7],[629056.2,5220655.9],[629054.4,5220656.5],[629052.2,5220656.0],[629050.7,5220657.0],[629035.6,5220679.3],[629034.0,5220678.7],[629032.4,5220679.3],[629027.5,5220686.6],[629024.0,5220684.5],[629022.6,5220684.6],[629021.5,5220685.5],[629019.8,5220688.6],[629020.3,5220690.0],[629021.4,5220691.0],[629002.2,5220720.5],[629001.9,5220722.1],[629003.0,5220723.7],[629002.2,5220724.9]],[[629080.6,5220764.8],[629080.9,5220764.6],[629076.8,5220767.4],[629080.6,5220764.8]]]}},{"type":"Feature","properties":{"vineyard_id":"V42","status":"red"},"geometry":{"type":"Polygon","coordinates":[[[630064.4,5219825.0],[630064.3,5219828.9],[630047.2,5219832.8],[630050.4,5219840.1],[630064.7,5219836.9],[630066.9,5219842.5],[630068.2,5219843.6],[630069.6,5219843.8],[630077.0,5219841.6],[630078.0,5219843.3],[630079.6,5219843.8],[630092.7,5219839.9],[630093.7,5219841.7],[630095.8,5219842.2],[630110.7,5219837.7],[630110.6,5219839.2],[630111.9,5219842.9],[630113.6,5219843.8],[630115.8,5219843.4],[630116.3,5219845.9],[630115.6,5219847.4],[630115.6,5219850.7],[630116.4,5219854.1],[630117.5,5219855.4],[630119.2,5219855.6],[630139.4,5219851.4],[630138.7,5219853.4],[630139.9,5219857.4],[630139.7,5219859.6],[630138.7,5219861.1],[630138.4,5219863.9],[630139.6,5219869.6],[630126.7,5219872.4],[630125.3,5219873.8],[630125.4,5219876.0],[630117.4,5219877.7],[630115.8,5219879.2],[630116.0,5219882.3],[630115.6,5219883.7],[630116.1,5219886.1],[630115.6,5219887.6],[630116.3,5219891.1],[630117.3,5219892.4],[630119.1,5219892.8],[630120.3,5219894.7],[630122.2,5219895.0],[630135.4,5219892.2],[630136.2,5219894.4],[630138.3,5219895.1],[630164.2,5219889.7],[630165.1,5219893.8],[630165.9,5219894.7],[630167.3,5219895.1],[630171.1,5219894.2],[630172.4,5219892.2],[630171.4,5219887.9],[630172.4,5219885.9],[630172.0,5219883.8],[630172.4,5219879.5],[630171.9,5219877.0],[630172.4,5219875.8],[630172.0,5219870.0],[630172.4,5219868.6],[630171.8,5219865.5],[630172.4,5219864.1],[630172.0,5219861.9],[630172.4,5219860.6],[630172.0,5219851.2],[630172.4,5219849.9],[630171.6,5219846.2],[630170.3,5219844.9],[630173.0,5219842.9],[630174.6,5219843.5],[630176.6,5219842.6],[630178.3,5219843.5],[630181.1,5219843.4],[630182.6,5219842.6],[630184.3,5219843.5],[630185.9,5219843.1],[630206.1,5219823.0],[630203.9,5219818.8],[630190.2,5219783.4],[630177.0,5219744.6],[630172.9,5219735.5],[630169.1,5219735.3],[630167.9,5219736.1],[630167.3,5219737.4],[630166.9,5219740.4],[630167.0,5219747.9],[630167.4,5219749.0],[630166.9,5219752.4],[630167.0,5219786.1],[630157.8,5219786.8],[630156.9,5219785.4],[630155.3,5219784.9],[630135.2,5219786.0],[630134.1,5219787.0],[630133.8,5219788.5],[630132.3,5219789.7],[630132.0,5219791.0],[630130.4,5219791.4],[630129.4,5219792.5],[630128.7,5219796.0],[630129.1,5219799.8],[630124.8,5219800.6],[630123.8,5219802.6],[630122.2,5219803.8],[630121.9,5219805.7],[630117.9,5219805.9],[630116.8,5219806.4],[630115.9,5219807.8],[630115.9,5219809.6],[630106.8,5219812.4],[630105.9,5219810.9],[630104.1,5219810.4],[630103.5,5219809.4],[630102.3,5219808.8],[630099.3,5219801.7],[630098.3,5219800.6],[630104.9,5219798.5],[630106.0,5219796.9],[630105.7,5219794.9],[630108.1,5219794.1],[630109.0,5219793.3],[630109.3,5219791.4],[630108.4,5219788.3],[630107.6,5219787.3],[630106.3,5219786.8],[630104.8,5219787.0],[630103.8,5219785.5],[630102.3,5219785.0],[630094.9,5219787.1],[630093.9,5219785.5],[630092.4,5219785.0],[630083.6,5219787.5],[630082.8,5219785.7],[630081.0,5219785.0],[630072.5,5219787.4],[630071.6,5219785.7],[630069.8,5219785.0],[630070.0,5219778.6],[630069.4,5219777.1],[630070.0,5219771.2],[630069.4,5219769.6],[630069.9,5219763.5],[630069.0,5219761.6],[630069.9,5219757.7],[630069.1,5219755.6],[630069.9,5219751.8],[630069.6,5219750.3],[630069.9,5219744.9],[630068.6,5219742.9],[630065.2,5219742.1],[630065.5,5219739.7],[630064.4,5219738.1],[630042.8,5219733.8],[630040.6,5219734.7],[630039.8,5219737.2],[630021.8,5219733.7],[630020.2,5219734.5],[630019.5,5219736.3],[630016.3,5219735.7],[630014.9,5219736.1],[630013.9,5219737.5],[630013.2,5219741.0],[630011.9,5219740.4],[630010.4,5219740.8],[630007.5,5219744.3],[630005.3,5219743.5],[630003.6,5219741.8],[630002.6,5219740.3],[630003.3,5219738.9],[630003.0,5219737.3],[630000.0,5219734.7],[629998.4,5219734.3],[629996.8,5219735.1],[629995.1,5219734.3],[629993.3,5219734.9],[629992.0,5219734.3],[629990.5,5219734.5],[630015.5,5219765.5],[630034.5,5219804.7],[630038.3,5219814.5],[630039.9,5219815.8],[630045.7,5219829.2],[630064.4,5219825.0]]]}},{"type":"Feature","properties":{"vineyard_id":"V53","status":"red"},"geometry":{"type":"Polygon","coordinates":[[[630003.5,5219681.6],[630005.8,5219683.0],[630007.6,5219682.4],[630010.3,5219679.8],[630010.6,5219678.4],[630010.1,5219677.2],[630011.5,5219677.3],[630012.6,5219676.8],[630014.0,5219677.9],[630015.5,5219678.0],[630019.2,5219675.0],[630020.6,5219676.1],[630020.9,5219677.4],[630022.3,5219678.5],[630022.9,5219680.1],[630024.4,5219681.0],[630025.1,5219683.2],[630027.5,5219684.3],[630027.2,5219686.7],[630028.9,5219688.4],[630032.3,5219689.3],[630033.6,5219688.9],[630035.3,5219689.3],[630036.6,5219688.9],[630038.3,5219689.3],[630041.9,5219689.0],[630045.4,5219689.3],[630046.9,5219688.6],[630049.5,5219689.3],[630051.1,5219688.9],[630056.1,5219689.3],[630057.2,5219689.0],[630058.2,5219688.1],[630061.7,5219689.3],[630064.1,5219689.1],[630064.4,5219689.3],[630063.6,5219691.3],[630064.2,5219693.0],[630063.6,5219694.8],[630064.7,5219696.7],[630063.6,5219699.2],[630063.9,5219700.3],[630065.0,5219701.3],[630063.6,5219703.8],[630063.8,5219705.2],[630064.8,5219706.3],[630063.8,5219707.8],[630063.6,5219709.3],[630064.4,5219710.7],[630067.1,5219712.6],[630068.3,5219713.0],[630070.4,5219711.9],[630086.8,5219688.7],[630087.2,5219687.0],[630111.5,5219688.5],[630078.3,5219735.8],[630078.5,5219738.1],[630081.6,5219740.6],[630086.9,5219740.7],[630088.0,5219739.8],[630121.8,5219691.8],[630122.0,5219690.3],[630120.9,5219688.7],[630121.4,5219687.1],[630120.8,5219685.6],[630121.0,5219676.5],[630120.6,5219675.2],[630120.9,5219667.2],[630120.0,5219665.8],[630118.6,5219665.3],[630067.5,5219661.9],[630066.2,5219662.2],[630066.4,5219661.6],[630103.7,5219663.8],[630104.7,5219663.1],[630105.4,5219661.4],[630106.6,5219660.4],[630107.0,5219658.8],[630108.3,5219658.1],[630109.0,5219656.5],[630110.3,5219655.4],[630110.7,5219654.1],[630112.0,5219653.2],[630112.5,5219651.3],[630114.0,5219650.2],[630114.5,5219647.3],[630118.6,5219647.5],[630120.4,5219646.3],[630120.9,5219637.9],[630128.2,5219637.8],[630102.1,5219611.3],[630092.1,5219599.8],[630045.1,5219638.4],[630028.0,5219654.1],[630021.1,5219661.3],[630003.5,5219681.6]]]}},{"type":"Feature","properties":{"vineyard_id":"V14","status":"red"},"geometry":{"type":"Polygon","coordinates":[[[629453.0,5220460.4],[629451.5,5220460.8],[629407.9,5220463.8],[629406.3,5220464.5],[629405.6,5220466.0],[629405.9,5220470.0],[629406.8,5220471.1],[629407.9,5220471.6],[629450.3,5220468.7],[629450.2,5220470.2],[629401.9,5220473.6],[629401.2,5220459.6],[629400.5,5220458.0],[629398.8,5220457.2],[629394.9,5220457.6],[629394.6,5220453.5],[629392.8,5220451.9],[629383.8,5220452.0],[629382.2,5220453.0],[629381.7,5220454.6],[629384.5,5220506.5],[629385.3,5220507.7],[629386.5,5220508.1],[629390.7,5220507.8],[629392.0,5220508.2],[629403.8,5220508.2],[629404.0,5220509.6],[629402.2,5220510.4],[629401.4,5220512.1],[629403.7,5220524.0],[629399.3,5220524.6],[629397.8,5220526.4],[629399.7,5220537.1],[629398.5,5220537.7],[629397.8,5220538.8],[629398.1,5220541.8],[629424.0,5220524.9],[629432.7,5220515.8],[629431.5,5220509.5],[629439.2,5220509.0],[629447.8,5220487.8],[629402.8,5220491.0],[629402.3,5220481.4],[629450.2,5220478.0],[629450.3,5220481.7],[629453.2,5220468.0],[629454.6,5220466.3],[629455.9,5220460.5],[629453.0,5220460.4]]]}},{"type":"Feature","properties":{"vineyard_id":"V60","status":"red"},"geometry":{"type":"Polygon","coordinates":[[[630496.2,5219540.2],[630499.9,5219561.7],[630501.1,5219562.5],[630504.7,5219562.3],[630505.3,5219563.8],[630506.6,5219564.5],[630510.3,5219564.1],[630512.4,5219563.3],[630512.9,5219565.2],[630514.0,5219566.2],[630516.2,5219566.8],[630519.0,5219566.8],[630520.4,5219567.7],[630524.2,5219568.2],[630524.5,5219570.2],[630526.0,5219571.3],[630529.8,5219571.7],[630530.9,5219571.3],[630531.7,5219570.2],[630539.3,5219571.2],[630542.9,5219572.2],[630544.1,5219573.4],[630547.1,5219573.9],[630548.4,5219574.7],[630561.5,5219577.2],[630562.8,5219578.1],[630566.0,5219578.6],[630567.9,5219578.1],[630568.8,5219576.7],[630569.5,5219569.3],[630568.2,5219567.9],[630565.8,5219567.5],[630567.5,5219553.4],[630566.5,5219552.0],[630565.1,5219551.5],[630565.1,5219549.8],[630564.4,5219548.6],[630561.4,5219547.7],[630561.7,5219544.7],[630561.2,5219543.3],[630560.3,5219542.6],[630558.5,5219542.2],[630559.0,5219538.0],[630558.5,5219536.4],[630557.4,5219535.5],[630555.0,5219535.1],[630553.6,5219533.4],[630551.2,5219533.0],[630550.2,5219531.0],[630551.8,5219529.6],[630551.9,5219527.7],[630546.6,5219520.0],[630544.6,5219519.4],[630541.0,5219520.9],[630538.0,5219521.0],[630531.0,5219510.2],[630528.4,5219508.5],[630526.7,5219508.5],[630525.5,5219507.2],[630524.9,5219505.5],[630523.6,5219504.6],[630522.8,5219502.5],[630521.5,5219501.6],[630520.6,5219500.0],[630519.0,5219499.4],[630516.6,5219500.0],[630516.0,5219498.7],[630514.8,5219498.0],[630513.9,5219496.6],[630512.6,5219496.0],[630512.0,5219494.7],[630510.9,5219493.7],[630497.7,5219532.9],[630496.2,5219540.2]]]}},{"type":"Feature","properties":{"vineyard_id":"V22","status":"red"},"geometry":{"type":"Polygon","coordinates":[[[629644.2,5220303.6],[629646.5,5220304.0],[629648.6,5220301.9],[629652.1,5220304.1],[629654.2,5220303.3],[629655.7,5220304.1],[629656.9,5220304.0],[629657.9,5220303.4],[629660.0,5220304.2],[629661.7,5220303.2],[629664.1,5220304.2],[629666.0,5220302.9],[629667.5,5220304.0],[629669.2,5220304.1],[629670.4,5220303.3],[629677.4,5220294.6],[629678.6,5220295.8],[629679.1,5220297.9],[629681.8,5220300.2],[629683.7,5220300.5],[629685.1,5220299.6],[629712.3,5220265.8],[629712.2,5220264.1],[629711.0,5220262.7],[629712.3,5220260.8],[629712.2,5220259.1],[629708.7,5220256.1],[629712.3,5220251.1],[629711.9,5220249.3],[629709.9,5220247.5],[629712.2,5220244.3],[629711.9,5220241.9],[629708.8,5220239.4],[629706.9,5220239.3],[629705.7,5220240.1],[629700.6,5220246.7],[629699.5,5220246.3],[629712.1,5220230.1],[629712.2,5220228.0],[629710.6,5220226.4],[629712.4,5220223.6],[629712.3,5220222.4],[629711.4,5220221.2],[629708.2,5220219.1],[629665.4,5220271.5],[629657.7,5220281.5],[629650.8,5220292.7],[629662.3,5220300.8],[629657.6,5220300.8],[629657.6,5220303.6],[629647.7,5220296.6],[629642.1,5220302.0],[629644.2,5220303.6]],[[629687.8,5220252.7],[629689.5,5220252.9],[629690.9,5220252.0],[629692.5,5220252.9],[629670.1,5220280.5],[629668.2,5220279.2],[629666.4,5220279.1],[629687.8,5220252.7]]]}},{"type":"Feature","properties":{"vineyard_id":"V21","status":"red"},"geometry":{"type":"Polygon","coordinates":[[[629505.0,5220298.5],[629504.5,5220299.8],[629505.0,5220301.4],[629508.9,5220304.1],[629510.1,5220304.0],[629511.2,5220303.2],[629513.2,5220304.1],[629515.1,5220303.4],[629517.2,5220304.1],[629518.7,5220303.4],[629520.6,5220304.1],[629522.3,5220303.4],[629524.5,5220304.1],[629525.7,5220303.7],[629526.7,5220302.5],[629529.4,5220304.1],[629530.8,5220303.9],[629532.0,5220302.8],[629533.8,5220304.0],[629535.5,5220304.0],[629536.7,5220303.2],[629552.4,5220282.3],[629552.7,5220282.5],[629551.6,5220284.9],[629551.9,5220286.1],[629552.9,5220287.0],[629551.6,5220289.7],[629552.8,5220291.7],[629551.6,5220294.3],[629552.8,5220296.3],[629551.8,5220297.7],[629551.6,5220299.1],[629552.2,5220300.4],[629555.0,5220302.6],[629558.3,5220304.1],[629560.2,5220303.4],[629561.7,5220304.1],[629563.8,5220303.5],[629565.6,5220304.1],[629567.3,5220303.3],[629568.8,5220304.1],[629570.9,5220303.5],[629572.6,5220304.1],[629574.4,5220303.3],[629576.2,5220304.1],[629578.0,5220303.5],[629579.3,5220304.1],[629581.3,5220303.5],[629583.3,5220304.1],[629584.8,5220303.3],[629586.3,5220304.1],[629588.4,5220303.4],[629590.6,5220304.1],[629592.2,5220303.1],[629606.1,5220284.7],[629595.7,5220282.2],[629532.8,5220261.5],[629505.0,5220298.5]],[[629552.4,5220268.5],[629553.0,5220269.0],[629551.5,5220270.6],[629551.1,5220270.3],[629552.4,5220268.5]]]}},{"type":"Feature","properties":{"vineyard_id":"V67","status":"red"},"geometry":{"type":"Polygon","coordinates":[[[630087.2,5219345.7],[630086.2,5219347.6],[630085.2,5219348.2],[630083.4,5219348.3],[630080.2,5219350.3],[630079.6,5219352.3],[630078.5,5219353.3],[630078.1,5219354.7],[630076.3,5219356.1],[630076.0,5219357.8],[630074.7,5219358.8],[630074.4,5219360.2],[630073.1,5219361.1],[630072.6,5219362.6],[630067.0,5219365.9],[630066.5,5219367.6],[630065.3,5219368.7],[630065.1,5219370.3],[630063.6,5219371.9],[630063.6,5219373.4],[630064.5,5219375.2],[630063.5,5219376.7],[630059.4,5219377.0],[630056.4,5219380.4],[630053.5,5219380.8],[630052.5,5219381.4],[630051.6,5219382.8],[630051.7,5219385.3],[630049.6,5219385.6],[630048.3,5219387.0],[630048.3,5219391.6],[630045.1,5219392.0],[630044.1,5219393.1],[630043.9,5219394.4],[630042.2,5219396.0],[630040.9,5219396.3],[630039.7,5219397.4],[630037.9,5219398.1],[630037.3,5219399.1],[630037.1,5219400.4],[630035.4,5219401.8],[630035.2,5219403.5],[630033.3,5219403.8],[630032.2,5219404.7],[630031.9,5219408.2],[630030.2,5219409.3],[630029.9,5219411.7],[630027.2,5219411.9],[630025.7,5219412.8],[630025.2,5219414.7],[630023.9,5219415.5],[630023.3,5219416.8],[630023.6,5219428.7],[630018.2,5219429.3],[630016.1,5219427.2],[630014.0,5219427.1],[630002.0,5219438.1],[630001.4,5219439.4],[630001.7,5219440.9],[630004.6,5219444.0],[629963.2,5219485.8],[629963.0,5219488.1],[629966.2,5219492.3],[629983.3,5219478.2],[629981.6,5219478.9],[629981.1,5219478.5],[630013.5,5219446.1],[630013.8,5219448.1],[630014.8,5219449.2],[630015.9,5219449.6],[630018.3,5219449.4],[630106.9,5219375.9],[630094.5,5219352.9],[630087.2,5219345.7]]]}},{"type":"Feature","properties":{"vineyard_id":"V59","status":"red"},"geometry":{"type":"Polygon","coordinates":[[[630477.7,5219613.9],[630529.6,5219589.9],[630531.0,5219588.3],[630530.9,5219586.8],[630529.5,5219583.8],[630528.0,5219582.7],[630526.6,5219582.7],[630519.7,5219585.9],[630518.3,5219583.8],[630517.1,5219583.5],[630515.7,5219583.8],[630514.8,5219582.6],[630512.9,5219582.1],[630511.2,5219580.4],[630509.5,5219580.4],[630505.5,5219582.3],[630504.4,5219580.7],[630502.4,5219580.3],[630496.2,5219540.7],[630487.7,5219584.3],[630477.7,5219613.9]]]}},{"type":"Feature","properties":{"vineyard_id":"V01","status":"red"},"geometry":{"type":"Polygon","coordinates":[[[629077.2,5220781.8],[629065.1,5220790.4],[629064.5,5220792.0],[629065.3,5220793.9],[629060.8,5220797.1],[629060.1,5220798.1],[629060.0,5220799.8],[629061.3,5220801.7],[629053.5,5220807.2],[629052.8,5220808.4],[629052.8,5220809.8],[629050.4,5220809.7],[629047.3,5220812.2],[629046.8,5220813.6],[629047.0,5220814.8],[629050.2,5220819.0],[629048.6,5220819.2],[629045.8,5220821.3],[629045.2,5220822.4],[629045.2,5220823.8],[629048.7,5220828.6],[629050.0,5220829.3],[629052.1,5220828.8],[629054.4,5220827.0],[629055.2,5220825.6],[629057.1,5220828.1],[629055.7,5220829.3],[629055.4,5220830.8],[629057.5,5220834.2],[629059.4,5220835.2],[629061.7,5220834.2],[629066.1,5220840.1],[629067.2,5220840.7],[629068.8,5220840.7],[629070.8,5220839.4],[629072.3,5220840.7],[629074.0,5220840.7],[629077.3,5220838.3],[629077.9,5220836.5],[629079.1,5220836.8],[629080.5,5220836.2],[629090.0,5220848.6],[629091.3,5220849.3],[629092.6,5220849.1],[629095.5,5220850.7],[629097.9,5220852.8],[629116.2,5220812.0],[629097.3,5220793.4],[629077.2,5220781.8]],[[629091.8,5220829.7],[629092.3,5220829.3],[629093.8,5220829.4],[629093.1,5220831.7],[629091.8,5220829.7]],[[629093.0,5220817.9],[629092.5,5220817.2],[629093.0,5220816.1],[629094.2,5220815.3],[629093.0,5220817.9]],[[629093.6,5220833.2],[629094.7,5220834.0],[629093.8,5220836.1],[629092.8,5220834.9],[629093.6,5220833.2]]]}},{"type":"Feature","properties":{"vineyard_id":"V35","status":"red"},"geometry":{"type":"Polygon","coordinates":[[[629974.2,5219934.3],[629973.3,5219936.5],[629975.5,5219939.6],[629974.9,5219940.7],[629974.9,5219942.2],[629977.4,5219945.3],[629978.7,5219945.9],[629983.0,5219945.6],[629989.8,5219939.8],[629989.3,5219941.2],[629989.6,5219942.6],[629991.9,5219945.3],[629993.5,5219946.0],[629995.1,5219945.5],[630000.4,5219940.9],[630000.8,5219942.8],[630003.0,5219945.3],[630004.2,5219945.9],[630005.9,5219945.6],[630008.1,5219943.8],[630010.4,5219945.9],[630011.7,5219945.9],[630012.8,5219945.3],[630015.1,5219945.9],[630018.5,5219943.3],[630019.4,5219941.8],[630018.9,5219939.9],[630019.4,5219938.1],[630017.8,5219935.6],[630019.3,5219933.7],[630018.9,5219931.6],[630019.4,5219929.9],[630017.0,5219926.5],[630019.0,5219924.6],[630019.4,5219922.9],[630018.9,5219921.8],[630016.6,5219919.1],[630015.5,5219918.7],[630014.2,5219918.8],[630018.7,5219914.9],[630019.4,5219913.4],[630018.9,5219911.7],[630019.4,5219910.0],[630018.5,5219908.3],[630019.4,5219906.9],[630019.4,5219903.7],[630017.9,5219901.3],[630019.1,5219900.0],[630019.4,5219898.6],[630016.9,5219895.1],[630015.2,5219894.3],[630013.4,5219894.9],[629973.5,5219929.6],[629972.6,5219931.8],[629974.2,5219934.3]]]}},{"type":"Feature","properties":{"vineyard_id":"V54","status":"red"},"geometry":{"type":"Polygon","coordinates":[[[630416.5,5219637.5],[630417.3,5219638.5],[630418.6,5219639.0],[630422.9,5219637.9],[630423.3,5219638.8],[630422.9,5219646.5],[630424.0,5219648.3],[630427.5,5219649.1],[630428.1,5219650.6],[630429.3,5219651.3],[630441.7,5219653.5],[630440.1,5219655.2],[630438.4,5219655.8],[630437.7,5219657.1],[630437.2,5219661.1],[630437.9,5219662.3],[630439.3,5219663.0],[630449.7,5219659.0],[630459.0,5219658.5],[630465.7,5219639.1],[630428.0,5219632.5],[630427.1,5219630.1],[630425.2,5219629.2],[630416.3,5219632.1],[630415.6,5219634.1],[630416.5,5219637.5]]]}},{"type":"Feature","properties":{"vineyard_id":"V34","status":"red"},"geometry":{"type":"Polygon","coordinates":[[[629927.5,5219945.6],[629929.5,5219946.3],[629954.9,5219943.5],[629956.0,5219941.7],[629955.6,5219937.7],[629954.2,5219936.3],[629951.5,5219936.1],[629956.5,5219935.3],[629957.5,5219934.0],[629957.5,5219932.3],[629963.8,5219931.6],[629965.3,5219932.5],[629967.2,5219932.1],[630010.9,5219894.2],[630011.7,5219892.7],[630011.3,5219890.8],[630009.0,5219888.2],[630007.6,5219887.7],[630006.4,5219887.9],[630005.2,5219888.8],[630004.2,5219887.9],[630002.7,5219887.7],[630000.8,5219888.8],[629999.5,5219887.8],[629998.1,5219887.7],[629995.1,5219889.9],[629993.5,5219888.2],[629992.4,5219887.7],[629990.9,5219887.9],[629989.8,5219888.8],[629987.9,5219887.7],[629985.8,5219888.5],[629984.1,5219887.7],[629982.5,5219888.1],[629966.7,5219901.8],[629965.6,5219900.8],[629963.9,5219900.7],[629953.2,5219915.0],[629927.5,5219945.6]]]}},{"type":"Feature","properties":{"vineyard_id":"V69","status":"red"},"geometry":{"type":"Polygon","coordinates":[[[630166.4,5219291.0],[630166.3,5219292.2],[630166.9,5219293.5],[630166.2,5219295.4],[630166.9,5219297.0],[630166.2,5219298.9],[630166.9,5219300.4],[630166.2,5219302.3],[630166.9,5219303.8],[630166.2,5219305.7],[630167.0,5219307.3],[630166.3,5219308.6],[630166.2,5219311.4],[630166.6,5219312.6],[630168.7,5219315.2],[630166.9,5219316.6],[630166.3,5219317.7],[630166.3,5219318.9],[630167.2,5219320.3],[630166.3,5219321.7],[630166.3,5219324.6],[630162.8,5219324.2],[630161.5,5219324.9],[630160.9,5219326.1],[630148.5,5219324.1],[630147.1,5219324.5],[630146.0,5219325.6],[630136.5,5219324.1],[630134.6,5219325.1],[630133.9,5219327.3],[630118.5,5219324.8],[630116.8,5219325.0],[630113.5,5219327.1],[630112.6,5219325.6],[630111.5,5219324.9],[630106.3,5219324.9],[630100.8,5219328.1],[630097.2,5219333.3],[630093.5,5219335.4],[630092.9,5219336.4],[630092.7,5219337.8],[630089.8,5219339.8],[630089.5,5219341.6],[630088.7,5219342.7],[630097.0,5219351.1],[630109.3,5219374.0],[630183.1,5219312.7],[630166.4,5219291.0]]]}},{"type":"Feature","properties":{"vineyard_id":"V55","status":"red"},"geometry":{"type":"Polygon","coordinates":[[[630612.6,5219699.6],[630614.6,5219698.3],[630614.8,5219696.0],[630615.9,5219694.5],[630615.9,5219692.7],[630616.8,5219691.6],[630617.0,5219690.2],[630618.8,5219688.7],[630619.0,5219684.0],[630619.7,5219682.7],[630620.0,5219679.4],[630622.4,5219674.3],[630623.0,5219670.1],[630624.2,5219668.6],[630625.8,5219661.7],[630626.9,5219660.2],[630628.7,5219652.3],[630630.8,5219652.4],[630632.2,5219651.5],[630633.0,5219647.4],[630633.0,5219634.2],[630631.9,5219619.8],[630630.8,5219618.5],[630629.1,5219618.2],[630627.8,5219616.3],[630625.6,5219616.1],[630624.8,5219613.9],[630622.6,5219613.3],[630622.2,5219612.1],[630621.1,5219611.1],[630619.1,5219610.9],[630618.4,5219609.1],[630616.7,5219608.3],[630614.1,5219608.4],[630611.6,5219616.3],[630612.4,5219632.8],[630606.4,5219632.3],[630586.6,5219693.7],[630604.3,5219700.1],[630612.6,5219699.6]]]}},{"type":"Feature","properties":{"vineyard_id":"V25","status":"red"},"geometry":{"type":"Polygon","coordinates":[[[629507.4,5220188.0],[629505.3,5220213.4],[629505.3,5220240.9],[629505.8,5220239.1],[629540.5,5220190.0],[629507.4,5220188.0]],[[629506.6,5220203.9],[629509.3,5220200.6],[629509.6,5220198.7],[629520.4,5220199.4],[629506.5,5220217.8],[629505.9,5220215.3],[629506.6,5220213.6],[629506.1,5220209.8],[629506.6,5220208.5],[629506.6,5220203.9]]]}},{"type":"Feature","properties":{"vineyard_id":"V16","status":"red"},"geometry":{"type":"Polygon","coordinates":[[[629407.6,5220442.6],[629405.3,5220443.1],[629404.4,5220444.7],[629404.3,5220448.7],[629406.1,5220450.3],[629453.3,5220452.7],[629454.5,5220452.0],[629455.2,5220450.4],[629455.3,5220445.1],[629454.5,5220443.6],[629455.2,5220442.0],[629455.3,5220430.5],[629454.5,5220429.2],[629453.0,5220428.6],[629406.9,5220426.3],[629405.5,5220427.3],[629405.0,5220428.8],[629401.6,5220428.6],[629400.0,5220429.3],[629399.3,5220430.5],[629399.0,5220434.0],[629399.5,5220435.4],[629400.7,5220436.3],[629407.6,5220436.8],[629407.4,5220440.0],[629408.2,5220441.5],[629407.6,5220442.6]]]}},{"type":"Feature","properties":{"vineyard_id":"V10","status":"red"},"geometry":{"type":"Polygon","coordinates":[[[629249.8,5220583.7],[629250.8,5220582.6],[629251.1,5220581.5],[629250.7,5220580.0],[629251.1,5220578.6],[629250.7,5220574.5],[629251.1,5220573.1],[629250.8,5220557.8],[629249.0,5220554.0],[629247.8,5220553.2],[629246.3,5220553.2],[629245.6,5220551.8],[629250.0,5220549.4],[629251.0,5220548.1],[629250.6,5220545.8],[629251.2,5220544.4],[629250.9,5220541.3],[629249.1,5220538.0],[629248.0,5220537.4],[629246.8,5220537.4],[629250.5,5220535.2],[629251.1,5220533.0],[629226.8,5220546.2],[629212.7,5220603.2],[629249.8,5220583.7]]]}},{"type":"Feature","properties":{"vineyard_id":"V50","status":"red"},"geometry":{"type":"Polygon","coordinates":[[[630478.8,5219683.5],[630479.1,5219685.2],[630480.4,5219686.3],[630494.9,5219690.2],[630496.5,5219689.9],[630497.7,5219688.5],[630504.9,5219690.2],[630506.3,5219689.3],[630507.0,5219687.5],[630517.6,5219690.3],[630519.5,5219689.3],[630520.4,5219686.4],[630527.2,5219688.3],[630529.2,5219687.7],[630529.9,5219686.7],[630530.8,5219683.5],[630530.4,5219681.8],[630530.8,5219679.9],[630485.9,5219666.9],[630485.0,5219668.0],[630483.2,5219674.0],[630482.4,5219675.0],[630480.7,5219679.1],[630479.7,5219680.4],[630478.8,5219683.5]]]}},{"type":"Feature","properties":{"vineyard_id":"V05","status":"red"},"geometry":{"type":"Polygon","coordinates":[[[629301.7,5220733.8],[629300.9,5220732.4],[629299.4,5220731.7],[629251.7,5220728.9],[629250.3,5220727.2],[629251.7,5220723.6],[629251.4,5220721.7],[629250.4,5220720.9],[629247.4,5220719.7],[629244.2,5220719.5],[629242.9,5220718.3],[629243.3,5220716.2],[629242.0,5220714.4],[629243.8,5220710.0],[629236.7,5220664.4],[629229.6,5220669.6],[629235.5,5220707.4],[629234.0,5220707.8],[629232.8,5220707.4],[629231.3,5220707.8],[629227.2,5220707.4],[629225.8,5220707.8],[629222.0,5220707.4],[629217.4,5220678.6],[629200.4,5220690.2],[629194.4,5220695.7],[629192.8,5220699.9],[629194.8,5220705.0],[629252.1,5220734.4],[629278.8,5220751.7],[629301.7,5220733.8]]]}},{"type":"Feature","properties":{"vineyard_id":"V38","status":"red"},"geometry":{"type":"Polygon","coordinates":[[[630525.6,5219865.2],[630525.5,5219882.4],[630526.2,5219883.6],[630527.3,5219884.2],[630578.9,5219887.4],[630580.4,5219887.1],[630581.6,5219885.1],[630581.7,5219881.8],[630580.8,5219880.1],[630579.7,5219879.7],[630572.5,5219879.2],[630572.6,5219876.8],[630571.5,5219875.3],[630564.6,5219874.6],[630565.7,5219870.7],[630565.7,5219866.5],[630569.2,5219866.6],[630570.8,5219865.7],[630571.5,5219861.5],[630571.1,5219859.9],[630569.4,5219858.9],[630558.9,5219858.2],[630558.8,5219854.6],[630569.4,5219855.3],[630571.0,5219854.6],[630571.7,5219853.4],[630571.9,5219850.6],[630573.3,5219850.2],[630574.3,5219848.8],[630574.5,5219845.2],[630574.2,5219844.1],[630572.4,5219842.9],[630562.6,5219842.3],[630562.3,5219839.8],[630560.6,5219838.6],[630528.2,5219836.8],[630526.8,5219837.1],[630525.6,5219839.0],[630525.4,5219841.9],[630525.4,5219861.7],[630526.4,5219863.6],[630525.6,5219865.2]]]}},{"type":"Feature","properties":{"vineyard_id":"V40","status":"red"},"geometry":{"type":"Polygon","coordinates":[[[630496.5,5219786.6],[630495.1,5219786.2],[630491.6,5219786.6],[630490.2,5219787.7],[630489.8,5219789.1],[630496.2,5219840.9],[630497.0,5219842.1],[630498.3,5219842.7],[630501.8,5219842.3],[630503.2,5219842.7],[630507.0,5219842.1],[630508.4,5219840.3],[630508.0,5219836.0],[630509.0,5219835.8],[630509.6,5219840.7],[630510.3,5219842.0],[630511.8,5219842.7],[630515.6,5219842.2],[630516.8,5219841.4],[630517.3,5219840.0],[630516.1,5219829.2],[630517.8,5219828.4],[630518.5,5219826.6],[630514.4,5219793.5],[630513.3,5219792.2],[630511.3,5219791.9],[630509.9,5219790.8],[630505.7,5219791.2],[630505.2,5219787.6],[630503.8,5219786.3],[630496.5,5219786.6]]]}},{"type":"Feature","properties":{"vineyard_id":"V20","status":"red"},"geometry":{"type":"Polygon","coordinates":[[[629504.8,5220260.1],[629503.5,5220293.4],[629505.2,5220294.0],[629507.1,5220293.0],[629531.3,5220261.0],[629510.7,5220252.3],[629504.8,5220260.1]]]}},{"type":"Feature","properties":{"vineyard_id":"V06","status":"red"},"geometry":{"type":"Polygon","coordinates":[[[629250.0,5220650.8],[629248.3,5220649.9],[629202.1,5220646.7],[629194.1,5220692.0],[629198.5,5220687.8],[629216.9,5220675.2],[629214.8,5220661.8],[629228.5,5220662.7],[629229.1,5220666.3],[629250.0,5220650.8]]]}},{"type":"Feature","properties":{"vineyard_id":"V52","status":"red"},"geometry":{"type":"Polygon","coordinates":[[[629900.8,5219635.6],[629900.3,5219633.8],[629898.6,5219632.9],[629895.3,5219632.6],[629893.9,5219633.3],[629890.0,5219632.6],[629883.7,5219632.6],[629881.6,5219633.7],[629877.5,5219673.5],[629889.1,5219663.5],[629898.6,5219659.6],[629900.8,5219635.6]]]}},{"type":"Feature","properties":{"vineyard_id":"V43","status":"red"},"geometry":{"type":"Polygon","coordinates":[[[630422.9,5219757.7],[630423.7,5219759.6],[630423.0,5219764.3],[630424.4,5219766.1],[630449.1,5219769.0],[630450.9,5219767.5],[630451.4,5219763.3],[630452.7,5219763.1],[630453.7,5219762.4],[630455.1,5219760.0],[630455.4,5219758.3],[630456.8,5219757.2],[630458.0,5219754.5],[630458.4,5219750.7],[630457.7,5219749.5],[630456.4,5219748.7],[630425.3,5219745.2],[630424.0,5219745.8],[630423.3,5219747.1],[630422.9,5219757.7]]]}},{"type":"Feature","properties":{"vineyard_id":"V28","status":"red"},"geometry":{"type":"Polygon","coordinates":[[[629613.4,5220082.3],[629612.8,5220083.9],[629613.4,5220085.5],[629606.3,5220093.6],[629605.8,5220095.1],[629601.2,5220101.2],[629599.2,5220100.6],[629597.6,5220101.6],[629564.6,5220144.1],[629562.2,5220144.2],[629560.3,5220146.5],[629557.4,5220144.2],[629556.2,5220143.9],[629554.8,5220144.3],[629553.8,5220145.4],[629519.9,5220143.6],[629513.3,5220151.0],[629555.2,5220153.3],[629551.8,5220157.8],[629551.8,5220159.9],[629559.7,5220162.9],[629618.8,5220079.4],[629616.5,5220078.6],[629613.4,5220082.3]]]}},{"type":"Feature","properties":{"vineyard_id":"V36","status":"red"},"geometry":{"type":"Polygon","coordinates":[[[630578.9,5219937.8],[630576.4,5219940.9],[630576.5,5219942.4],[630579.9,5219945.7],[630581.5,5219945.8],[630582.9,5219944.8],[630584.0,5219945.7],[630585.5,5219945.8],[630587.4,5219944.6],[630589.2,5219945.8],[630592.7,5219945.6],[630602.6,5219936.1],[630602.9,5219933.8],[630600.7,5219931.3],[630607.3,5219924.7],[630607.7,5219923.3],[630607.4,5219922.1],[630604.6,5219919.2],[630602.6,5219918.9],[630600.8,5219917.6],[630600.2,5219915.9],[630597.7,5219913.5],[630596.5,5219913.1],[630595.1,5219913.3],[630576.1,5219932.2],[630575.7,5219933.4],[630576.0,5219934.8],[630578.9,5219937.8]]]}},{"type":"Feature","properties":{"vineyard_id":"V31","status":"red"},"geometry":{"type":"Polygon","coordinates":[[[629854.4,5220046.9],[629857.4,5220096.5],[629858.0,5220097.8],[629859.0,5220098.4],[629863.0,5220098.4],[629864.5,5220097.6],[629865.1,5220096.0],[629863.5,5220068.5],[629865.4,5220067.9],[629866.3,5220066.2],[629865.5,5220045.1],[629866.0,5220043.4],[629865.0,5220041.6],[629865.9,5220040.0],[629865.6,5220038.1],[629866.0,5220036.8],[629865.2,5220035.0],[629863.8,5220034.0],[629854.4,5220046.9]]]}},{"type":"Feature","properties":{"vineyard_id":"V44","status":"red"},"geometry":{"type":"Polygon","coordinates":[[[630525.3,5219761.7],[630525.7,5219763.3],[630527.3,5219764.4],[630546.2,5219766.7],[630555.0,5219740.2],[630528.5,5219736.9],[630526.6,5219737.5],[630525.7,5219739.1],[630525.3,5219747.4],[630525.9,5219748.7],[630527.2,5219749.6],[630526.1,5219750.5],[630525.7,5219751.6],[630525.3,5219761.7]]]}},{"type":"Feature","properties":{"vineyard_id":"V49","status":"red"},"geometry":{"type":"Polygon","coordinates":[[[630290.9,5219685.8],[630289.6,5219686.5],[630289.0,5219688.0],[630289.4,5219691.8],[630290.7,5219693.2],[630292.1,5219693.5],[630302.5,5219692.2],[630309.2,5219673.5],[630310.4,5219664.6],[630302.0,5219656.5],[630301.0,5219657.7],[630300.7,5219659.9],[630299.6,5219661.4],[630299.3,5219666.3],[630298.1,5219667.4],[630297.7,5219669.5],[630296.5,5219671.0],[630296.3,5219672.8],[630295.1,5219674.2],[630294.7,5219677.3],[630293.1,5219679.0],[630292.8,5219685.5],[630290.9,5219685.8]]]}},{"type":"Feature","properties":{"vineyard_id":"V48","status":"red"},"geometry":{"type":"Polygon","coordinates":[[[630323.6,5219721.3],[630325.1,5219720.6],[630325.8,5219719.1],[630325.5,5219715.6],[630325.8,5219714.2],[630325.5,5219711.2],[630325.8,5219710.1],[630325.9,5219699.6],[630325.5,5219696.3],[630324.9,5219695.3],[630323.0,5219694.4],[630304.1,5219696.7],[630294.0,5219725.0],[630323.6,5219721.3]]]}},{"type":"Feature","properties":{"vineyard_id":"V41","status":"red"},"geometry":{"type":"Polygon","coordinates":[[[630567.3,5219836.3],[630569.3,5219835.5],[630570.0,5219833.5],[630572.9,5219833.1],[630573.9,5219831.3],[630574.1,5219827.5],[630573.2,5219826.3],[630572.1,5219825.8],[630571.9,5219820.7],[630571.3,5219819.6],[630570.3,5219818.9],[630570.2,5219815.4],[630571.0,5219811.1],[630570.5,5219809.7],[630569.0,5219808.7],[630569.4,5219808.7],[630541.3,5219798.7],[630538.6,5219805.4],[630539.8,5219806.2],[630538.4,5219806.0],[630528.0,5219833.0],[630567.3,5219836.3]]]}},{"type":"Feature","properties":{"vineyard_id":"V02","status":"yellow"},"geometry":{"type":"Polygon","coordinates":[[[629100.5,5220854.7],[629105.5,5220858.2],[629105.2,5220859.6],[629105.5,5220860.7],[629106.7,5220861.9],[629107.2,5220863.8],[629108.7,5220864.8],[629109.2,5220866.1],[629110.3,5220867.0],[629108.2,5220871.6],[629108.5,5220873.0],[629109.3,5220874.0],[629112.9,5220875.6],[629114.1,5220875.4],[629115.2,5220874.7],[629116.8,5220875.0],[629122.6,5220878.0],[629124.7,5220877.9],[629126.5,5220878.6],[629134.6,5220882.8],[629135.4,5220883.8],[629139.1,5220885.7],[629145.3,5220889.8],[629146.2,5220890.7],[629149.7,5220892.2],[629150.6,5220893.8],[629156.1,5220897.4],[629159.5,5220900.5],[629159.3,5220901.9],[629159.8,5220903.3],[629161.2,5220904.1],[629161.7,5220905.4],[629163.2,5220906.4],[629163.9,5220907.6],[629165.0,5220908.3],[629165.6,5220909.6],[629166.9,5220910.5],[629167.5,5220911.9],[629168.7,5220912.7],[629170.0,5220914.7],[629175.4,5220916.9],[629179.9,5220916.7],[629183.6,5220918.2],[629185.2,5220917.8],[629186.6,5220918.2],[629187.9,5220917.9],[629189.3,5220918.2],[629193.4,5220918.0],[629193.1,5220920.2],[629194.6,5220921.8],[629193.0,5220926.2],[629193.4,5220927.4],[629194.4,5220928.2],[629193.5,5220930.8],[629194.4,5220932.8],[629197.0,5220934.7],[629200.7,5220936.0],[629202.5,5220935.3],[629203.7,5220932.8],[629206.4,5220934.0],[629207.8,5220934.0],[629209.1,5220933.2],[629210.0,5220931.3],[629213.3,5220932.8],[629218.6,5220937.0],[629218.4,5220938.4],[629218.8,5220939.5],[629223.0,5220943.8],[629226.4,5220945.4],[629228.2,5220945.3],[629229.8,5220945.9],[629231.1,5220947.4],[629230.2,5220949.9],[629231.0,5220951.7],[629238.5,5220955.7],[629238.0,5220958.1],[629239.3,5220959.9],[629238.8,5220961.7],[629239.7,5220963.4],[629243.7,5220965.0],[629245.1,5220964.7],[629246.0,5220963.9],[629247.8,5220964.0],[629249.2,5220962.8],[629251.8,5220956.1],[629251.3,5220954.7],[629250.3,5220953.8],[629251.8,5220949.7],[629251.4,5220948.3],[629250.2,5220947.4],[629251.7,5220943.8],[629251.7,5220942.6],[629250.2,5220940.8],[629251.8,5220936.2],[629251.2,5220934.9],[629250.1,5220934.1],[629251.8,5220929.7],[629251.3,5220928.3],[629250.3,5220927.4],[629251.8,5220923.3],[629251.4,5220921.9],[629250.4,5220921.1],[629251.7,5220918.0],[629251.7,5220916.8],[629250.2,5220915.0],[629251.8,5220910.9],[629251.4,5220909.5],[629250.3,5220908.6],[629251.7,5220905.4],[629251.7,5220904.2],[629250.2,5220902.3],[629251.8,5220898.0],[629251.2,5220896.6],[629250.1,5220895.8],[629251.8,5220891.3],[629251.4,5220889.9],[629250.1,5220888.9],[629251.8,5220884.5],[629251.4,5220883.1],[629250.1,5220882.2],[629251.7,5220878.3],[629251.5,5220876.6],[629250.4,5220875.5],[629251.8,5220871.6],[629251.2,5220870.2],[629249.9,5220869.4],[629251.7,5220864.6],[629251.3,5220863.2],[629250.3,5220862.3],[629251.8,5220858.0],[629251.3,5220856.6],[629250.2,5220855.7],[629251.8,5220851.4],[629251.4,5220850.0],[629250.2,5220849.1],[629251.8,5220844.8],[629251.4,5220843.4],[629250.1,5220842.4],[629251.8,5220837.9],[629251.4,5220836.5],[629250.2,5220835.5],[629251.8,5220831.0],[629251.4,5220829.6],[629250.3,5220828.8],[629251.8,5220824.6],[629251.4,5220823.2],[629250.2,5220822.2],[629251.8,5220818.1],[629251.5,5220816.7],[629250.6,5220815.8],[629252.4,5220815.4],[629253.6,5220815.8],[629255.2,5220815.4],[629259.2,5220815.8],[629260.6,5220815.4],[629264.2,5220815.8],[629265.6,5220815.4],[629267.2,5220815.8],[629268.6,5220815.4],[629269.8,5220815.8],[629274.0,5220815.4],[629275.5,5220815.8],[629276.8,5220815.4],[629278.3,5220815.8],[629280.3,5220814.7],[629283.2,5220815.8],[629285.2,5220815.8],[629286.7,5220815.3],[629287.6,5220814.0],[629291.3,5220815.7],[629293.2,5220815.5],[629294.4,5220814.2],[629302.9,5220792.9],[629302.7,5220791.0],[629301.1,5220789.7],[629302.9,5220785.2],[629302.9,5220783.7],[629302.0,5220782.5],[629300.7,5220781.9],[629300.8,5220780.1],[629299.8,5220778.8],[629298.7,5220778.3],[629297.0,5220779.6],[629294.1,5220786.2],[629289.2,5220812.8],[629284.1,5220812.8],[629289.3,5220784.8],[629292.9,5220776.6],[629297.1,5220773.1],[629297.5,5220772.1],[629276.7,5220756.3],[629249.7,5220738.8],[629193.0,5220709.7],[629180.7,5220703.9],[629179.4,5220702.2],[629164.4,5220695.3],[629150.1,5220726.1],[629132.6,5220773.9],[629119.9,5220811.1],[629129.9,5220817.9],[629181.7,5220835.3],[629204.5,5220852.7],[629232.2,5220858.2],[629248.0,5220865.6],[629248.0,5220868.9],[629231.3,5220861.0],[629203.3,5220855.5],[629180.4,5220838.0],[629128.8,5220820.6],[629118.6,5220813.9],[629100.5,5220854.7]]]}},{"type":"Feature","properties":{"vineyard_id":"V24","status":"yellow"},"geometry":{"type":"Polygon","coordinates":[[[629510.9,5220241.9],[629511.4,5220242.3],[629511.5,5220244.2],[629512.6,5220245.4],[629510.9,5220247.7],[629510.7,5220249.0],[629530.5,5220257.5],[629533.2,5220258.4],[629537.8,5220252.4],[629539.2,5220252.9],[629534.7,5220258.9],[629596.5,5220279.3],[629645.7,5220291.4],[629653.6,5220278.8],[629661.4,5220268.4],[629697.7,5220224.1],[629706.7,5220212.4],[629656.5,5220196.5],[629656.1,5220197.4],[629654.5,5220195.9],[629560.9,5220166.4],[629544.9,5220189.0],[629551.6,5220189.4],[629551.7,5220190.7],[629544.0,5220190.2],[629508.4,5220240.6],[629507.1,5220246.9],[629510.9,5220241.9]],[[629628.1,5220206.1],[629625.2,5220204.0],[629623.7,5220204.1],[629622.5,5220205.1],[629620.1,5220203.1],[629618.5,5220202.8],[629617.6,5220201.7],[629618.1,5220201.1],[629619.8,5220201.7],[629621.4,5220201.1],[629623.0,5220201.7],[629624.6,5220201.0],[629626.4,5220201.7],[629628.1,5220201.0],[629629.7,5220201.7],[629631.6,5220200.9],[629632.1,5220201.2],[629628.1,5220206.1]],[[629654.5,5220226.4],[629653.0,5220226.4],[629654.5,5220224.8],[629655.2,5220225.5],[629654.5,5220226.4]],[[629610.0,5220228.1],[629610.0,5220227.6],[629611.1,5220226.3],[629611.3,5220226.5],[629610.0,5220228.1]]]}},{"type":"Feature","properties":{"vineyard_id":"V08","status":"yellow"},"geometry":{"type":"Polygon","coordinates":[[[629198.8,5220646.4],[629200.0,5220642.5],[629199.3,5220641.4],[629200.3,5220641.5],[629204.6,5220623.7],[629200.3,5220623.4],[629200.2,5220621.3],[629193.6,5220610.5],[629195.1,5220611.5],[629196.8,5220611.6],[629209.2,5220605.1],[629224.0,5220544.8],[629227.0,5220530.9],[629199.4,5220546.1],[629197.2,5220543.1],[629227.9,5220526.5],[629230.0,5220516.5],[629199.2,5220533.4],[629198.9,5220532.8],[629199.9,5220531.2],[629199.6,5220529.5],[629230.9,5220512.6],[629236.0,5220488.2],[629239.1,5220458.1],[629240.7,5220454.5],[629239.1,5220451.6],[629237.6,5220450.7],[629234.8,5220451.6],[629233.8,5220450.9],[629232.3,5220450.7],[629229.7,5220452.1],[629228.0,5220450.7],[629226.7,5220450.8],[629224.8,5220451.8],[629223.8,5220451.0],[629222.4,5220450.7],[629217.7,5220453.1],[629217.1,5220454.4],[629217.2,5220455.8],[629215.4,5220456.9],[629214.6,5220457.8],[629214.4,5220459.0],[629214.9,5220460.2],[629208.1,5220464.1],[629207.3,5220465.1],[629207.2,5220466.5],[629205.4,5220468.1],[629205.3,5220469.8],[629206.8,5220472.7],[629208.6,5220474.0],[629195.0,5220481.4],[629193.8,5220482.6],[629193.6,5220486.0],[629194.1,5220487.4],[629193.6,5220491.3],[629195.0,5220494.3],[629194.0,5220495.1],[629193.6,5220496.3],[629194.0,5220497.9],[629193.6,5220499.3],[629193.9,5220504.8],[629192.2,5220505.7],[629191.2,5220504.5],[629189.6,5220504.1],[629188.1,5220502.2],[629186.0,5220502.1],[629174.2,5220508.4],[629173.3,5220510.3],[629174.1,5220512.4],[629165.6,5220517.2],[629164.9,5220518.8],[629165.3,5220520.3],[629164.3,5220521.3],[629164.1,5220522.5],[629165.6,5220526.0],[629153.2,5220532.8],[629152.4,5220534.0],[629152.4,5220535.6],[629151.0,5220536.5],[629150.3,5220537.8],[629150.4,5220539.2],[629151.6,5220541.5],[629143.8,5220545.7],[629142.7,5220546.7],[629142.4,5220550.6],[629142.8,5220551.9],[629142.4,5220553.2],[629143.1,5220555.1],[629142.4,5220556.9],[629142.9,5220558.6],[629123.3,5220569.7],[629122.7,5220570.8],[629122.7,5220572.2],[629124.4,5220575.3],[629125.7,5220576.3],[629110.3,5220585.0],[629109.7,5220586.0],[629109.7,5220587.4],[629108.0,5220588.4],[629107.3,5220590.0],[629107.6,5220591.4],[629109.9,5220594.8],[629095.5,5220602.9],[629094.1,5220607.1],[629093.1,5220608.2],[629091.4,5220612.7],[629091.7,5220618.9],[629091.4,5220625.1],[629092.0,5220626.4],[629093.3,5220627.2],[629091.4,5220631.6],[629091.5,5220634.5],[629092.2,5220635.9],[629091.4,5220638.3],[629091.8,5220641.2],[629091.4,5220642.5],[629091.4,5220647.1],[629092.1,5220648.8],[629091.5,5220651.6],[629092.8,5220653.3],[629101.4,5220656.7],[629101.2,5220656.9],[629095.3,5220654.4],[629094.1,5220654.5],[629093.0,5220655.3],[629105.6,5220659.7],[629169.5,5220694.6],[629180.6,5220699.4],[629182.4,5220699.2],[629186.9,5220701.2],[629189.8,5220699.1],[629198.8,5220646.4]]]}},{"type":"Feature","properties":{"vineyard_id":"V29","status":"yellow"},"geometry":{"type":"Polygon","coordinates":[[[629711.9,5220205.6],[629712.3,5220203.5],[629711.2,5220201.9],[629711.8,5220201.1],[629713.2,5220201.7],[629715.3,5220201.1],[629716.3,5220201.6],[629726.1,5220188.0],[629734.7,5220179.0],[629745.6,5220164.8],[629761.3,5220147.3],[629773.7,5220135.7],[629785.1,5220121.6],[629621.7,5220080.4],[629562.7,5220163.9],[629708.6,5220209.8],[629711.9,5220205.6]]]}},{"type":"Feature","properties":{"vineyard_id":"V45","status":"yellow"},"geometry":{"type":"Polygon","coordinates":[[[630223.5,5219805.5],[630224.3,5219803.9],[630223.4,5219801.8],[630224.2,5219800.4],[630224.1,5219798.5],[630264.2,5219800.9],[630269.7,5219784.9],[630268.1,5219785.3],[630265.2,5219787.6],[630223.3,5219785.1],[630223.4,5219755.7],[630223.0,5219754.2],[630223.4,5219750.8],[630223.4,5219739.8],[630248.3,5219741.5],[630250.1,5219740.7],[630250.8,5219738.6],[630262.2,5219739.4],[630255.9,5219719.0],[630247.8,5219684.1],[630235.6,5219683.3],[630244.2,5219668.0],[630235.9,5219632.4],[630234.7,5219634.1],[630230.7,5219632.0],[630228.6,5219633.0],[630217.4,5219651.4],[630199.4,5219683.3],[630197.8,5219684.5],[630173.2,5219728.7],[630179.8,5219743.6],[630193.0,5219782.4],[630206.6,5219817.7],[630208.3,5219820.7],[630223.5,5219805.5]],[[630206.2,5219735.8],[630218.2,5219714.3],[630219.5,5219716.3],[630218.4,5219718.2],[630218.3,5219726.4],[630217.3,5219727.4],[630212.6,5219736.5],[630206.2,5219735.8]]]}},{"type":"Feature","properties":{"vineyard_id":"V64","status":"yellow"},"geometry":{"type":"Polygon","coordinates":[[[630223.4,5219557.8],[630223.2,5219545.6],[630224.6,5219543.7],[630225.6,5219536.4],[630228.3,5219536.2],[630224.9,5219557.5],[630239.6,5219552.8],[630243.9,5219549.4],[630274.0,5219461.7],[630256.2,5219468.8],[630234.9,5219483.5],[630235.3,5219484.4],[630233.0,5219484.6],[630218.2,5219493.9],[630218.2,5219504.1],[630218.8,5219508.0],[630218.2,5219509.5],[630218.4,5219529.3],[630214.6,5219529.8],[630210.9,5219499.5],[630203.4,5219506.0],[630215.0,5219558.2],[630216.4,5219560.2],[630223.4,5219557.8]],[[630242.8,5219483.3],[630243.0,5219483.8],[630241.5,5219483.9],[630242.8,5219483.3]]]}},{"type":"Feature","properties":{"vineyard_id":"V23","status":"yellow"},"geometry":{"type":"Polygon","coordinates":[[[629450.3,5220208.4],[629450.6,5220215.5],[629450.1,5220217.1],[629450.9,5220221.1],[629450.1,5220223.0],[629451.0,5220227.2],[629450.1,5220228.9],[629450.1,5220240.9],[629450.6,5220244.4],[629451.8,5220245.8],[629453.3,5220246.1],[629482.2,5220242.5],[629492.8,5220234.7],[629487.4,5220226.8],[629485.1,5220202.8],[629452.1,5220206.9],[629450.3,5220208.4]]]}},{"type":"Feature","properties":{"vineyard_id":"V47","status":"yellow"},"geometry":{"type":"Polygon","coordinates":[[[629828.7,5219740.5],[629831.1,5219740.7],[629832.8,5219739.0],[629836.1,5219740.9],[629837.5,5219740.6],[629838.6,5219739.5],[629841.1,5219740.9],[629843.3,5219740.0],[629844.6,5219740.8],[629845.8,5219740.9],[629847.3,5219739.9],[629849.2,5219740.9],[629851.3,5219740.2],[629852.6,5219740.8],[629853.8,5219740.8],[629855.2,5219739.8],[629861.2,5219731.2],[629861.7,5219731.4],[629860.5,5219732.6],[629859.6,5219736.0],[629860.4,5219738.2],[629872.3,5219741.4],[629873.7,5219741.2],[629874.9,5219740.0],[629875.8,5219736.6],[629875.5,5219735.0],[629899.9,5219741.4],[629901.3,5219741.1],[629902.3,5219740.0],[629908.6,5219741.4],[629910.1,5219740.7],[629910.9,5219738.9],[629913.1,5219739.4],[629914.2,5219739.2],[629915.5,5219738.0],[629916.4,5219734.4],[629916.1,5219728.2],[629916.4,5219726.5],[629916.4,5219707.1],[629915.8,5219705.5],[629916.4,5219702.5],[629915.7,5219700.8],[629916.4,5219697.7],[629916.3,5219689.9],[629917.3,5219688.7],[629927.0,5219690.3],[629928.3,5219689.7],[629929.1,5219688.3],[629936.2,5219689.7],[629923.4,5219679.3],[629917.0,5219678.0],[629917.3,5219674.3],[629910.8,5219668.6],[629910.9,5219669.2],[629909.7,5219670.9],[629908.7,5219684.0],[629903.0,5219682.6],[629901.3,5219683.1],[629900.4,5219684.5],[629896.3,5219683.4],[629898.2,5219662.9],[629890.7,5219666.0],[629877.1,5219677.8],[629876.6,5219682.7],[629875.7,5219682.6],[629876.0,5219678.7],[629869.8,5219684.1],[629826.5,5219738.9],[629828.7,5219740.5]]]}},{"type":"Feature","properties":{"vineyard_id":"V46","status":"yellow"},"geometry":{"type":"Polygon","coordinates":[[[629801.0,5219740.6],[629801.9,5219739.7],[629804.3,5219741.0],[629805.5,5219740.8],[629806.5,5219739.9],[629808.7,5219741.0],[629809.9,5219740.8],[629811.0,5219739.7],[629813.2,5219740.9],[629815.2,5219740.2],[629846.9,5219695.1],[629833.1,5219686.8],[629822.8,5219672.7],[629821.5,5219670.0],[629819.6,5219670.1],[629816.6,5219672.4],[629816.0,5219674.0],[629816.6,5219675.7],[629814.0,5219677.8],[629812.3,5219680.4],[629809.1,5219683.5],[629808.9,5219684.9],[629809.7,5219686.5],[629808.2,5219687.3],[629780.1,5219719.8],[629778.7,5219719.0],[629777.3,5219719.2],[629774.4,5219722.1],[629796.2,5219736.2],[629801.0,5219740.6]]]}},{"type":"Feature","properties":{"vineyard_id":"V03","status":"yellow"},"geometry":{"type":"Polygon","coordinates":[[[629005.8,5220731.1],[629005.9,5220732.8],[629007.1,5220734.1],[629005.9,5220736.0],[629005.7,5220737.2],[629007.1,5220739.2],[629002.0,5220747.0],[629001.7,5220748.4],[629002.6,5220750.1],[629008.6,5220754.0],[629007.6,5220755.4],[629005.8,5220754.8],[629004.2,5220755.3],[629001.2,5220759.8],[629001.1,5220761.2],[629001.8,5220762.5],[629004.9,5220764.6],[629006.5,5220764.7],[629001.7,5220768.4],[629001.2,5220769.8],[629001.4,5220771.0],[629003.9,5220774.2],[629006.0,5220774.6],[629019.4,5220764.8],[629020.7,5220764.8],[629021.9,5220764.1],[629023.0,5220764.7],[629006.2,5220777.3],[629005.6,5220779.6],[629007.7,5220782.7],[629009.4,5220783.7],[629013.0,5220788.6],[629014.9,5220789.0],[629016.5,5220790.5],[629017.9,5220790.6],[629040.0,5220774.2],[629040.3,5220775.1],[629019.6,5220791.1],[629019.6,5220793.3],[629021.7,5220796.1],[629025.7,5220800.2],[629028.0,5220800.6],[629034.2,5220796.2],[629034.7,5220794.6],[629034.1,5220793.0],[629039.9,5220788.3],[629040.4,5220786.7],[629039.8,5220785.3],[629045.9,5220780.7],[629046.5,5220779.1],[629046.1,5220777.6],[629058.5,5220769.1],[629059.8,5220770.4],[629061.3,5220770.7],[629021.8,5220741.3],[629005.8,5220731.1]]]}},{"type":"Feature","properties":{"vineyard_id":"V13","status":"yellow"},"geometry":{"type":"Polygon","coordinates":[[[629313.7,5220502.4],[629312.0,5220502.0],[629310.3,5220503.0],[629308.1,5220506.0],[629308.1,5220507.2],[629308.8,5220508.5],[629347.9,5220540.2],[629349.8,5220540.8],[629351.3,5220540.0],[629353.3,5220537.5],[629353.7,5220536.3],[629353.6,5220535.1],[629352.6,5220534.0],[629353.7,5220532.2],[629353.1,5220530.0],[629353.7,5220527.8],[629353.2,5220526.7],[629351.8,5220525.5],[629353.5,5220523.3],[629353.7,5220521.9],[629353.2,5220520.5],[629351.6,5220519.2],[629353.7,5220516.2],[629353.6,5220515.0],[629352.8,5220513.8],[629353.8,5220512.0],[629353.4,5220510.4],[629353.6,5220508.1],[629356.7,5220507.7],[629357.9,5220505.6],[629355.4,5220455.6],[629347.9,5220461.5],[629349.5,5220493.6],[629347.6,5220494.0],[629346.6,5220495.4],[629346.6,5220502.2],[629345.2,5220502.1],[629344.0,5220502.7],[629341.8,5220502.1],[629340.0,5220503.4],[629338.3,5220502.2],[629336.8,5220502.1],[629335.6,5220502.8],[629333.8,5220504.9],[629330.8,5220502.4],[629329.7,5220502.0],[629328.0,5220502.5],[629326.1,5220504.7],[629322.4,5220502.1],[629320.9,5220502.2],[629319.9,5220503.1],[629318.6,5220502.2],[629317.1,5220502.1],[629315.1,5220503.6],[629313.7,5220502.4]]]}},{"type":"Feature","properties":{"vineyard_id":"V56","status":"yellow"},"geometry":{"type":"Polygon","coordinates":[[[630368.5,5219637.7],[630374.8,5219637.5],[630375.9,5219636.2],[630377.5,5219625.8],[630416.7,5219613.9],[630417.9,5219613.1],[630418.4,5219612.0],[630417.3,5219607.7],[630415.6,5219606.4],[630407.6,5219608.5],[630406.6,5219607.0],[630404.7,5219606.6],[630394.5,5219609.7],[630395.3,5219608.5],[630395.3,5219607.3],[630394.3,5219604.0],[630393.1,5219602.8],[630391.6,5219602.7],[630382.9,5219605.2],[630383.2,5219603.5],[630381.9,5219599.7],[630380.2,5219598.8],[630378.0,5219599.2],[630378.2,5219598.4],[630379.7,5219597.7],[630380.5,5219596.8],[630380.4,5219594.4],[630381.6,5219593.3],[630381.7,5219591.3],[630382.9,5219589.7],[630382.0,5219585.8],[630381.1,5219584.5],[630374.8,5219607.4],[630368.6,5219636.5],[630368.5,5219637.7]],[[630376.7,5219607.8],[630377.3,5219607.6],[630376.9,5219609.1],[630378.0,5219612.7],[630378.8,5219613.6],[630380.1,5219614.1],[630375.5,5219615.5],[630376.7,5219607.8]]]}},{"type":"Feature","properties":{"vineyard_id":"V51","status":"yellow"},"geometry":{"type":"Polygon","coordinates":[[[629851.0,5219689.2],[629852.9,5219689.7],[629854.6,5219688.8],[629856.2,5219689.7],[629858.3,5219689.1],[629859.9,5219689.8],[629859.6,5219691.1],[629858.3,5219690.9],[629857.1,5219691.2],[629854.8,5219694.2],[629858.1,5219694.3],[629867.6,5219682.0],[629876.5,5219674.4],[629880.2,5219635.6],[629879.9,5219634.2],[629878.8,5219633.1],[629874.9,5219632.6],[629871.3,5219632.6],[629870.0,5219633.1],[629866.4,5219632.6],[629862.3,5219632.8],[629860.2,5219631.9],[629859.0,5219632.3],[629856.4,5219634.3],[629855.7,5219635.8],[629853.8,5219633.8],[629851.7,5219633.9],[629844.8,5219639.7],[629844.2,5219641.3],[629844.6,5219642.7],[629842.5,5219643.1],[629839.7,5219645.3],[629839.0,5219647.4],[629836.5,5219651.1],[629829.3,5219657.9],[629829.0,5219659.1],[629829.5,5219660.4],[629846.4,5219683.2],[629844.7,5219684.6],[629842.2,5219683.1],[629840.0,5219684.0],[629838.8,5219683.2],[629837.6,5219683.2],[629836.1,5219684.0],[629834.1,5219683.1],[629835.2,5219684.6],[629848.6,5219692.6],[629851.0,5219689.2]]]}},{"type":"Feature","properties":{"vineyard_id":"V27","status":"yellow"},"geometry":{"type":"Polygon","coordinates":[[[629552.9,5220163.9],[629552.0,5220165.0],[629509.5,5220162.5],[629508.5,5220175.0],[629514.0,5220175.3],[629513.9,5220177.3],[629508.3,5220177.0],[629507.5,5220186.7],[629541.4,5220188.7],[629557.9,5220165.5],[629552.9,5220163.9]]]}},{"type":"Feature","properties":{"vineyard_id":"V30","status":"yellow"},"geometry":{"type":"Polygon","coordinates":[[[629800.3,5220139.1],[629803.1,5220140.8],[629806.4,5220143.7],[629809.7,5220145.3],[629811.4,5220144.5],[629814.6,5220140.3],[629814.7,5220138.8],[629813.9,5220137.5],[629814.8,5220135.9],[629814.5,5220134.3],[629811.6,5220131.8],[629809.9,5220131.3],[629808.0,5220129.6],[629814.7,5220120.7],[629814.2,5220118.7],[629811.0,5220116.2],[629809.6,5220116.1],[629808.1,5220117.0],[629785.8,5220144.8],[629785.3,5220145.9],[629785.5,5220147.3],[629788.8,5220150.3],[629790.9,5220150.4],[629800.3,5220139.1]]]}},{"type":"Feature","properties":{"vineyard_id":"V70","status":"green"},"geometry":{"type":"Polygon","coordinates":[[[630242.3,5219231.4],[630237.9,5219227.0],[630236.5,5219226.5],[630235.1,5219226.9],[630232.1,5219223.7],[630230.3,5219223.4],[630228.6,5219222.1],[630227.1,5219222.2],[630225.9,5219223.0],[630224.1,5219222.0],[630223.5,5219220.7],[630224.2,5219218.7],[630223.3,5219217.0],[630223.2,5219215.0],[630216.5,5219207.6],[630215.1,5219207.3],[630213.6,5219208.0],[630212.6,5219207.1],[630211.2,5219206.8],[630209.1,5219207.9],[630207.2,5219206.7],[630205.0,5219207.6],[630203.3,5219206.6],[630201.4,5219207.3],[630200.1,5219206.6],[630198.7,5219206.8],[630194.6,5219210.0],[630192.8,5219209.9],[630190.9,5219211.2],[630190.3,5219212.3],[630190.3,5219213.6],[630187.4,5219216.4],[630187.6,5219218.7],[630180.3,5219224.8],[630180.0,5219227.2],[630181.9,5219230.0],[630167.7,5219241.7],[630167.3,5219243.1],[630167.7,5219244.4],[630166.2,5219246.5],[630166.8,5219248.4],[630166.3,5219250.4],[630167.0,5219251.9],[630166.1,5219252.6],[630164.3,5219250.4],[630162.5,5219249.8],[630161.3,5219250.2],[630158.6,5219252.4],[630157.9,5219253.3],[630157.7,5219254.8],[630159.7,5219257.8],[630149.9,5219265.7],[630161.8,5219279.9],[630162.5,5219279.3],[630164.6,5219280.4],[630166.6,5219279.5],[630166.9,5219279.8],[630166.2,5219281.6],[630167.1,5219283.3],[630166.4,5219284.4],[630166.3,5219285.6],[630185.4,5219310.8],[630223.5,5219279.2],[630222.5,5219277.9],[630223.8,5219276.6],[630224.2,5219276.4],[630225.1,5219277.9],[630259.8,5219249.0],[630244.9,5219229.4],[630242.3,5219231.4]]]}},{"type":"Feature","properties":{"vineyard_id":"V15","status":"green"},"geometry":{"type":"Polygon","coordinates":[[[629234.3,5220510.7],[629238.3,5220508.0],[629238.6,5220506.8],[629237.4,5220504.0],[629249.8,5220497.3],[629251.0,5220495.8],[629250.7,5220493.7],[629251.1,5220492.1],[629250.7,5220490.8],[629251.1,5220487.1],[629250.7,5220485.7],[629251.1,5220482.3],[629250.7,5220480.7],[629251.2,5220479.2],[629250.8,5220475.3],[629251.1,5220473.7],[629250.7,5220472.4],[629251.1,5220471.0],[629250.7,5220467.2],[629251.1,5220463.6],[629250.7,5220462.2],[629251.1,5220461.0],[629251.1,5220458.1],[629295.3,5220453.3],[629295.7,5220456.6],[629296.7,5220457.9],[629297.9,5220458.3],[629299.9,5220458.1],[629301.4,5220457.0],[629301.8,5220455.6],[629301.3,5220451.8],[629301.8,5220450.0],[629301.4,5220446.7],[629300.6,5220445.6],[629301.8,5220443.9],[629301.6,5220440.8],[629302.6,5220440.0],[629303.1,5220438.7],[629305.9,5220403.5],[629305.7,5220402.3],[629304.8,5220401.2],[629297.7,5220400.6],[629296.2,5220401.4],[629295.5,5220402.8],[629274.4,5220405.1],[629274.0,5220400.9],[629272.2,5220399.4],[629260.1,5220400.3],[629258.5,5220401.3],[629258.1,5220403.0],[629258.7,5220406.9],[629255.8,5220407.2],[629248.0,5220445.8],[629245.9,5220450.3],[629247.2,5220451.5],[629246.8,5220453.6],[629243.7,5220455.1],[629242.1,5220458.6],[629239.0,5220488.6],[629234.3,5220510.7]]]}},{"type":"Feature","properties":{"vineyard_id":"V58","status":"green"},"geometry":{"type":"Polygon","coordinates":[[[629910.8,5219573.4],[629910.1,5219574.6],[629910.1,5219575.9],[629912.7,5219579.4],[629910.4,5219581.4],[629910.1,5219583.2],[629912.5,5219586.6],[629913.7,5219587.3],[629915.4,5219587.1],[629917.6,5219585.4],[629918.9,5219586.8],[629920.2,5219587.4],[629921.9,5219586.9],[629923.6,5219587.4],[629925.0,5219586.7],[629926.4,5219587.4],[629928.3,5219586.8],[629930.1,5219587.4],[629931.5,5219586.8],[629933.3,5219587.4],[629934.9,5219586.7],[629936.6,5219587.4],[629938.4,5219586.7],[629940.1,5219587.4],[629941.7,5219586.8],[629943.5,5219587.4],[629944.9,5219586.8],[629946.8,5219587.4],[629948.2,5219586.7],[629950.2,5219587.4],[629951.7,5219586.7],[629953.6,5219587.4],[629957.1,5219585.0],[629958.0,5219583.6],[629957.5,5219581.5],[629926.5,5219543.7],[629925.1,5219542.9],[629923.4,5219543.1],[629918.3,5219546.9],[629917.7,5219548.3],[629915.0,5219550.6],[629914.7,5219552.7],[629913.6,5219553.7],[629913.2,5219555.3],[629910.6,5219559.0],[629910.5,5219560.4],[629911.0,5219561.6],[629910.2,5219562.6],[629910.0,5219563.8],[629910.9,5219565.6],[629910.0,5219567.5],[629911.0,5219569.6],[629910.0,5219571.5],[629910.8,5219573.4]]]}},{"type":"Feature","properties":{"vineyard_id":"V17","status":"green"},"geometry":{"type":"Polygon","coordinates":[[[629354.3,5220452.3],[629352.8,5220451.8],[629354.3,5220430.3],[629353.5,5220428.8],[629351.8,5220428.1],[629353.8,5220402.4],[629352.4,5220401.0],[629348.9,5220400.6],[629331.1,5220400.8],[629330.2,5220401.5],[629329.6,5220402.9],[629325.3,5220455.3],[629326.1,5220456.2],[629327.4,5220456.8],[629347.6,5220456.9],[629347.7,5220457.9],[629354.3,5220452.3]]]}},{"type":"Feature","properties":{"vineyard_id":"V07","status":"green"},"geometry":{"type":"Polygon","coordinates":[[[629247.7,5220644.9],[629249.5,5220644.3],[629250.4,5220642.5],[629250.6,5220629.2],[629250.2,5220628.0],[629249.2,5220627.0],[629207.7,5220623.9],[629203.3,5220641.7],[629247.7,5220644.9]]]}},{"type":"Feature","properties":{"vineyard_id":"V19","status":"green"},"geometry":{"type":"Polygon","coordinates":[[[629434.2,5220298.0],[629427.5,5220298.0],[629424.1,5220299.0],[629423.0,5220300.3],[629422.9,5220301.8],[629439.1,5220353.4],[629439.9,5220354.4],[629441.2,5220354.9],[629447.4,5220354.9],[629450.8,5220353.9],[629452.1,5220352.5],[629452.2,5220350.8],[629436.0,5220299.4],[629434.2,5220298.0]]]}},{"type":"Feature","properties":{"vineyard_id":"V09","status":"green"},"geometry":{"type":"Polygon","coordinates":[[[629220.9,5220604.1],[629219.0,5220604.8],[629218.2,5220606.5],[629218.2,5220610.2],[629218.9,5220611.3],[629220.2,5220611.9],[629248.2,5220613.4],[629250.0,5220612.3],[629251.1,5220609.1],[629250.6,5220607.0],[629251.1,5220605.7],[629250.9,5220604.5],[629249.3,5220601.4],[629247.6,5220600.5],[629246.2,5220600.7],[629238.0,5220605.1],[629220.9,5220604.1]]]}},{"type":"Feature","properties":{"vineyard_id":"V12","status":"green"},"geometry":{"type":"Polygon","coordinates":[[[629296.4,5220524.9],[629295.8,5220526.7],[629296.7,5220528.4],[629336.5,5220560.3],[629338.2,5220560.2],[629339.3,5220559.3],[629340.9,5220560.3],[629342.3,5220560.3],[629344.9,5220557.8],[629347.8,5220560.0],[629348.0,5220562.7],[629349.4,5220564.1],[629366.2,5220565.3],[629381.0,5220554.4],[629358.1,5220552.9],[629356.5,5220553.5],[629355.7,5220555.1],[629353.2,5220554.9],[629352.4,5220553.8],[629300.8,5220512.2],[629298.5,5220512.7],[629295.9,5220516.1],[629296.1,5220518.0],[629297.8,5220519.6],[629295.9,5220522.2],[629296.4,5220524.9]]]}},{"type":"Feature","properties":{"vineyard_id":"V18","status":"green"},"geometry":{"type":"Polygon","coordinates":[[[629399.1,5220334.9],[629398.1,5220336.0],[629397.8,5220337.4],[629400.2,5220345.5],[629398.5,5220346.3],[629397.8,5220348.1],[629399.6,5220353.8],[629401.2,5220354.9],[629403.5,5220354.4],[629407.3,5220354.9],[629411.4,5220353.7],[629412.3,5220352.5],[629412.4,5220350.8],[629405.3,5220328.1],[629404.3,5220326.8],[629402.4,5220326.4],[629399.3,5220327.4],[629398.2,5220328.3],[629397.8,5220330.0],[629399.1,5220334.9]]]}},{"type":"Feature","properties":{"vineyard_id":"V26","status":"green"},"geometry":{"type":"Polygon","coordinates":[[[629745.8,5220201.2],[629747.1,5220201.7],[629748.5,5220201.4],[629752.0,5220197.3],[629753.6,5220197.9],[629755.2,5220197.3],[629763.2,5220187.6],[629763.5,5220185.4],[629762.2,5220183.9],[629763.4,5220182.1],[629763.5,5220180.4],[629762.8,5220179.4],[629760.2,5220177.4],[629758.6,5220177.0],[629756.8,5220178.2],[629755.1,5220177.6],[629753.5,5220178.2],[629739.6,5220196.2],[629739.2,5220197.9],[629740.2,5220199.5],[629743.3,5220201.7],[629745.8,5220201.2]]]}},{"type":"Feature","properties":{"vineyard_id":"V33","status":"green"},"geometry":{"type":"Polygon","coordinates":[[[629706.4,5219934.7],[629705.9,5219936.5],[629707.0,5219940.1],[629708.1,5219941.2],[629709.8,5219941.4],[629761.4,5219924.8],[629762.5,5219923.9],[629762.9,5219922.5],[629762.2,5219920.0],[629762.9,5219918.0],[629762.0,5219915.1],[629762.9,5219912.9],[629761.8,5219909.5],[629760.5,5219908.2],[629758.8,5219908.2],[629707.4,5219924.7],[629706.4,5219925.5],[629705.9,5219926.8],[629706.7,5219930.1],[629705.9,5219931.8],[629706.4,5219934.7]]]}},{"type":"Feature","properties":{"vineyard_id":"V37","status":"green"},"geometry":{"type":"Polygon","coordinates":[[[629706.3,5219894.9],[629705.9,5219896.5],[629707.0,5219900.0],[629706.0,5219901.2],[629705.9,5219902.7],[629707.2,5219906.2],[629709.3,5219907.3],[629748.3,5219894.9],[629749.5,5219894.1],[629750.0,5219892.5],[629748.8,5219888.7],[629747.1,5219887.4],[629731.7,5219892.0],[629730.6,5219888.7],[629729.1,5219887.5],[629727.7,5219887.5],[629720.6,5219889.7],[629719.7,5219888.1],[629717.9,5219887.4],[629706.9,5219891.1],[629705.9,5219892.7],[629706.3,5219894.9]]]}},{"type":"Feature","properties":{"vineyard_id":"V61","status":"green"},"geometry":{"type":"Polygon","coordinates":[[[629998.7,5219531.9],[629998.0,5219533.4],[629998.3,5219535.0],[630012.7,5219553.2],[630012.7,5219555.5],[630015.5,5219559.4],[630012.6,5219562.0],[630012.4,5219563.4],[630013.2,5219564.9],[630012.4,5219566.7],[630038.6,5219545.4],[630031.2,5219535.7],[630038.8,5219545.2],[630057.5,5219530.8],[630056.5,5219529.8],[630055.3,5219529.5],[630053.3,5219530.3],[630051.5,5219529.5],[630049.7,5219530.2],[630048.0,5219529.5],[630046.2,5219530.2],[630044.5,5219529.5],[630042.9,5219530.0],[630041.5,5219529.5],[630040.2,5219529.8],[630018.8,5219503.9],[630017.6,5219503.2],[630016.3,5219503.3],[630013.4,5219505.4],[629991.8,5219479.0],[629990.3,5219478.3],[629988.4,5219478.9],[629987.7,5219478.5],[629968.1,5219494.6],[629998.7,5219531.9]]]}}]}