{"type":"FeatureCollection","crs":{"type":"name","properties":{"name":"urn:ogc:def:crs:EPSG::32635"}},"demo":true,"generated":"2026-09-26","thresholds":{"min_rows":3,"min_area_ha":0.15,"a_min_ha":0.05,"a_min_share":0.1,"b_max_cover":0.1,"confidence":"Semnal, nu verdict: rândurile și conturul blocurilor vin din pre-adnotări AI (corectate parțial în Marcaj), iar parcelele și registrul sunt DEMO. Doar controlul pe teren confirmă."},"below_threshold":[{"vineyard_id":"V03","rows":16,"area_ha":0.089},{"vineyard_id":"V05","rows":13,"area_ha":0.142},{"vineyard_id":"V06","rows":5,"area_ha":0.056},{"vineyard_id":"V07","rows":5,"area_ha":0.062},{"vineyard_id":"V09","rows":3,"area_ha":0.01},{"vineyard_id":"V12","rows":3,"area_ha":0.047},{"vineyard_id":"V13","rows":9,"area_ha":0.074},{"vineyard_id":"V16","rows":5,"area_ha":0.062},{"vineyard_id":"V17","rows":9,"area_ha":0.102},{"vineyard_id":"V18","rows":3,"area_ha":0.01},{"vineyard_id":"V19","rows":4,"area_ha":0.036},{"vineyard_id":"V20","rows":5,"area_ha":0.053},{"vineyard_id":"V22","rows":11,"area_ha":0.147},{"vineyard_id":"V23","rows":9,"area_ha":0.12},{"vineyard_id":"V25","rows":6,"area_ha":0.063},{"vineyard_id":"V26","rows":3,"area_ha":0.015},{"vineyard_id":"V27","rows":5,"area_ha":0.109},{"vineyard_id":"V28","rows":5,"area_ha":0.046},{"vineyard_id":"V30","rows":4,"area_ha":0.018},{"vineyard_id":"V31","rows":5,"area_ha":0.015},{"vineyard_id":"V33","rows":3,"area_ha":0.065},{"vineyard_id":"V34","rows":10,"area_ha":0.117},{"vineyard_id":"V35","rows":10,"area_ha":0.066},{"vineyard_id":"V36","rows":5,"area_ha":0.033},{"vineyard_id":"V37","rows":3,"area_ha":0.022},{"vineyard_id":"V38","rows":14,"area_ha":0.099},{"vineyard_id":"V40","rows":5,"area_ha":0.071},{"vineyard_id":"V41","rows":9,"area_ha":0.075},{"vineyard_id":"V43","rows":5,"area_ha":0.028},{"vineyard_id":"V44","rows":6,"area_ha":0.072},{"vineyard_id":"V48","rows":7,"area_ha":0.064},{"vineyard_id":"V49","rows":9,"area_ha":0.055},{"vineyard_id":"V50","rows":6,"area_ha":0.055},{"vineyard_id":"V51","rows":17,"area_ha":0.142},{"vineyard_id":"V52","rows":4,"area_ha":0.062},{"vineyard_id":"V54","rows":11,"area_ha":0.06},{"vineyard_id":"V56","rows":9,"area_ha":0.045},{"vineyard_id":"V58","rows":12,"area_ha":0.092},{"vineyard_id":"V59","rows":7,"area_ha":0.1}],"features":[{"type":"Feature","geometry":{"type":"Polygon","coordinates":[[[630132.1165193636,5219637.520448891],[630134.2983934358,5219637.957210113],[630166.1828637295,5219637.783094655],[630165.9220889488,5219639.456509036],[630166.8274463145,5219640.943323797],[630165.9504527873,5219642.694821714],[630166.0415043429,5219644.142755271],[630166.7670793193,5219645.175210481],[630169.0661232211,5219646.532418859],[630166.074468559,5219652.085734202],[630165.9201152064,5219653.575437489],[630166.9495699911,5219655.13316565],[630170.7941246504,5219656.907345383],[630172.0197579812,5219656.606936131],[630172.9156676058,5219655.787149893],[630183.052931422,5219637.072293724],[630183.2779426534,5219634.64894867],[630182.7643323658,5219632.538145986],[630185.9189473448,5219631.623293913],[630187.3013050822,5219636.635667887],[630188.7250924166,5219637.912702792],[630191.5629912697,5219638.055155299],[630194.54098576,5219637.301111132],[630195.9767495524,5219638.028778044],[630198.886777804,5219638.056669375],[630173.7959130645,5219683.32718916],[630171.6969802371,5219683.759417297],[630169.914744195,5219683.288758403],[630168.7709291492,5219683.696668518],[630165.9690207138,5219688.482990498],[630166.0498720839,5219690.164766486],[630167.2116141991,5219691.432488059],[630166.0004446446,5219693.720322253],[630165.9216355066,5219694.979771312],[630166.4369055751,5219696.079407739],[630167.6430000414,5219696.953581653],[630166.0737271766,5219699.811385738],[630165.9134278309,5219701.205972053],[630166.5637229874,5219702.502859932],[630167.9991812118,5219703.433693606],[630165.9016600982,5219707.536443516],[630166.2860227982,5219709.223037666],[630167.8584286381,5219710.43448983],[630166.3416045351,5219713.411664249],[630168.1493197241,5219717.363844102],[630170.2675922908,5219718.438360765],[630171.9392834582,5219718.23747261],[630172.9996388534,5219717.229949895],[630178.4786884001,5219707.40770215],[630180.246325512,5219707.78434971],[630181.8764184735,5219706.783957072],[630192.8701508353,5219688.435841266],[630193.1607788311,5219686.5565066],[630192.1345172437,5219685.061086178],[630218.1612314691,5219638.040897048],[630222.3020859113,5219637.071088201],[630223.6515231311,5219635.193053173],[630210.9201132337,5219586.651654066],[630214.1755312987,5219585.995031153],[630215.0759282387,5219584.857451562],[630215.1958223485,5219583.288722759],[630215.665638791,5219583.232623604],[630215.3909317271,5219584.5707312],[630216.1506591743,5219587.578357905],[630215.1539503701,5219588.651581468],[630213.1923435554,5219589.572297641],[630212.5364839184,5219591.368915763],[630217.0162332244,5219609.214745946],[630217.7456219754,5219610.42807941],[630219.0531212392,5219611.056766651],[630223.2475846531,5219610.142364477],[630224.2844893434,5219609.196111068],[630224.6466848901,5219607.987294619],[630222.4853778161,5219599.066825319],[630223.8583547225,5219598.379672584],[630224.6129158542,5219596.874499867],[630223.3865115118,5219591.591718802],[630224.6154081653,5219589.7315147],[630223.9119573149,5219586.402304385],[630225.7363309877,5219586.679984544],[630226.2159200764,5219586.21655202],[630225.2023749987,5219577.90733698],[630212.1355852877,5219559.318779884],[630200.751405707,5219508.6432537995],[630200.1999985877,5219508.70876494],[630132.4909222515,5219566.549521334],[630094.6792512127,5219597.701258206],[630094.7437898277,5219598.260854555],[630104.2547991069,5219609.253152445],[630132.1165193636,5219637.520448891]],[[630217.668583612,5219581.851087257],[630217.8366128034,5219579.819786141],[630221.4485891485,5219579.363417194],[630221.1553034688,5219581.222362395],[630217.668583612,5219581.851087257]]]},"properties":{"id":"A01","type":"A","label":"Posibilă plantare neautorizată","legal":"Reg. (UE) 1308/2013 art. 62 și 71: plantarea viței de vie pentru vin se face doar cu autorizație, iar plantările neautorizate se defrișează. În Republica Moldova: Legea 57/2006 a viei și vinului, art. 21(1) — parcelele viticole > 0,15 ha se înregistrează în Registrul vitivinicol.","confidence":"Semnal, nu verdict: rândurile și conturul blocurilor vin din pre-adnotări AI (corectate parțial în Marcaj), iar parcelele și registrul sunt DEMO. Doar controlul pe teren confirmă.","visit":[630168.18,5219621.35],"visit_snap_m":0.0,"demo":true,"vineyard_id":"V57","cad_nr":[],"area_ha":1.1826,"area_m2":11826,"share_pct":100.0,"share_of":"bloc","reason":"nicio parcelă înregistrată","block_area_ha":0.962}},{"type":"Feature","geometry":{"type":"Polygon","coordinates":[[[629091.4165596475,5220625.139142908],[629092.1228610867,5220625.508925429],[629218.8095305968,5220565.761073365],[629224.0148300031,5220544.832761374],[629226.6172727031,5220531.4871767545],[629226.0219139738,5220531.402025699],[629199.3617852015,5220546.077258079],[629197.2298769612,5220543.060400841],[629227.7794614707,5220526.589115286],[629229.7424717316,5220517.144026189],[629229.0847078478,5220516.981804587],[629199.227741568,5220533.390593548],[629198.877907681,5220532.769751718],[629199.8806529882,5220531.2333693495],[629199.6331342319,5220529.544409979],[629230.8671478982,5220512.468899489],[629236.0358613792,5220488.230492166],[629239.1288690215,5220458.060093632],[629240.6265058423,5220454.565739079],[629238.7429634689,5220451.260925958],[629236.9162345803,5220450.694313114],[629234.8049649711,5220451.60370763],[629232.6162375711,5220450.697894415],[629229.7044071873,5220452.073307366],[629228.8731460979,5220451.119780952],[629227.7343990812,5220450.697929399],[629224.754963078,5220451.790640906],[629223.3721341422,5220450.786832534],[629221.6918269872,5220450.893955229],[629217.443450599,5220453.502152218],[629217.1910304811,5220455.820624978],[629215.373082432,5220456.840153368],[629214.6199963716,5220457.852716549],[629214.8797497022,5220460.246614088],[629207.7248550749,5220464.399827867],[629207.2124765723,5220466.479283189],[629205.6115747821,5220467.666405756],[629205.192273578,5220469.297078592],[629206.9503683421,5220472.948345278],[629208.6144622569,5220473.99868787],[629194.940082717,5220481.365232774],[629193.7496571977,5220482.818691126],[629193.6465203926,5220486.179449347],[629194.0675623445,5220487.3829361545],[629193.6524122942,5220491.287881991],[629195.0418390625,5220494.251021546],[629194.0565978481,5220495.114539404],[629193.6468693669,5220496.257704344],[629194.0423661786,5220497.891602168],[629193.6331448714,5220499.2563009765],[629193.9401166033,5220504.784372532],[629192.2256380413,5220505.715735179],[629191.1662478594,5220504.43892477],[629189.6120621695,5220504.061434195],[629188.1594527735,5220502.1905061295],[629185.9814628413,5220502.074043639],[629174.2101025289,5220508.338532756],[629173.2692372215,5220510.257097598],[629174.0644401573,5220512.420006581],[629165.4699058433,5220517.386945584],[629164.9172482222,5220518.778926326],[629165.3125046216,5220520.337776471],[629164.3515556896,5220521.322494766],[629164.0531790294,5220522.548624521],[629165.599914532,5220525.993761214],[629153.1503384671,5220532.802309588],[629152.3631751849,5220534.020987539],[629152.424661362,5220535.5800554855],[629150.9711699246,5220536.492026857],[629150.3018549362,5220537.7792018335],[629150.4416084985,5220539.175996668],[629151.6445015507,5220541.452406458],[629143.7429399169,5220545.701183762],[629142.742141407,5220546.702477126],[629142.4353989112,5220550.600228092],[629142.8105163191,5220551.893506677],[629142.4358018822,5220553.244161285],[629143.0877430321,5220555.050649715],[629142.4424799371,5220556.947230524],[629142.9057189279,5220558.556506561],[629123.4598475355,5220569.552782749],[629122.691521889,5220570.783423916],[629122.7363900624,5220572.233523503],[629124.4420332001,5220575.327398862],[629125.7480075919,5220576.265519736],[629110.4759505506,5220584.822611684],[629109.7157006543,5220586.002690895],[629109.6979328413,5220587.351925007],[629107.9372605996,5220588.463652319],[629107.2574795366,5220590.004043536],[629107.5706678133,5220591.408931071],[629109.8762130704,5220594.802794031],[629095.2377572567,5220603.266962343],[629094.0755238292,5220607.137402808],[629093.0883103445,5220608.188278029],[629091.4270351607,5220612.682674938],[629091.7426516932,5220618.9265914615],[629091.4165596475,5220625.139142908]]]},"properties":{"id":"A02","type":"A","label":"Posibilă plantare neautorizată","legal":"Reg. (UE) 1308/2013 art. 62 și 71: plantarea viței de vie pentru vin se face doar cu autorizație, iar plantările neautorizate se defrișează. În Republica Moldova: Legea 57/2006 a viei și vinului, art. 21(1) — parcelele viticole > 0,15 ha se înregistrează în Registrul vitivinicol.","confidence":"Semnal, nu verdict: rândurile și conturul blocurilor vin din pre-adnotări AI (corectate parțial în Marcaj), iar parcelele și registrul sunt DEMO. Doar controlul pe teren confirmă.","visit":[629178.54,5220538.12],"visit_snap_m":0.0,"demo":true,"vineyard_id":"V08","cad_nr":["DEMO-0005","DEMO-0006"],"area_ha":0.8953,"area_m2":8953,"share_pct":50.1,"share_of":"bloc","reason":"parcelă fără autorizație / cod RVV","block_area_ha":1.359}},{"type":"Feature","geometry":{"type":"MultiPolygon","coordinates":[[[[629449.0839598724,5220551.086635967],[629452.7021033631,5220553.596682982],[629462.9000999277,5220553.286732924],[629463.260458536,5220558.051604741],[629460.9128436904,5220559.413294244],[629460.1918026803,5220561.377521354],[629461.906777896,5220565.049238331],[629463.4507049661,5220566.099278044],[629465.1315330036,5220565.8771146005],[629475.8042994426,5220560.285154935],[629477.0135212136,5220558.887282727],[629479.2389883599,5220558.816021158],[629457.9559186036,5220569.790699773],[629457.2866670687,5220570.860524618],[629457.2158872347,5220572.072833873],[629459.555441473,5220577.271385952],[629505.6034940832,5220579.768702412],[629506.8034746748,5220578.55493061],[629507.077283118,5220576.846901493],[629506.0379046806,5220574.624727587],[629507.0908174934,5220572.882195056],[629506.5427594512,5220570.864299333],[629507.1081549695,5220569.038989249],[629506.4773421072,5220567.4113498675],[629507.0983547993,5220565.515642911],[629504.8544185341,5220561.289801734],[629506.5176132405,5220560.227633471],[629507.1250240668,5220558.607946274],[629506.4878127128,5220556.74822532],[629506.4491619568,5220553.0397553425],[629506.5490997429,5220480.169100849],[629506.2087750976,5220476.716631408],[629506.528972594,5220465.235651211],[629505.3353438572,5220463.204444119],[629464.3333205334,5220460.931450684],[629458.1293884174,5220467.918848304],[629455.9178530428,5220478.400813653],[629450.960490693,5220531.044222717],[629447.6861812543,5220544.12003694],[629449.0839598724,5220551.086635967]]],[[[629443.2504598679,5220576.0914997505],[629441.2592675443,5220570.3740344485],[629440.7521689333,5220570.699043547],[629439.4538171923,5220575.679753593],[629439.7768147606,5220576.227587755],[629443.2504598679,5220576.0914997505]]],[[[629397.6027127568,5220555.490848434],[629385.650206285,5220554.747533647],[629371.906342705,5220564.839166799],[629371.7300159814,5220565.404525082],[629372.1682205107,5220565.740605258],[629401.2484954335,5220567.756984067],[629401.9829787213,5220570.104270774],[629398.4744120153,5220571.495579818],[629397.7760930574,5220572.976644702],[629398.209211703,5220574.024469108],[629425.5956751322,5220575.470301604],[629425.9561361482,5220574.834897067],[629421.1960918789,5220559.488076253],[629426.1713897231,5220575.36609814],[629434.155643186,5220575.772263612],[629429.3755057411,5220559.522166985],[629430.0631632535,5220559.55512311],[629434.1233334122,5220572.631118576],[629434.8050941972,5220572.939251673],[629438.3343918433,5220560.14204206],[629438.0857898942,5220559.085308334],[629438.7020850301,5220558.721133098],[629440.063767913,5220553.436411352],[629433.4636600538,5220520.0728099765],[629432.7853230394,5220520.04913067],[629425.8083646719,5220527.324934575],[629398.9460540109,5220544.933514916],[629400.2091657657,5220552.91970751],[629398.3142655743,5220553.682758266],[629397.6027127568,5220555.490848434]]]]},"properties":{"id":"A03","type":"A","label":"Posibilă plantare neautorizată","legal":"Reg. (UE) 1308/2013 art. 62 și 71: plantarea viței de vie pentru vin se face doar cu autorizație, iar plantările neautorizate se defrișează. În Republica Moldova: Legea 57/2006 a viei și vinului, art. 21(1) — parcelele viticole > 0,15 ha se înregistrează în Registrul vitivinicol.","confidence":"Semnal, nu verdict: rândurile și conturul blocurilor vin din pre-adnotări AI (corectate parțial în Marcaj), iar parcelele și registrul sunt DEMO. Doar controlul pe teren confirmă.","visit":[629479.25,5220520.28],"visit_snap_m":0.0,"demo":true,"vineyard_id":"V11","cad_nr":["DEMO-0008","DEMO-0009"],"area_ha":0.7903,"area_m2":7903,"share_pct":44.7,"share_of":"bloc","reason":"parcelă fără autorizație / cod RVV","block_area_ha":1.221}},{"type":"Feature","geometry":{"type":"Polygon","coordinates":[[[629245.5723840394,5220551.814910262],[629250.040446708,5220549.405079228],[629251.0293523594,5220548.042371261],[629250.638312993,5220545.793754174],[629251.167968049,5220544.420512798],[629250.9546841126,5220541.313218585],[629249.0464604758,5220538.004557994],[629246.7636022144,5220537.360530759],[629250.4377076245,5220535.211473233],[629251.1232538372,5220533.886096357],[629250.7766738938,5220533.343482659],[629226.7560940386,5220546.29504604],[629213.0148519924,5220602.156110487],[629213.212786967,5220602.684450594],[629249.7812775967,5220583.6688998435],[629250.7088954904,5220582.830553213],[629251.1121922445,5220581.68510341],[629250.6815105667,5220579.993965841],[629251.1418457786,5220575.95802612],[629250.705664011,5220574.518963768],[629251.1353157,5220573.103033814],[629250.7871699022,5220557.622031301],[629248.8240858834,5220553.851732176],[629247.7465877929,5220553.194905944],[629246.3270248867,5220553.187626184],[629245.5723840394,5220551.814910262]]]},"properties":{"id":"A04","type":"A","label":"Posibilă plantare neautorizată","legal":"Reg. (UE) 1308/2013 art. 62 și 71: plantarea viței de vie pentru vin se face doar cu autorizație, iar plantările neautorizate se defrișează. În Republica Moldova: Legea 57/2006 a viei și vinului, art. 21(1) — parcelele viticole > 0,15 ha se înregistrează în Registrul vitivinicol.","confidence":"Semnal, nu verdict: rândurile și conturul blocurilor vin din pre-adnotări AI (corectate parțial în Marcaj), iar parcelele și registrul sunt DEMO. Doar controlul pe teren confirmă.","visit":[629236.35,5220568.29],"visit_snap_m":0.2,"demo":true,"vineyard_id":"V10","cad_nr":["DEMO-0007"],"area_ha":0.1524,"area_m2":1524,"share_pct":100.0,"share_of":"bloc","reason":"parcelă cu alt status în registru","block_area_ha":0.167}},{"type":"Feature","geometry":{"type":"Polygon","coordinates":[[[629710.8998750579,5219795.212276331],[629710.8998750579,5219839.212276331],[629780.8998750579,5219839.212276331],[629780.8998750579,5219795.212276331],[629710.8998750579,5219795.212276331]]]},"properties":{"id":"B01","type":"B","label":"Posibil defrișată / abandonată (registru de actualizat)","legal":"Reg. delegat (UE) 2018/273 art. 7 și art. 37(3): registrul viticol conține suprafețele plantate, defrișate și abandonate și se corectează după verificare; viță abandonată = necultivată regulat de peste 5 ani viticoli (art. 2).","confidence":"Semnal, nu verdict: rândurile și conturul blocurilor vin din pre-adnotări AI (corectate parțial în Marcaj), iar parcelele și registrul sunt DEMO. Doar controlul pe teren confirmă.","visit":[629754.59,5219824.15],"visit_snap_m":11.1,"demo":true,"cad_nr":["DEMO-0037"],"vineyard_id":null,"area_ha":0.308,"area_m2":3080,"share_pct":0.0,"share_of":"parcelă acoperită de vie detectată","reason":"fără vie pe imagine"}},{"type":"Feature","geometry":{"type":"Polygon","coordinates":[[[630610.6676460071,5219773.229874119],[630610.6676460071,5219817.229874119],[630680.6676460071,5219817.229874119],[630680.6676460071,5219773.229874119],[630610.6676460071,5219773.229874119]]]},"properties":{"id":"B02","type":"B","label":"Posibil defrișată / abandonată (registru de actualizat)","legal":"Reg. delegat (UE) 2018/273 art. 7 și art. 37(3): registrul viticol conține suprafețele plantate, defrișate și abandonate și se corectează după verificare; viță abandonată = necultivată regulat de peste 5 ani viticoli (art. 2).","confidence":"Semnal, nu verdict: rândurile și conturul blocurilor vin din pre-adnotări AI (corectate parțial în Marcaj), iar parcelele și registrul sunt DEMO. Doar controlul pe teren confirmă.","visit":[630633.87,5219828.43],"visit_snap_m":35.2,"demo":true,"cad_nr":["DEMO-0038"],"vineyard_id":null,"area_ha":0.308,"area_m2":3080,"share_pct":0.0,"share_of":"parcelă acoperită de vie detectată","reason":"fără vie pe imagine"}}]}